court_id,name,address,city_code,dist_code,latitude,longtitude,phone,logo_url,description,open_status,geometry
1,崇林國中排球場(館),新北市林口區文化一路一段20號,65000,65000170,25.06754853,121.3695019,02-26095829#133,https://az804957.vo.msecnd.net/photogym/20140716092641_IMG_5446 (2).JPG,"排球場(館),排球場(館)",FREE,
2,礁溪國小排球場(館),宜蘭縣礁溪鄉大忠村礁溪路四段135號,10002,10002050,24.82226354,121.7684484,03-9882047,https://az804957.vo.msecnd.net/photogym/20140716143305_13.jpg,排球場(館),CLOSE,
3,新嘉國小籃球場,臺南市後壁區新嘉里210之2號,67000,67000050,23.36153182,120.3236432,06-6621981,https://az804957.vo.msecnd.net/photogym/20140716152239_DSC05003.JPG,籃球場(館),FREE,
4,文林國小活動中心,新北市樹林區潭底里千歲街59號,65000,65000070,24.99772471,121.4255936,02-26812625#833,https://az804957.vo.msecnd.net/photogym/20140716195840_活動中心.jpg,"排球場(館),排球場(館)",CLOSE,
5,高雄醫學大學排球場(館),高雄市三民區十全一路100號,64000,64000050,22.64766359,120.3095979,07-3121101#2124,https://az804957.vo.msecnd.net/photogym/20140716224619_操場22.jpg,排球場(館),CLOSE,
6,桃園農工風雨操場(館),桃園市桃園區成功路二段144號,68000,68000010,24.99168851,121.3199294,03-3333921#350,https://az804957.vo.msecnd.net/photogym/20140716134433_IMG_20140716_134500.jpg,排球場(館),PAID,
7,啟文國小活動中心,苗栗縣苗栗市福星里啟賢街61號,10005,10005010,24.56872674,120.8263411,037-260466,https://az804957.vo.msecnd.net/photogym/20140717094109_IMAG0010.jpg,總合場館,CLOSE,
8,光華高中大禮堂,臺南市東區勝利路41號,67000,67000320,22.98868384,120.2173322,06-2386501#221,https://az804957.vo.msecnd.net/photogym/20140716085215_調整大小DSC02883.JPG,"籃球場,羽球場(館),排球場(館)",CLOSE,
9,四張犁國中排球場(館),臺中市北屯區同榮里后庄路699號,66000,66000080,24.19469636,120.6779158,04-24210380#723,https://az804957.vo.msecnd.net/photogym/20140717103736_DSC04091.JPG,排球場,FREE,
10,新興國中排球場(館),臺南市南區新孝路87號,67000,67000330,22.97724391,120.1861382,06-2633171,https://az804957.vo.msecnd.net/photogym/20140717114952_DSCN0456.JPG,排球場(館),FREE,
11,苓和國小體育館,臺南市將軍區苓和里132號,67000,67000160,23.22056586,120.1614779,06-7942031#13,https://az804957.vo.msecnd.net/photogym/20140717120324_DSCN0025.JPG,"籃球場,排球場(館),羽球場(館)",CLOSE,
12,耕莘健康管理專科學校排球場,新北市新店區民族路112號,65000,65000060,24.97755345,121.5362978,02-22191131#5323,https://az804957.vo.msecnd.net/photogym/20140715141800_排球場1.JPG,"室外籃球場,排球場(館)",CLOSE,
13,豐原國小活動中心,臺中市豐原區新生北路155號,66000,66000090,24.25464349,120.7202625,04-25222066,https://az804957.vo.msecnd.net/photogym/20140718104731_禮堂1.jpg,排球場(館),CLOSE,
14,員林家商排球場,彰化縣員林市中正路56號,10007,10007100,23.95027304,120.577966,04-8320260#229,https://az804957.vo.msecnd.net/photogym/20140721105802_排球場2.jpg,排球場,FREE,
15,修德國小排球場,臺北市南港區東新街118巷86號,63000,63000090,25.04481538,121.5894002,02-27880500,https://az804957.vo.msecnd.net/photogym/20140721120335_IMG_3703.JPG,排球場(館),CLOSE,
16,大雅國中體育館,臺中市大雅區學府路280號,66000,66000180,24.22370482,120.6510133,04-25672171#304,https://az804957.vo.msecnd.net/photogym/20140721150852_mobile52101861-184a-4891-bdd1-870edcfabb07.jpg,"籃球場,排球場(館),羽球場(館)",CLOSE,
17,大雅國中田徑場,臺中市大雅區學府路280號,66000,66000180,24.22448266,120.6514317,04-25672171#304,https://az804957.vo.msecnd.net/photogym/20140721154753_mobilef86b133c-64f2-4e8e-92fc-603db7691cf2.jpg,"籃球場,排球場(館)",FREE,
18,惠文國小籃球場,臺中市南屯區公益路二段300號,66000,66000070,24.15334214,120.6375647,04-22596907,https://az804957.vo.msecnd.net/photogym/20140722111417_22243.jpg,"籃球場,排球場",FREE,
19,北門國中活動中心,臺南市北門區永華里1之1號,67000,67000170,23.2531976,120.1283044,06-7862014#14,https://az804957.vo.msecnd.net/photogym/20140709111215_IMG_4679.JPG,活動中心,CLOSE,
20,惠文國小活動中心,臺中市南屯區公益路二段300號,66000,66000070,24.15257855,120.6381601,04-22596907#724,https://az804957.vo.msecnd.net/photogym/20140722114958_22242.jpg,"排球場(館),躲避球場",CLOSE,
21,日南國中排球場(館),臺中市大甲區中山路二段69-11號,66000,66000110,24.37767574,120.6509328,04-26813721#532,https://az804957.vo.msecnd.net/photogym/20140722115936_33.jpg,排球場(館),FREE,
22,金門大學體育館,金門縣金寧鄉大學路1號,9020,9020040,24.44728808,118.3221531,082-313802,https://az804957.vo.msecnd.net/photogym/20140718135721_IMG_3751.JPG,"籃球場,羽球場(館),排球場(館),舞蹈教室,桌球場(館),健身房(含重量訓練室),壁球場,壁球場",FREE,
23,大園國小籃球場,彰化縣埔鹽鄉豐澤村埔打路45之1號,10007,10007140,23.97956295,120.4880731,04-8853760,https://az804957.vo.msecnd.net/photogym/20140722102650_CIMG3791.JPG,"羽球場(館),排球場(館)",FREE,
24,苑裡國小新活動中心,苗栗縣苑裡鎮中山路307號,10005,10005020,24.44910059,120.6548354,03-7861013#25,https://az804957.vo.msecnd.net/photogym/20160909174637_1JWTMG9MOA6UAUTY4JG7.jpg,排球場(館),CLOSE,
25,茄萣國中體育館,高雄市茄萣區白雲里濱海路四段29號,64000,64000260,22.90598503,120.1812887,07-6900054#31,https://az804957.vo.msecnd.net/photogym/20140616140802_P1040421.JPG,"羽球場(館),跆拳道場/館,排球場(館)",CLOSE,
26,建國國中田徑場,苗栗縣頭份鎮建國路119號,10005,,24.69448759,120.9103882,037-691491,https://az804957.vo.msecnd.net/photogym/20140722100508_場館-1.jpg,"田徑場,籃球場,排球場,籃球場(慈輝分校)",FREE,
27,新發國小籃球場,高雄市六龜區新發里和平路130號,64000,64000320,23.03244566,120.6623966,07-6791387,https://az804957.vo.msecnd.net/photogym/20140619103055_新發國小-籃球場照片.jpg,"籃球場(館),羽球場(館),躲避球場",FREE,
28,瑞竹國中籃球與排球場,南投縣竹山鎮瑞竹里瑞東巷20號,10008,10008040,23.66767853,120.6719935,049-2711014,https://az804957.vo.msecnd.net/photogym/20160628102531_樂群管.jpg,籃球場,FREE,
29,竹東高中排球場,新竹縣竹東鎮大林路2號,10004,10004020,24.73300441,121.0882187,03-5962024#303,https://az804957.vo.msecnd.net/photogym/20170417144810_Y4ZT3SG91M1FG5SNGPUP.jpg,排球場(館),CLOSE,
30,竹東高中排球場,新竹縣竹東鎮大林路2號,10004,10004020,24.73300441,121.0882187,03-5962024#303,https://az804957.vo.msecnd.net/photogym/20170417144417_8JH3NJ4HW4NM3JA3TZ3E.jpg,排球場(館),CLOSE,
31,三民高中操場,新北市蘆洲區三民路96號,65000,65000140,25.08664831,121.4737165,02-22894675#231,https://az804957.vo.msecnd.net/photogym/20170420103337_IB0JTBBDKJ8WYN5VNXYA.jpg,排球場(館),FREE,
32,化仁國小活動中心,花蓮縣吉安鄉東里十一街83號,10015,10015050,23.96276899,121.5965348,03-8528720#313,https://az804957.vo.msecnd.net/photogym/20140612165655_YI8JPLMKBOVUSUN8HITF.JPG,"風雨教室,籃球場",CLOSE,
33,鹿港國小活動中心前球場,彰化縣鹿港鎮菜園里三民路192號,10007,10007020,24.05245028,120.4335076,04-7772038,https://az804957.vo.msecnd.net/photogym/20140707143703_BUDA6THZGJDX8H9V0JXT.JPG,"半場籃球場,躲避球場,排球場(館)",FREE,
34,竹塘國中躲避球場(與排球場共用),彰化縣竹塘鄉竹塘村竹林路一段550號,10007,10007250,23.86480374,120.4257452,04-8972034#14,https://az804957.vo.msecnd.net/photogym/20140707152104_DSC06079.JPG,躲避球場,FREE,
35,籃球場，排球場,臺東縣太麻里鄉大王村德輝路18號,10014,10014090,22.61521915,121.00595,08-9781324#20,https://az804957.vo.msecnd.net/photogym/20140701093837_DSC_1006.JPG,排球場(館),FREE,
36,平和國中排球場,花蓮縣壽豐鄉平和村平和路48號,10015,10015060,23.88440544,121.5178174,03-8661221#12,https://az804957.vo.msecnd.net/photogym/20170421142155_62NS06W93FU5V8AYVY92.jpg,排球場(館),CLOSE,
37,港和國小活動中心,高雄市小港區平和南路300號,64000,64000110,22.56827906,120.3379753,07-8131506#224,https://az804957.vo.msecnd.net/photogym/20140616110528_活動中心全景(自訂).jpg,"籃球場,排球場(館),羽球場(館)",CLOSE,
38,樂群國小體育館,高雄市前鎮區育樂路61號,64000,,22.60807827,120.3224427,07-7225846#724,https://az804957.vo.msecnd.net/photogym/20140619120033_K:\DCIM\204___06\IMG_0634.JPG,排球場(館),CLOSE,
39,馬公高中體育館,澎湖縣馬公市中華路369號,10016,10016010,23.57291569,119.5797658,06-9272342#331,https://az804957.vo.msecnd.net/photogym/20140603092847_NT0J1BIPTR615H4ATZ9K.jpg,"籃球場,排球場(館),籃球場,羽球場(館),田徑場,桌球場(館)",PAID,
40,明德高中排球場(館),新北市三峽區中正路二段399號,65000,65000090,24.90422639,121.3663101,02-26723302#235,https://az804957.vo.msecnd.net/photogym/20140616092139_IMG_20140616_090331.jpg,排球場(館),CLOSE,
41,興華高中室外籃、排球場,苗栗縣頭份鎮中正一路401號,10005,,24.68681594,120.9359765,037-663403#313,https://az804957.vo.msecnd.net/photogym/20140618112904_20111222307.jpg,籃排球場,FREE,
42,世賢國小田徑場,嘉義市西區世賢路一段687號,10020,10020020,23.48846827,120.4286957,05-2338264,https://az804957.vo.msecnd.net/photogym/20140613154051_DSCN1476.JPG,"田徑場,籃球場,排球場(館),躲避球場",CLOSE,
43,日新國小綜合球場,臺南市南區金華路一段473號,67000,67000330,22.97234079,120.1899586,06-2912931#521,https://az804957.vo.msecnd.net/photogym/20160707092922_E3DSK419TFOIRT3JFBIX.jpg,排球場(館),FREE,
44,水上國中室外多功能排羽球場,嘉義縣水上鄉水上村進學街45號,10010,10010120,23.42529243,120.3952944,05-2682024#12,https://az804957.vo.msecnd.net/photogym/20180507104859_GU0S6OK1Q4D6ML7ZBYI6.JPG,水上國中室外多功能排球、羽球場,FREE,
45,百齡高中活動中心,臺北市士林區義信里承德路4段177號,63000,63000110,25.08645398,121.5235519,02-28831568,https://az804957.vo.msecnd.net/photogym/20140529142146_百齡高中活動中心.jpg,"籃球場,排球場(館),羽球場(館)",PAID,
46,臺南二中排球場(館),臺南市北區北門路二段125號,67000,67000340,23.00558688,120.2124774,06-2514526#401,https://az804957.vo.msecnd.net/photogym/20140611165315_mobile831d0fb2-8109-4f3b-96f4-8f77c8ec06d2.jpg,排球場(館),FREE,
47,勤益科大戶外操場(手球場、籃球場、排球場、網球場),臺中市太平區坪林里中山路二段57號,66000,66000270,24.14549459,120.730927,04-23924505#5621,https://az804957.vo.msecnd.net/photogym/20161121141407_VEU1L0WBDLIJFE85LL4D.JPG,"田徑場,手球場(館),籃球場,排球場(館)",FREE,
48,中華大學活動中心,新竹市香山區東香里五福路二段707號,10018,10018030,24.75892248,120.9542316,03-5186812,https://az804957.vo.msecnd.net/photogym/20140618110929_IMG_8656.JPG,"羽球場(館),舞蹈教室,籃球場,排球場(館)",FREE,
49,政治大學體育館,臺北市文山區指南路二段64號,63000,63000080,24.98500288,121.5736556,02-29393091#62964,https://az804957.vo.msecnd.net/photogym/20140529165724_W3WV3WO2NW7IGELU06BS.jpg,"籃球場,排球場,羽球場,桌球室,舞蹈教室,綜合教室,重訓室",CLOSE,
50,華僑高級中學排球場(館),新北市板橋區大觀路一段32號,65000,65000010,25.00546353,121.4458001,02-29684131#341,https://az804957.vo.msecnd.net/photogym/20140609183344_排球館全景照片.jpg,"排球場(館) ,健身房(含重量訓練室),飛輪教室",PAID,
51,光啟高中田徑場,桃園市龜山區自由街40號,68000,68000070,25.02016278,121.4029866,02-82098313#501,https://az804957.vo.msecnd.net/photogym/20140604082800_IMG_0863.jpg,"田徑場,籃球場,羽球場,排球場",PAID,
52,台北海洋科技大學田徑場,臺北市士林區延平北路九段212號,63000,63000110,25.1087228,121.4710557,02-28102292#2246,https://az804957.vo.msecnd.net/photogym/20140613114150_士林田徑場全景壓縮.JPG,"籃球場,排球場(館),田徑場",FREE,
53,原斗國中小國小部躲避球場,彰化縣二林鎮原斗里斗苑路一段865號,10007,10007200,23.89640788,120.4266865,04-8904600#22,https://az804957.vo.msecnd.net/photogym/20180808091608_5J8EAK0R3H0BNNBY4UBZ.JPG,"籃球場,排球場(館),躲避球場",FREE,
54,臺灣師範大學體育館,新北市林口區仁愛路一段2號,65000,65000170,25.06834057,121.4032602,02-77148466,https://az804957.vo.msecnd.net/photogym/20140604142414_10411391_669670059771081_8249484465687623851_n.jpg,"羽球場(館),籃球場,排球場(館),大韻律教室,小韻律教室,健身房(含重量訓練室),桌球場(館)",PAID,
55,中興國中田徑場,桃園市桃園區文中路122號,68000,68000010,24.99748891,121.2906504,03-3600145,https://az804957.vo.msecnd.net/photogym/20140611165640_20140610_161006.jpg,"田徑場,籃球場,排球場(館)",FREE,
56,大德國中田徑場(含籃球場2座、排球場1座),臺中市北屯區雷中街2之23號,66000,66000080,24.1804221,120.6694293,04-22916984,https://az804957.vo.msecnd.net/photogym/20140718115835_IMG_3300[1].JPG,"籃球場,排球場",FREE,
57,實踐大學H宿露天綜合球場(高雄校區),高雄市內門區大學路200號,64000,64000350,22.90517278,120.4667274,07-6678888#3261,https://az804957.vo.msecnd.net/photogym/20140618155922_H宿露天綜合球場.JPG,"排球場(館),籃球場,網球場(館)",CLOSE,
58,臺中市潭子沙灘排球場,台灣台中市潭子區興華一路222-248號 對面,,,24.20895729,120.703497,04-25343542#215,https://az804957.vo.msecnd.net/photogym/20181011112316_GB0SHFOQGTLZ7BAUPM65.JPG,沙灘排球場,CLOSE,
59,芎林國中體育館,新竹縣芎林鄉新鳳村74號,10004,10004070,24.76188858,121.0916305,03-5922775#47,https://az804957.vo.msecnd.net/photogym/20140609170805_4UT7BBF6SHTRFV3SZ0XF.JPG,"籃球場,排球場",FREE,
60,南投國中籃球場,南投縣南投市漳和里祖祠路361號,10008,10008010,23.91323891,120.6746918,049-2222549#220,https://az804957.vo.msecnd.net/photogym/20140606095737_DSC_0232.JPG,"籃球場,排球場(館),躲避球場",FREE,
61,興安國小風雨球場,嘉義市東區興安街35號,10020,10020010,23.45913057,120.4562395,05-2232280,https://az804957.vo.msecnd.net/photogym/20200424111212_MD7F4HNKPNLOCCZPMWA0.jpg,"籃球場,排球場(館)",FREE,
62,新港藝術高中室外球場,嘉義縣新港鄉宮後村藝高路1號,10010,10010070,23.56038776,120.3487551,05-3747060#254,https://az804957.vo.msecnd.net/photogym/20140715094456_DSC06593.JPG,"室外排球場,室外網球場,籃球場",FREE,
63,興糖國小田徑運動場,高雄市橋頭區橋南里興糖路19巷1號,64000,64000200,22.75083543,120.3171623,07-6113804#32,https://az804957.vo.msecnd.net/photogym/20140630135540_05W26TNJK0XY62H3TQ04.jpg,"田徑場,籃球場,排球場(館),跳遠場地",CLOSE,
64,六甲國小活動中心,臺南市六甲區中正路319號,67000,67000090,23.22527627,120.3490528,06-6982041,https://az804957.vo.msecnd.net/photogym/20140716163514_02.jpg,排球場(館),CLOSE,
65,黃竹國小籃球場,臺中市太平區黃竹里竹村路41號,66000,66000270,24.08383731,120.7523775,04-22715933,https://az804957.vo.msecnd.net/photogym/20140721224408_D306XT13ZIYXS08DLP6E.jpg,籃球場(館),FREE,
66,崇光國小運動場,臺中市大里區大明路181號,66000,66000280,24.11410444,120.6844336,04-24818836#5031,https://az804957.vo.msecnd.net/photogym/20140806143549_P1050360.JPG,"排球場(館),田徑場",FREE,
67,文英國中田徑場,苗栗縣頭份鎮尖下里200號,10005,,24.65581259,120.8802938,03-7624260,https://az804957.vo.msecnd.net/photogym/20140703150052_DSC06362.JPG,"田徑場,棒、壘球打擊練習場,籃球場,排球場(館)",FREE,
68,屏東高中活動中心,屏東縣屏東市忠孝路231號,10013,10013010,22.68612921,120.4877244,08-7656444#350,https://az804957.vo.msecnd.net/photogym/20140604184347_7QWNT91W0VDAZGXBG6YA.jpg,排球場,FREE,
69,載興國小籃球場,屏東縣里港鄉載興村載興路1之3號,10013,10013090,22.77835211,120.5244797,08-7752271,https://az804957.vo.msecnd.net/photogym/20140710114939_1.jpg,排球場(館),FREE,
70,綜合球場,南投縣魚池鄉水社村中山路190號,10008,10008090,23.86794112,120.9100208,049-2855145#13,https://az804957.vo.msecnd.net/photogym/20170705080306_8CDPHWPZSZG159RJSLNB.jpg,排球場(館),FREE,
71,室外多功能球場,宜蘭縣宜蘭市樹人路37號,10002,,24.76216519,121.7568009,03-9322519,https://az804957.vo.msecnd.net/photogym/20170929093139_JUVC8LGMUNKUX1YA1YAV.JPG,"籃球場,排球場(館)",FREE,
72,龍崎國中排球場,臺南市龍崎區新市子258號,67000,67000300,22.9690622,120.3601599,06-5941475#10,https://az804957.vo.msecnd.net/photogym/20140708090023_CIMG2738.JPG,排球場,CLOSE,
73,嘉新田徑場,61251嘉義縣太保市北新里17鄰中興路一段250號,,,23.50037249,120.3780282,05-2373029#124,https://az804957.vo.msecnd.net/photogym/20191118105638_1RHLDCQVVUE85PHF5XTV.jpg,"籃球場,排球場,羽球場(館)",FREE,
74,光武國中田徑場,新竹市東區光復路一段512號,10018,10018010,24.78808534,121.0129615,03-5778784,https://az804957.vo.msecnd.net/photogym/20160509094333_緊急逃生避難示意圖.JPG,"田徑場,田徑場附設排球場,網球場",FREE,
75,宣信國小田徑場,嘉義市東區宣信街266號,10020,10020010,23.47026822,120.4597878,05-2223904#2921,https://az804957.vo.msecnd.net/photogym/20140606150453_DSC_1611.jpg,"田徑場,躲避球場,排球場(館)",FREE,
76,籃球場,新北市土城區永寧路18號,65000,65000130,24.96287208,121.4295352,02-22675135#401,https://az804957.vo.msecnd.net/photogym/20170707142741_IKD57LWCWP8TDQ6DKQ2F.JPG,籃球場,FREE,
77,土城國中操場旁排球場,新北市土城區永寧路18號,65000,65000130,24.96186502,121.4296736,02-22675135#401,https://az804957.vo.msecnd.net/photogym/20200504111900_86UXT9CJ1U3J8NE2XBSZ.jpg,排球場(館),CLOSE,
78,南興國中田徑場,嘉義市東區芳安路111號,10020,10020010,23.4691906,120.4625452,05-2224383#225,https://az804957.vo.msecnd.net/photogym/20140718155936_M7K92JMVKX616NRMZGFF.jpg,"田徑場,籃球場,排球場(館)",PAID,
79,關廟國中排球場,臺南市關廟區中山路二段172號,67000,67000290,22.96073462,120.3243095,06-5951181#202,https://az804957.vo.msecnd.net/photogym/20200505144446_8XK6R7T54B9SOHVKFARQ.jpg,排球場(館),CLOSE,
80,青草國小風雨球場,臺南市安南區青砂街二段105巷32號,67000,67000350,23.07683979,120.1164651,06-2577631,https://az804957.vo.msecnd.net/photogym/20160505141013_DSC02394-1.jpg,排球場(館),PAID,
81,池上國中排球場,臺東縣池上鄉新興村力學路88號,10014,10014060,23.11484007,121.2049323,08-9862040,https://az804957.vo.msecnd.net/photogym/20200507151716_D5S13K82G4E9AWXKD4MJ.jpg,排球場,FREE,
82,北園國小排球場(館),嘉義市西區北湖里北社尾路168號,10020,10020020,23.49453932,120.4260135,05-2371330#128,https://az804957.vo.msecnd.net/photogym/20140711154615_DSCN0995.JPG,風雨球場,FREE,
83,台中女中田徑場,臺中市西區自由路一段95號,66000,66000040,24.13621905,120.6772131,04-22205108,https://az804957.vo.msecnd.net/photogym/20160504113717_DSC05599.JPG,"籃球場,網球場,排球場,田徑場",CLOSE,
84,石牌國中室外排球場,臺北市北投區吉利里石牌路1段139號,63000,63000120,25.11590221,121.51297,02-28224682,https://az804957.vo.msecnd.net/photogym/20190819091909_U5G45HHQ55RAMSQW11A9.jpg,排球場(館),CLOSE,
85,士商排球場,臺北市士林區後港里士商路150號,63000,63000110,25.09440482,121.5151425,02-28313114#306,https://az804957.vo.msecnd.net/photogym/20200512162319_TZWEWABXMYOJ1PEMEJXX.jpg,排球場(館),CLOSE,
86,長安國中綜合球場,臺北市中山區興亞里松江路70巷11號,63000,63000040,25.04941617,121.5319236,02-25112382#309,https://az804957.vo.msecnd.net/photogym/20140728124342_DILLJU3XLQMNYP3T7B18.jpg,"籃球場,排球場,羽球場",FREE,
87,頭城家商勤毅樓,宜蘭縣頭城鎮新興路111號,10002,10002040,24.85146768,121.8169749,03-9771131#123,https://az804957.vo.msecnd.net/photogym/20140530102832_P1130269.JPG,"羽球場(館),籃球場,排球場(館),籃球場,網球場(館),田徑場,足球場,健身房(含重量訓練室)",CLOSE,
88,澎湖高級海事水產職業學校綜合體育館,澎湖縣馬公市中興里民族路63號,10016,10016010,23.57042837,119.5640802,06-9261101#321,https://az804957.vo.msecnd.net/photogym/20140606104123_IMG_20140606_092401.jpg,"籃球場,桌球場(館),舉重室,排球場(館)",CLOSE,
89,佳冬高農籃球場,屏東縣佳冬鄉佳冬村佳農路67號,10013,10013210,22.41239727,120.5641848,08-8662726#302,https://az804957.vo.msecnd.net/photogym/20140618145422_C:\Documents and Settings\Administrator\My Documents\My Pictures\充實器材設備\DSC03471.JPG,"排球場(館),籃球場,排球場(館)",FREE,
90,興雅國中排球場,臺北市信義區松德路168巷15號,63000,63000020,25.03544,121.5721911,02-27232771#330,https://az804957.vo.msecnd.net/photogym/20160505092515_MMDA045S5UOFCCYAQJWL.JPEG,排球場,FREE,
91,明正國中體育館,屏東縣屏東市大連路70號,10013,10013010,22.67907935,120.4982132,08-7363078,https://az804957.vo.msecnd.net/photogym/20140620113631_DSC04174.JPG,"籃球場,排球場,網球場(館),籃球場",PAID,
92,泰武國中籃球場,屏東縣泰武鄉佳平路120號,10013,10013290,22.59144285,120.6331229,08-7831025#13,https://az804957.vo.msecnd.net/photogym/20140627094912_TYFNW68IC2ZBYUVMZ9CC.jpg,籃球場,FREE,
93,寶桑國中排球場,臺東縣臺東市仁七街1號,10014,10014010,22.76955849,121.1448991,089-220011,https://az804957.vo.msecnd.net/photogym/20200527130014_2G8U89PYY0M5J07RBI8K.JPG,排球場(館),FREE,
94,大寮國中排球場,高雄市大寮區永芳里進學路150號,64000,64000140,22.6026357,120.3928989,07-7837091#218,https://az804957.vo.msecnd.net/photogym/20140617140056_IMAG0263.jpg,"排球場(館),田徑場",CLOSE,
95,慈文國中操場附設籃球場與排球場及網球場,桃園市桃園區中正路835號,68000,68000010,25.00880244,121.3002816,03-3269340#313,https://az804957.vo.msecnd.net/photogym/20140617113342_DSC05692.JPG,"田徑場,籃球場,排球場(館),半場籃球場",FREE,
96,景美女中排球場,臺北市文山區樟新里木新路3段312號,63000,63000080,24.98250034,121.5554237,02-29368847#339,https://az804957.vo.msecnd.net/photogym/20140822094303_照片 4-1.jpg,"排球場(館),排球場(館)",CLOSE,
97,東方工商排球場,臺北市大安區信義路四段186巷8號,63000,63000030,25.03207616,121.5512037,02-27554616,https://az804957.vo.msecnd.net/photogym/20140821094353_VAMCL12YUYSOT74JXQX0.JPG,排球場(館),CLOSE,
98,漢口國中田徑場附設籃球場、排球場,臺中市西屯區漢口路一段54之1號,66000,66000060,24.161756,120.657118,04-23130511#722,https://az804957.vo.msecnd.net/photogym/20200420101906_RYMTQ0WJ60BBFYIZ1TIC.jpg,田徑場附設籃球場、排球場,FREE,
99,高雄女中排球場,高雄市前金區五福三路122號,64000,,22.62212198,120.2941078,07-2115418,https://az804957.vo.msecnd.net/photogym/20140607223617_494AB8HXEHZ52L6KL5XL.jpg,排球場(館),CLOSE,
100,金陵女中田徑場,新北市三重區重新路五段656號,65000,65000020,25.04254086,121.4675206,02-29956776#201,https://az804957.vo.msecnd.net/photogym/20140616094540_DSCN0665.jpg,"籃球場,排球場(館),田徑場",CLOSE,
101,大溪高中體育館,桃園市大溪區康莊路641號,68000,68000030,24.86957362,121.2854522,03-3878628#512,https://az804957.vo.msecnd.net/photogym/20140605142109_P1080240.JPG,"羽球場,籃球場,排球場",CLOSE,
102,中山國小活動中心,桃園市桃園區國際路一段1070號,68000,68000010,24.98637894,121.2901032,03-2203012#350,https://az804957.vo.msecnd.net/photogym/20140620133548_DSCF5009.JPG,排球場(館),CLOSE,
103,半戶外籃、排球場,宜蘭縣蘇澳鎮蘇港路213號,10002,10002030,24.59252479,121.8434973,03-9951661#320,https://az804957.vo.msecnd.net/photogym/20200522084322_V7Y9MNAXA15IN4XUPKAO.jpg,籃球場,CLOSE,
104,北辰國小學生活動中心,雲林縣北港鎮新街里成功路30號,10009,10009060,23.57831557,120.3020784,05-6341255#038,https://az804957.vo.msecnd.net/photogym/20140613113018_XX04OWZPL2D19Y0G52HZ.jpg,排球場(館),CLOSE,
105,中正國小綜合球場,雲林縣虎尾鎮林森路一段64號,10009,10009030,23.71914961,120.4406261,05-6322710,https://az804957.vo.msecnd.net/photogym/20140612170738_DSCN0272.JPG,"籃球場,排球場(館)",FREE,
106,大觀國中樂活館,新北市板橋區僑中一街1號,65000,65000010,25.01091305,121.448223,02-22725015#831,https://az804957.vo.msecnd.net/photogym/20140616164020_P1050625.JPG,"排球場(館),羽球場(館)",PAID,
107,臺北商業大學學生活動中心,臺北市中正區濟南路一段321號,63000,63000050,25.04230271,121.5260732,02-23226177,https://az804957.vo.msecnd.net/photogym/20140604110420_P7168495.JPG,"籃球場,排球場(館),羽球場(館)",FREE,
108,文雅國小風雨操場(籃球場),臺中市大雅區文雅里中山北路235號,66000,66000180,24.21938015,120.6460673,04-25678823,https://az804957.vo.msecnd.net/photogym/20140721184938_DSCF3899.JPG,"籃球場,排球場(館),排球場(館)",FREE,
109,臺北商業大學排球場,臺北市中正區濟南路一段321號,63000,63000050,25.04225411,121.5256441,02-23226177,https://az804957.vo.msecnd.net/photogym/20140604111522_P7168480.JPG,臺北商業大學排球場,FREE,
110,文生高中志毅館,雲林縣四湖鄉中正路509號,10009,10009180,23.63233916,120.2276185,05-7872024#13,https://az804957.vo.msecnd.net/photogym/20140620135815_DSC_0091.JPG,"籃球場,排球場(館)",CLOSE,
111,內壢高中體育館,桃園市中壢區成章四街120號,68000,68000020,24.97688726,121.2565809,03-4528080#233,https://az804957.vo.msecnd.net/photogym/20140604100203_圖片1.gif,"游泳池(館),籃球場,桌球場(館),韻律教室,健身房(含重量訓練室),柔道教室,排球場(館),羽球場(館)",PAID,
112,東吳工家籃球場,嘉義市東區宣信街252號,10020,10020010,23.46884616,120.4605576,05-2246161#101,https://az804957.vo.msecnd.net/photogym/20140612144611_P1281707.JPG,"籃球場,排球場(館)",CLOSE,
113,內壢高中田徑場,桃園市中壢區成章四街120號,68000,68000020,24.97725682,121.2570906,03-4528080#233,https://az804957.vo.msecnd.net/photogym/20140606143039_田徑場鳥瞰.jpg,"田徑場,半場籃球場,排球場(館)",FREE,
114,田徑場,新竹縣竹北市嘉豐六路1段101號,10004,10004010,24.81095178,121.0304278,03-5506881#266,https://az804957.vo.msecnd.net/photogym/20190521102357_JJPWCQZXU1TRBHPJ50XZ.JPG,排球場(館),FREE,
115,基隆女中體育館,基隆市信義區東信路324號,10017,10017070,25.12867306,121.7593496,02-24278274#320,https://az804957.vo.msecnd.net/photogym/20200417134123_E8MNIADQ6PGJZLQUGVVQ.JPG,"排球場(館),籃球場",CLOSE,
116,大溪高中田徑場,桃園市大溪區康莊路641號,68000,68000030,24.86856129,121.2855381,03-3878628#512,https://az804957.vo.msecnd.net/photogym/20140605161909_P1080137.jpg,"半場籃球場,排球場(館),田徑場",FREE,
117,蘆洲國中戶外籃球場,新北市蘆洲區中正路265號,65000,65000140,25.08634044,121.4665673,02-22811571#215,https://az804957.vo.msecnd.net/photogym/20170706102413_F33351P6GY3BEHTIX204.jpg,排球場(館),FREE,
118,臺西國小活動中心,雲林縣臺西鄉台西村民權路9號,10009,10009160,23.70174184,120.199177,05-6982045,https://az804957.vo.msecnd.net/photogym/20140612111315_IMG_20140612_114614.jpg,排球場(館),PAID,
119,臺南女中體育館,臺南市中西區大埔街97號,67000,67000370,22.98724874,120.2065734,06-2131928#206,https://az804957.vo.msecnd.net/photogym/20140529120410_體育館.gif,"排球場(館),籃球場",CLOSE,
120,百齡高中排球場(館),臺北市士林區義信里承德路4段177號,63000,63000110,25.08651714,121.5238255,02-28831568,https://az804957.vo.msecnd.net/photogym/20140529153313_IMAG2644.jpg,排球場(館),FREE,
121,輔英科技大學體育館,高雄市大寮區進學路151號,64000,64000140,22.6038028,120.3889489,07-7811151#2281,https://az804957.vo.msecnd.net/photogym/20140529152243_DSC08967.JPG,"籃球場,撞球場,足球場,羽球場(館),桌球場(館),排球場(館),游泳池(館),田徑場,舞蹈教室,健身房(含重量訓練室),網球場(館)",CLOSE,
122,高雄師範大學體育館,高雄市苓雅區和平一路116號,64000,6400800,22.6252217,120.3222013,07-7172930#1553,https://az804957.vo.msecnd.net/photogym/20140529173952_室內籃排球場.JPG,"籃球場,排球場(館),羽球場(館),排球場(館),桌球場(館),健身房(含重量訓練室),舞蹈教室",CLOSE,
123,峨眉國小籃球場,新竹縣峨眉鄉峨眉街4號,10004,10004110,24.68912625,121.0205519,03-5800674,https://az804957.vo.msecnd.net/photogym/20140530091452_IMG_3901.jpg,"籃球場,躲避球場,排球場(館)",FREE,
124,高雄師範大學籃球場,高雄市苓雅區和平一路116號,64000,6400800,22.62528112,120.3227484,07-7172930#1553,https://az804957.vo.msecnd.net/photogym/20140529185945_室外籃球場.JPG,"籃球場,排球場(館)",FREE,
125,彰化高商活動中心,彰化市華陽里南郭路一段326號,,,24.07128907,120.5543733,04-7262965,https://az804957.vo.msecnd.net/photogym/20140530103052_100_7515.JPG,"籃球場,羽球場(館),排球場(館)",CLOSE,
126,斗六高級中學體育館,雲林縣斗六市民生路224號,10009,10009010,23.71279246,120.5454898,05-5322039,https://az804957.vo.msecnd.net/photogym/20140530111707_圖片1.jpg,"排球場(館),游泳池(館),桌球場(館)",CLOSE,
127,遠東科技大學體育館,臺南市新市區中華路49號,67000,67000200,23.06741319,120.2977771,(06)5979566#7132,https://az804957.vo.msecnd.net/photogym/20140530110854_8-1體育館.jpg,"籃球場,羽球場(館),排球場(館),健身房(含重量訓練室),桌球場(館),撞球場,舞蹈教室,環形/直線慢跑道(非田徑場型),柔道場/館",CLOSE,
128,高美醫護管理專科學校籃球場,高雄市美濃區成功路309號,64000,64000310,22.88821155,120.5508238,07-6812148#227,https://az804957.vo.msecnd.net/photogym/20140530101842_DSC09734.jpg,"排球場(館),籃球場",FREE,
129,中山工商體育館,高雄市大寮區會社里正氣路79號,64000,64000140,22.59991017,120.3918821,(07)7815311,https://az804957.vo.msecnd.net/photogym/20140530140346_DSC_8812.JPG,"籃球場,排球場(館)",CLOSE,
130,政治大學環山運動園區,臺北市文山區指南路二段64號,63000,63000080,24.98121015,121.5779418,02-29393091#62964,https://az804957.vo.msecnd.net/photogym/20140530120036_六期全區圖.jpg,戶外籃排球場,FREE,
131,政治大學綜合球類練習區,臺北市文山區指南路二段64號,63000,63000080,24.98458958,121.5741116,02-29393091#62964,https://az804957.vo.msecnd.net/photogym/20140530102849_綜合球類練習區1.jpg,"半場籃球場,小型足球場,戶外排球場",FREE,
132,遠東科技大學排球場(館),臺南市新市區中華路49號,67000,67000200,23.06728269,120.2978607,(06)5979566#7132,https://az804957.vo.msecnd.net/photogym/20140530163812_IMG_1836.JPG,排球場(館),FREE,
133,葳格高級中學田徑場，籃球場，排球場，網球場,臺中市北屯區軍福十八路328號,66000,66000080,24.17892461,120.712629,04-24371728#723,https://az804957.vo.msecnd.net/photogym/20140530163637_IMG_1061.JPG,田徑場,CLOSE,
134,臺東專科學校排球場,臺東縣臺東市正氣北路911號,10014,10014010,22.75917073,121.12158,08-9226389#2250,https://az804957.vo.msecnd.net/photogym/20140603083829_排球場.jpg,排球場,CLOSE,
135,鳳山商工游泳池(館),高雄市鳳山區文衡路51號,64000,64000120,22.63531265,120.3561473,07-7462602,https://az804957.vo.msecnd.net/photogym/20140603083648_100_1213.JPG,"游泳池(館),籃球場,排球場(館)",CLOSE,
136,二重國中田徑場,新竹縣竹東鎮二重里學府路132號,10004,10004020,24.7642808,121.0545194,03-5823083#851,https://az804957.vo.msecnd.net/photogym/20140530152225_DSC_3451.JPG,"跑道,排球場,籃球場",FREE,
137,麻園國小籃球場,新竹縣竹北市麻園里長園一街236號,10004,10004010,24.85168624,120.9747934,03-5563540#103,https://az804957.vo.msecnd.net/photogym/20140603084005_校園 (1).jpg,"籃球場,排球場(館)",FREE,
138,南投高商田徑場,南投縣南投市三興里彰南路一段993號,10008,10008010,23.90355327,120.6840634,049-2222269#142,https://az804957.vo.msecnd.net/photogym/20140603112809_IMG_8050.JPG,"田徑場,籃球場,排球場(館)",FREE,
139,湖西國中體育館,澎湖縣湖西鄉湖西村43之1號,10016,10016020,23.58471599,119.6538591,06-9921929#303,https://az804957.vo.msecnd.net/photogym/20140603130154_IMG_2944.JPG,"籃球場,排球場(館),羽球場(館)",CLOSE,
140,中國科技大學環形/直線慢跑道(非田徑場型),臺北市文山區興隆路三段56號,63000,63000080,24.9972993,121.5548265,02-29313416#2149,https://az804957.vo.msecnd.net/photogym/20140603144005_IMG_0034.JPG,"環形/直線慢跑道(非田徑場型),籃球場,排球場",FREE,
141,南港高工排球場(館),臺北市南港區南港里興中路29號,63000,63000090,25.05549242,121.608578,02-27825432#1209,https://az804957.vo.msecnd.net/photogym/20140604084723_IMAG2491.jpg,排球場,FREE,
142,湖口高中排球場(館),新竹縣湖口鄉中正路二段263巷21號,10004,10004050,24.89049005,121.0539776,03-5690772#501,https://az804957.vo.msecnd.net/photogym/20140604103633_IMG_2076 (2).JPG,排球場(館),FREE,
143,鎮海國中體育館,澎湖縣白沙鄉鎮海村60號,10016,10016030,23.64392867,119.5966122,06-9931311#41,https://az804957.vo.msecnd.net/photogym/20140604114907_DSC02493.JPG,"籃球場,排球場",PAID,
144,富興國小環形/直線慢跑道(非田徑場型),新竹縣峨眉鄉富興村太平街8號,10004,10004110,24.68651931,120.988488,03-5806353,https://az804957.vo.msecnd.net/photogym/20140604115531_IMG_0471.JPG,"環形/直線慢跑道(非田徑場型),籃球場,排球場(館)",FREE,
145,嘉義高工排球場(館),嘉義市東區彌陀路174號,10020,10020010,23.47094726,120.4659837,05-2754092,https://az804957.vo.msecnd.net/photogym/20140604141404_排球空照.JPG,排球場(館),CLOSE,
146,修平科技大學田徑場,臺中市大里區工業路11號,66000,66000280,24.09576348,120.7118283,04-24961100#6812,https://az804957.vo.msecnd.net/photogym/20140604140500_田徑場.JPG,"田徑場,排球場,半場籃球場",FREE,
147,豐年國小籃球場,臺東縣臺東市中興路三段320號,10014,10014010,22.7718239,121.1116451,08-9226733,https://az804957.vo.msecnd.net/photogym/20140604152412_籃球場.jpg,"籃球場,排球場(館)",FREE,
148,新興高級中學田徑場,桃園市八德區永豐路563號,68000,68000080,24.97398661,121.2716523,(03)3796996,https://az804957.vo.msecnd.net/photogym/20140604152704_IMG_2290-1.jpg,"田徑場,籃球場,排球場",CLOSE,
149,臺南藝術大學籃球場,臺南市官田區大崎里66號,67000,67000100,23.19327873,120.3712535,06-6930100#2851,https://az804957.vo.msecnd.net/photogym/20140604150349_北校區多功能球場.jpg,籃、排球場,FREE,
150,修平科技大學體育館,臺中市大里區工業路11號,66000,66000280,24.09565024,120.7107367,04-24961100#6811,https://az804957.vo.msecnd.net/photogym/20140604154734_體育館全景.jpg,"羽球場(館),籃球場,排球場(館),桌球場(館),舞蹈教室,健身房(含重量訓練室)",PAID,
151,臺北教育大學排球場,臺北市大安區和平東路二段134號,63000,63000030,25.02318143,121.5445161,02-27321104#83412,https://az804957.vo.msecnd.net/photogym/20140604162417_排球01.JPG,排球場,FREE,
152,臺南藝術大學網球場,臺南市官田區大崎里66號,67000,67000100,23.18839214,120.3749657,06-6930100#2851,https://az804957.vo.msecnd.net/photogym/20140604152925_網球場.jpg,排球場,FREE,
153,秀水高工風雨球場,彰化縣秀水鄉福安村中山路364號,10007,10007070,24.03575267,120.4979289,04-7697021,https://az804957.vo.msecnd.net/photogym/20140604095630_DSCN0276.JPG,"籃球場,排球場",CLOSE,
154,二重國小活動中心,新竹縣竹東鎮二重里光明路32號,10004,10004020,24.76739953,121.0580707,03-5822098#22,https://az804957.vo.msecnd.net/photogym/20140604130340_DSC_0417.jpg,羽排球場(館),PAID,
155,修平科技大學排球場(館),臺中市大里區工業路11號,66000,66000280,24.09561963,120.7123661,04-24961100#6811,https://az804957.vo.msecnd.net/photogym/20140604170155_排球場.jpg,排球場(館),FREE,
156,曉明女中籃球場,臺中市北區中清路一段606號,66000,66000050,24.16805242,120.6743672,04-22921175#241,https://az804957.vo.msecnd.net/photogym/20140604164752_IMG_3649.JPG,"籃球場,排球場",CLOSE,
157,新豐國小田徑場,新竹縣新豐鄉重興村明德巷13號,10004,10004060,24.9006258,120.9885263,03-5592081#122,https://az804957.vo.msecnd.net/photogym/20140605090254_DSC00714.JPG,"田徑場,籃球場,排球場(館)",FREE,
158,自強國中田徑場,新竹縣竹東鎮自強路169號,10004,10004020,24.74635864,121.0842061,03-5103291#130,https://az804957.vo.msecnd.net/photogym/20140530153107_DSC04466.JPG,"籃球場,排球場(館),田徑場",FREE,
159,建國中學排球場(館),臺北市中正區龍光里南海路56號,63000,63000050,25.03009343,121.5133756,02-23034381#308,https://az804957.vo.msecnd.net/photogym/20140605094027_室外排球場.jpg,排球場(館),CLOSE,
160,成功大學中正堂,臺南市東區大學路1號,67000,67000320,22.99671835,120.2173591,06-2757575#50385,https://az804957.vo.msecnd.net/photogym/20140605114018_中正堂 001.jpg,"羽球場(館),桌球場(館),籃球場,排球場(館)",CLOSE,
161,路竹高中籃球場及排球場,高雄市路竹區中華路292號,64000,64000240,22.85394425,120.2512072,07-6963008#133,https://az804957.vo.msecnd.net/photogym/20140605113547_0610.1.jpg,籃球場,FREE,
162,雲林科技大學體育館,雲林縣斗六市大學路三段123號,10009,10009010,23.69134702,120.5368692,05-5342601#2705,https://az804957.vo.msecnd.net/photogym/20140605111351_IMG_3740.JPG,"籃排球場,排球場,羽球場,桌球教室,舞蹈教室,柔道教室",CLOSE,
163,北港農工風雨球場,雲林縣北港鎮太平路80號,10009,10009060,23.5796865,120.3067946,05-7832246#533,https://az804957.vo.msecnd.net/photogym/20140603141804_100_5301.JPG,"籃球場,排球場(館)",CLOSE,
164,大同高中排球場,臺北市中山區中央里長春路167號,63000,63000040,25.05621164,121.5346509,02-25054269#122,https://az804957.vo.msecnd.net/photogym/20140605142046_P1050256.JPG,排球場,FREE,
165,內湖高工綜合球場,臺北市內湖區港墘里內湖路1段520號,63000,63000100,25.07998243,121.5743101,02-26574874#205,https://az804957.vo.msecnd.net/photogym/20140604142835_mobile6db763e6-7966-4e68-a8e7-33e690b40aae.jpg,"籃球場,排球場(室外)",CLOSE,
166,池上國中體育館(羽球、籃球、躲避球及排球),臺東縣池上鄉新興村力學路88號,10014,10014060,23.11494367,121.2035805,089-862040,https://az804957.vo.msecnd.net/photogym/20140605153043_IMG_5804.JPG,池上國中體育館,FREE,
167,竹中國小運動中心,新竹縣竹東鎮頭重里竹中路104巷14號,10004,10004020,24.78004755,121.0297143,03-5823822#805,https://az804957.vo.msecnd.net/photogym/20140605153539_DSC00548.JPG,"排球場(館),籃球場",FREE,
168,內湖高工排球場(館),臺北市內湖區港墘里內湖路1段520號,63000,63000100,25.07966176,121.5749002,02-26574874#205,https://az804957.vo.msecnd.net/photogym/20140604090314_mobile487003c8-a73c-4c31-a1b9-0acc2dffdee4.jpg,排球場(館),CLOSE,
169,善化高中籃球場,臺南市善化區大成路195號,67000,67000190,23.12859962,120.3020525,06-5837312#309,https://az804957.vo.msecnd.net/photogym/20140606084450_DSC03765.JPG,排球場(館),FREE,
170,三民家商田徑場,高雄市左營區裕誠路1102號,64000,64000030,22.66678143,120.3026265,07-5525887#362,https://az804957.vo.msecnd.net/photogym/20140606094900_DSC_0082.JPG,"田徑場,手球場,排球場,籃球場,足球場",FREE,
171,台南應用科技大學排球場,臺南市永康區中正路529號,67000,67000310,23.03801424,120.2346969,(06)2539639,https://az804957.vo.msecnd.net/photogym/20140606115630_G:\DSC06947.JPG,"排球場,籃球場",FREE,
172,忠孝國中活動中心,新竹縣新豐鄉員山村孝六街1號,10004,10004060,24.87937529,120.9996521,03-5572555#13,https://az804957.vo.msecnd.net/photogym/20140606144612_DSC03561.JPG,"羽球場(館),排球場(館)",PAID,
173,竹北高中排球場(館),新竹縣竹北市中央路3號,10004,10004010,24.83476507,121.0028172,03-5517330,https://az804957.vo.msecnd.net/photogym/20140606165222_戶外排球場兩面.jpg,排球場(館),FREE,
174,成功國中排球場(館),新竹縣竹北市成功八路99號,10004,10004010,24.81874723,121.0164642,03-5505924#8304,https://az804957.vo.msecnd.net/photogym/20140606173729_4DSC04377.JPG,排球場(館),FREE,
175,慈濟大學附中網球場(主要設施)、排球場(次要設施),花蓮縣花蓮市介仁街176號,10015,10015010,23.99970069,121.5749967,03-8572823#126,https://az804957.vo.msecnd.net/photogym/20140609085900_IMG_8183.JPG,"網球場(館),網球場(館)",CLOSE,
176,屏東高工排球場(館),屏東縣屏東市建國路25號,10013,10013010,22.66074963,120.4860252,08-7523781#243,https://az804957.vo.msecnd.net/photogym/20140609091214_DSC00401.JPG,排球場(館),FREE,
177,彰師附工籃球場,彰化縣彰化市和調里工校街1號,10007,10007010,24.0811433,120.5560416,04-7252541#224,https://az804957.vo.msecnd.net/photogym/20140609085921_P1050958.JPG,排球場(館),FREE,
178,竹圍國小田徑場,桃園市大園區竹圍村二鄰竹圍街3號,68000,68000060,25.10378019,121.2443689,03-3835079#330,https://az804957.vo.msecnd.net/photogym/20140609085759_DSC02752.JPG,"田徑場,籃球場,躲避球場,排球場(館)",FREE,
179,南寧高中排球場(館),臺南市南區萬年路167號,67000,67000330,22.9367319,120.1864842,06-2622458,https://az804957.vo.msecnd.net/photogym/20140605094158_圖片1.jpg,排球場(館),FREE,
180,嘉義高級家事職業學校排球場(館),嘉義市東區體育路7號,10020,10020010,23.47149738,120.4590197,05-2259640#1340,https://az804957.vo.msecnd.net/photogym/20140609130926_10387215_833448400017414_6405329244608261108_n.jpg,排球場(館),FREE,
181,南開科技大學田徑場,南投縣草屯鎮中正路568號,10008,10008030,23.98285115,120.6966376,049-2563489#1555,https://az804957.vo.msecnd.net/photogym/20140605094723_田11.jpg,"田徑場,排球場(館),半場籃球場",FREE,
182,僑勇國小籃球場,屏東縣恆春鎮城北里西門路146號,10013,10013040,22.00888992,120.7448745,08-8892141#14,https://az804957.vo.msecnd.net/photogym/20140609135612_球場(1).jpg,"籃球場,排球場(館),躲避球場",CLOSE,
183,東方設計大學排球場(館),高雄市湖內區東方路110號,64000,64000250,22.8816909,120.244149,07-6939525#12,https://az804957.vo.msecnd.net/photogym/20140609144822_DSC00899.JPG,排球場(館),CLOSE,
184,電光國小田徑場,臺東縣關山鎮電光里中興93號,10014,10014030,23.00618311,121.1731032,08-9951142#03,https://az804957.vo.msecnd.net/photogym/20140609143110_DSC_0242.jpg,"田徑場,籃球場,排球場(館)",FREE,
185,臺南海事籃球場,臺南市安平區世平路1號,67000,67000360,22.99346312,120.1505721,06-3910772#331,https://az804957.vo.msecnd.net/photogym/20140604133241_77DSC01255.jpg,排球場(館),CLOSE,
186,竹中國小足球場,新竹縣竹東鎮頭重里竹中路104巷14號,10004,10004020,24.77984299,121.0304815,03-5823822#805,https://az804957.vo.msecnd.net/photogym/20140605154101_DSC00552.JPG,排球場(館),FREE,
187,臺北醫學大學排球場(館),臺北市信義區吳興街250號,63000,63000020,25.0260153,121.561355,(02)27361661,https://az804957.vo.msecnd.net/photogym/20140609150333_排球場.jpg,排球場(館),PAID,
188,竹中國小活動中心,新竹縣竹東鎮頭重里竹中路104巷14號,10004,10004020,24.7802375,121.0301703,03-5823822#805,https://az804957.vo.msecnd.net/photogym/20140603141430_DSC00547.JPG,"羽球場(館),排球場(館)",CLOSE,
189,清華大學(南大校區)體育館,新竹市東區南大路521號,10018,10018010,24.79443066,120.9652233,03-5213132#1602,https://az804957.vo.msecnd.net/photogym/20140609142552_體育館1.JPG,"羽球場(館),排球場(館),籃球場,舞蹈教室",CLOSE,
190,興中國小田徑場,嘉義縣民雄鄉興中村30號,10010,10010050,23.52751684,120.4201233,05-2214725,https://az804957.vo.msecnd.net/photogym/20140609153319_P1210264.JPG,"田徑場,排球場,躲避球場",FREE,
191,清華大學(南大校區)體育健康教學大樓籃球場,新竹市東區南大路521號,10018,10018010,24.79441576,120.965204,03-5213132#1602,https://az804957.vo.msecnd.net/photogym/20140609155906_體健1.JPG,"羽球場(館),排球場(館),籃球場",CLOSE,
192,嘉義高級家事職業學校運動場,嘉義市東區市宅街57號,10020,10020010,23.47143538,120.4587386,05-2259640#1340,https://az804957.vo.msecnd.net/photogym/20140609181950_IMG_3456.JPG,排球場(館),FREE,
193,興中國小籃球場,嘉義縣民雄鄉興中村30號,10010,10010050,23.52751684,120.4201126,05-2214725,https://az804957.vo.msecnd.net/photogym/20140610081221_P1210271.JPG,"籃球場,排球場(館)",FREE,
194,興中國小排球場,嘉義縣民雄鄉興中村30號,10010,10010050,23.52751684,120.4201233,05-2214725,https://az804957.vo.msecnd.net/photogym/20140610082249_P1210267.JPG,"排球場,籃球場",FREE,
195,華僑高級中學體育館,新北市板橋區大觀路一段32號,65000,65000010,25.00612847,121.4460844,02-29684131#341,https://az804957.vo.msecnd.net/photogym/20140610082703_體育館全景照片.jpg,"籃球場,排球場(館)",CLOSE,
196,大埤國中排球場(館),雲林縣大埤鄉南和村民權路80號,10009,10009080,23.64088773,120.4303265,05-5912051#105,https://az804957.vo.msecnd.net/photogym/20140610090343_P1050314.JPG,排球場(館),FREE,
197,民雄國中排球場(館),嘉義縣民雄鄉西安村西安路147號,10010,10010050,23.55642933,120.4211587,05-2262527,https://az804957.vo.msecnd.net/photogym/20140610090513_9SV6MXWCVXIY2XLXNANJ.JPG,"排球場(館),籃球場",FREE,
198,銘傳大學體育館,臺北市士林區中山北路五段250號,63000,63000110,25.0855989,121.5335083,02-28824564#2325,https://az804957.vo.msecnd.net/photogym/20140609104547_逸仙堂.jpg,"籃球場,排球場(館),田徑場,排球場(館),網球場(館),桌球場(館),羽球場(館),籃球場,健身房(含重量訓練室)",PAID,
199,大同國小綜合球場,嘉義市成功街15號,,,23.47090297,120.4457223,05-2222114#126,https://az804957.vo.msecnd.net/photogym/20140606152309_DSCF2473.JPG,"躲避球場,籃球場,排球場(館)",CLOSE,
200,銘傳大學室外籃球場,臺北市士林區中山北路五段250號,63000,63000110,25.08700783,121.5276289,02-28824564#2325,https://az804957.vo.msecnd.net/photogym/20140610103319_室外籃球場地設~1.JPG,"籃球場,排球場(館)",PAID,
201,大埤國小籃球場,雲林縣大埤鄉南和村中正路23號,10009,10009080,23.64306348,120.431001,05-6341132,https://az804957.vo.msecnd.net/photogym/20140610105245_mobileac1e37cf-aab6-4fba-b40b-76fc31183fbc.jpg,"籃球場,躲避球場,排球場(館)",FREE,
202,銘傳大學田徑場,臺北市士林區中山北路五段250號,63000,63000110,25.08701755,121.5276504,02-28824564#2325,https://az804957.vo.msecnd.net/photogym/20140610105204_操場1.JPG,"田徑場,足球場,排球場(館),網球場(館)",PAID,
203,潮州高中排球場(館),屏東縣潮洲鎮中山路11號,10013,,22.54885467,120.5463084,08-7882017#304,https://az804957.vo.msecnd.net/photogym/20140610113226_DSC01358.JPG,排球場(館),PAID,
204,內湖高中活動中心,臺北市內湖區紫陽里文德路218號,63000,63000100,25.07823331,121.5869915,02-27977035#206,https://az804957.vo.msecnd.net/photogym/20140529114640_ICVO0TCN63TCICKOVP8S.jpg,"籃球場,羽球場(館),排球場(館)",CLOSE,
205,六合國小風雨教室,雲林縣莿桐鄉六合村東興路63號,10009,10009090,23.7684035,120.5628276,05-5712810,https://az804957.vo.msecnd.net/photogym/20140610121332_SDC11988-s.jpg,排球場(館),PAID,
206,平和國小綜合球場,花蓮縣壽豐鄉平和路34號,10015,10015060,23.88371873,121.5195823,03-8661223#203,https://az804957.vo.msecnd.net/photogym/20140610122415_ISCSBA9HIKCWTSD51MQR.JPG,排球場(館),CLOSE,
207,南崗國中活動中心（中正館）,南投縣南投市大庄路94號,10008,10008010,23.89560314,120.6839508,049-2222460#233,https://az804957.vo.msecnd.net/photogym/20140610123037_活動中心-外部.JPG,"羽球場(館),桌球場(館),排球場(館)",FREE,
208,鹿野國中籃球場,臺東縣鹿野鄉龍田村光榮路38號,10014,10014050,22.90763545,121.134755,08-9551006,https://az804957.vo.msecnd.net/photogym/20140610132314_鹿野國中運動場館鳥瞰圖.jpg,"籃球場,排球場(館)",PAID,
209,中央大學附屬中壢高中田徑場,桃園市中壢區三光路115號,68000,68000020,24.96378418,121.2104223,03-4932181#34,https://az804957.vo.msecnd.net/photogym/20140610133420_DSC03028.JPG,"田徑場,足球場,排球場(館)",FREE,
210,三江國小環形/直線慢跑道(非田徑場型),嘉義縣東石鄉三家村16號,10010,10010090,23.47120559,120.1743445,05-3732634,https://az804957.vo.msecnd.net/photogym/20140610141300_DSC_0034_1.jpg,"籃球場,足球場,田徑場",FREE,
211,中臺科技大學排球場,臺中市北屯區廍子路666號,66000,66000080,24.17344833,120.7353982,(04)22391647,https://az804957.vo.msecnd.net/photogym/20140610144817_33.JPG,排球場(館),FREE,
212,褒忠國小活動中心,雲林縣褒忠鄉埔姜村中勝路72號,10009,10009150,23.70114796,120.3100455,05-6341219#046,https://az804957.vo.msecnd.net/photogym/20140606150002_DSCN4781.JPG,"排球場(館),籃球場",PAID,
213,暨南國際大學體育館,南投縣埔里鎮大學路1號,10008,10008020,23.95046914,120.9271574,049-2910960#3752,https://az804957.vo.msecnd.net/photogym/20140603111527_02.jpg,"籃球場,羽球場(館),排球場(館),桌球場(館),舞蹈教室,游泳池(館),健身房(含重量訓練室)",PAID,
214,臺灣科技大學排球場(館),臺北市大安區基隆路四段43號,63000,63000030,25.01463568,121.5432715,02-27376912,https://az804957.vo.msecnd.net/photogym/20140610151524_DSC04701.JPG,排球場(館),CLOSE,
215,暨南國際大學戶外球場,南投縣埔里鎮大學路1號,10008,10008020,23.94827279,120.9266424,049-2910960#3751,https://az804957.vo.msecnd.net/photogym/20140610160012_IMG_1516.JPG,"排球場(館),網球場(館),籃球場",PAID,
216,彰化女中田徑場,彰化縣彰化市光復路62號,10007,10007010,24.08197588,120.5435532,04-7240042#1306,https://az804957.vo.msecnd.net/photogym/20140610152848_nEO_IMG_IMAG5681.jpg,"排球場(館),籃球場,田徑場",CLOSE,
217,長庚大學薄膜球場,桃園市龜山區文化一路259號,68000,68000070,25.03245065,121.3900466,(03)2118800*2107,https://az804957.vo.msecnd.net/photogym/20140610161950_P6130628 (800x600).jpg,"籃球場,排球場",CLOSE,
218,南崗國中排球場,南投縣南投市大庄路94號,10008,10008010,23.89573066,120.6846803,049-2222460#252,https://az804957.vo.msecnd.net/photogym/20140610162920_DSC00643.JPG,排球場,PAID,
219,東華大學體育館,花蓮縣壽豐鄉志學村大學路二段1-32號,10015,10015060,23.9000076,121.5380861,(03)8632619,https://az804957.vo.msecnd.net/photogym/20140609162207_IMAG1448.jpg,"籃球場,羽球場(館),排球場(館)",PAID,
220,瑞峰國小籃球場,新竹縣竹東鎮上坪里43號,10004,10004020,24.66131918,121.1220682,03-5949052#120,https://az804957.vo.msecnd.net/photogym/20140608160407_IMG_8156.jpg,"籃球場,排球場(館),躲避球場",FREE,
221,慈濟高中活動中心,臺南市安平區建平五街111號,67000,67000360,22.98735756,120.1787662,06-2932323#321,https://az804957.vo.msecnd.net/photogym/20140606085253_D1020048.JPG,"籃球場,排球場",CLOSE,
222,新民高中田徑場,臺中市北區三民路三段289號,66000,66000050,24.1585631,120.6866962,04-22334105#6414,https://az804957.vo.msecnd.net/photogym/20140603105815_DSCF0003.JPG,"田徑場,籃球場,排球場(館),網球場(館)",CLOSE,
223,鹽洲國小田徑場,屏東縣新園鄉鹽埔村鹽洲路379號,10013,10013170,22.48786582,120.4401863,08-8322975,https://az804957.vo.msecnd.net/photogym/20140611104828_假日開放.jpg,"田徑場,籃球場,排球場(館)",FREE,
224,新明國中活動中心,桃園市中壢區中正路487巷18號,68000,68000020,24.95649129,121.212523,03-4936194,https://az804957.vo.msecnd.net/photogym/20140611104322_H:\呂理昌資料庫\體育行政\場地照片\活動中心.JPG,"田徑場,靶場/射擊場,籃球場,排球場(館),棒、壘球打擊練習場,桌球場(館),羽球場(館),健身房(含重量訓練室)",FREE,
225,花蓮縣立體育館,花蓮市達固湖灣大路23號,,,24.00495408,121.5852857,03-8580686,https://az804957.vo.msecnd.net/photogym/20140611103631_全景.jpg,"籃球場,羽球場(館),排球場(館)",CLOSE,
226,明新科技大學排球場,新竹縣新豐鄉新興路1號,10004,10004060,24.8622973,120.988403,03-5593142#2343,https://az804957.vo.msecnd.net/photogym/20140611115930_DSCN0183.JPG,排球場,CLOSE,
227,大林國中排球場(館),嘉義縣大林鎮大糖里中學路1號,10010,10010040,23.60984093,120.4533505,05-2652014,https://az804957.vo.msecnd.net/photogym/20140611115159_DSCN6851.JPG,排球場(館),FREE,
228,明新科技大學沙灘排球場,新竹縣新豐鄉新興路1號,10004,10004060,24.86214641,120.9870243,03-5593142#2343,https://az804957.vo.msecnd.net/photogym/20140611120512_DSCN0193.JPG,沙灘排球場,CLOSE,
229,大安國小活動中心,桃園市八德區大安里和平路638號,68000,68000080,24.95634052,121.314801,03-3661419,https://az804957.vo.msecnd.net/photogym/20140611114509_活動中心1.jpg,"羽球場(館),排球場(館)",CLOSE,
230,北港鎮立體育館,65145雲林縣北港鎮成功路1號,,,23.57682014,120.3056896,05-7821799,https://az804957.vo.msecnd.net/photogym/20140610152117_DSCN4919.JPG,"籃球場,羽球場,排球場,桌球場",FREE,
231,松山工農學生活動中心,臺北市信義區忠孝東路5段236巷15號,63000,63000020,25.03912171,121.5721992,02-27226616,https://az804957.vo.msecnd.net/photogym/20140611140822_DSC_0847.jpg,"籃球場,羽球場(館),排球場(館),桌球場(館),健身房(含重量訓練室),舞蹈教室,游泳池(館)",CLOSE,
232,排路國小排球場(館),嘉義縣大林鎮排路里231號,10010,10010040,23.61051433,120.4226661,05-2694974,https://az804957.vo.msecnd.net/photogym/20140611145812_排路國小籃球場(全景).JPG,"籃球場,網球場,排球場",FREE,
233,慈濟高中網球場,臺南市安平區建平五街111號,67000,67000360,22.98755852,120.1786816,06-2932323#410,https://az804957.vo.msecnd.net/photogym/20140611144453_F:\場地設備\1000218\SNV31022.JPG,"網球場,排球場",FREE,
234,銘傳大學體育一館,桃園市龜山區大同村德明路5號,68000,68000070,24.98413081,121.3423151,03-3507001#3523,https://az804957.vo.msecnd.net/photogym/20140611134540_IMG_2098.JPG,"籃球場,羽球場(館),桌球場(館),排球場(館)",PAID,
235,暨大附中室外排球場,南投縣埔里鎮鐵山路1-6號,10008,10008020,23.9732454,120.9447653,049-2913483#317,https://az804957.vo.msecnd.net/photogym/20140611135916_DSC07036.JPG,排球場,FREE,
236,中興大學排球場(館),臺中市南區興大路145號,66000,66000030,24.11788431,120.674724,04-22840230#208,https://az804957.vo.msecnd.net/photogym/20140611163018_NFOZ8SHG2KQI05J79TW9.jpg,排球場(館),FREE,
237,銘傳大學體育二館,桃園市龜山區大同村德明路5號,68000,68000070,24.98803293,121.3416928,03-3507001#3523,https://az804957.vo.msecnd.net/photogym/20140611144641_IMG_2102.JPG,"籃球場,排球場(館),手球場(館)",PAID,
238,銘傳大學室外籃球場,桃園市龜山區大同村德明路5號,68000,68000070,24.98369951,121.3429239,03-3507001#3523,https://az804957.vo.msecnd.net/photogym/20140611164947_10.jpg,"排球場(館),籃球場",PAID,
239,林森國小田徑場,嘉義市東區林森東路346號,10020,10020010,23.48910014,120.4660127,05-2762063#113,https://az804957.vo.msecnd.net/photogym/20140611164353_操場2.jpg,"田徑場,籃球場,排球場(館)",FREE,
240,雲林科技大學室外排球場,雲林縣斗六市大學路三段123號,10009,10009010,23.69209369,120.5364293,05-5342601#2705,https://az804957.vo.msecnd.net/photogym/20140611213417_IMG_3756.JPG,排球場(館),FREE,
241,橋頭國小活動中心,雲林縣麥寮鄉橋頭村仁德路248號,10009,10009130,23.79770943,120.2736747,05-6912358#230,https://az804957.vo.msecnd.net/photogym/20140612074214_DSC05690.JPG,"排球場(館),羽球場(館)",CLOSE,
242,新營高工籃球場,臺南市新營區中正路68號,67000,67000010,23.31401572,120.3175449,06-6322377,https://az804957.vo.msecnd.net/photogym/20140612085011_DSC_0472.JPG,"籃球場,排球場",FREE,
243,鳳新高中排球場(館),高雄市鳳山區新富路257號,64000,64000120,22.61369395,120.3421408,07-7658288,https://az804957.vo.msecnd.net/photogym/20140612093705_10356725_10152473353088158_359325966679296879_n.jpg,排球場(館),FREE,
244,鹿野國中體育館,臺東縣鹿野鄉龍田村光榮路38號,10014,10014050,22.90706719,121.1339879,089-551006,https://az804957.vo.msecnd.net/photogym/20140610131656_鹿野國中運動場館鳥瞰圖.jpg,"籃球場,羽球場(館),排球場(館)",PAID,
245,家齊女中田徑場附設籃、排球場,臺南市中西區健康路一段342號,67000,67000370,22.9820652,120.2009064,06-2133265#2230,https://az804957.vo.msecnd.net/photogym/20140612103338_ZJL29MLYSX30UCLKSD6Z.jpg,"田徑場,籃球場,排球場(館)",CLOSE,
246,交通大學西區排球場,新竹市東區大學路1001號,10018,10018010,24.78792287,120.9946203,03-5712121#51003,https://az804957.vo.msecnd.net/photogym/20140623215440_西區排球場全景.JPG,西區排球場,FREE,
247,建國國中體育館,雲林縣北港鎮大同路468號,10009,10009060,23.57385046,120.2961516,05-7832724,https://az804957.vo.msecnd.net/photogym/20140624102149_IMAG1120[1].jpg,排球場(館),CLOSE,
248,飛沙國中綜合球場,雲林縣四湖鄉飛沙村大同路81號,10009,10009180,23.64256838,120.1737303,05-7723218,https://az804957.vo.msecnd.net/photogym/20140624111528_運動場館照 001.jpg,"排球場(館),籃球場",CLOSE,
249,山內國小綜合球場,雲林縣元長鄉山內村南山路3號,10009,10009170,23.67810253,120.3117996,05-7882152,https://az804957.vo.msecnd.net/photogym/20140624152056_P1400880.JPG,"排球場,籃球場",FREE,
250,斗六國中網球場(館),雲林縣斗六市育英北街69號,10009,10009010,23.71366179,120.550999,05-5323296#204,https://az804957.vo.msecnd.net/photogym/20140619105603_IMG_0474.jpg,"網球場(館),排球場(館)",FREE,
251,交通大學博愛校區排球場,新竹市東區博愛街75號,10018,10018010,24.79806702,120.9837413,03-5712121#51003,https://az804957.vo.msecnd.net/photogym/20140624223212_博愛排球場全景.JPG,博愛校區排球場,FREE,
252,北港高中風雨球場,雲林縣北港鎮成功路26號,10009,10009060,23.57920959,120.3039783,05-7821411#307,https://az804957.vo.msecnd.net/photogym/20140625101323_IMAG0188.jpg,"排球場(館),籃球場",FREE,
253,竹仁國小網球場(館),新竹縣竹北市竹仁里豆子埔62之2號,10004,10004010,24.83636363,121.01331,03-5552472#12,https://az804957.vo.msecnd.net/photogym/20140609104451_IMG_1017.jpg,網球場(館),FREE,
254,二崙國中排球場(館),雲林縣二崙鄉崙西村中正路88號,10009,10009110,23.77257644,120.407635,05-5982020#132,https://az804957.vo.msecnd.net/photogym/20140625112925_IMAG0070po.jpg,排球場(館),FREE,
255,二崙國中排球場(館),雲林縣二崙鄉崙西村中正路88號,10009,10009110,23.7737203,120.4073399,05-5982020#132,https://az804957.vo.msecnd.net/photogym/20140625151353_IMAG0060po.jpg,排球場(館),FREE,
256,員林高中排球場(館),彰化縣員林市靜修路79號,10007,10007100,23.9604601,120.563482,04-8320364#320,https://az804957.vo.msecnd.net/photogym/20140626091838_IMG_8175.JPG,排球場(館),FREE,
257,頭份國中活動中心,苗栗縣頭份鎮中央路275號,10005,,24.69107586,120.9014189,03-7663207#501,https://az804957.vo.msecnd.net/photogym/20140617084954_DSC09342.JPG,"籃球場,羽球場(館),排球場(館)",CLOSE,
258,大溪國中田徑場,桃園市大溪區民權東路210號,68000,68000030,24.87985708,121.2967014,03-3882024#315,https://az804957.vo.msecnd.net/photogym/20140620104551_DSC05397.JPG,"田徑場,排球場(館)",FREE,
259,大有國小活動中心,雲林縣崙背鄉大有村一鄰14號,10009,10009120,23.76358727,120.3087473,05-6962741#13,https://az804957.vo.msecnd.net/photogym/20140626130127_DSC00195.JPG,排球場(館),CLOSE,
260,臺灣海洋大學祥豐網排球場,基隆市中正區北寧路2號,10017,10017010,25.15082038,121.772579,02-24622192#2214,https://az804957.vo.msecnd.net/photogym/20140626111428_祥豐網排球場.JPG,"網球場(館),排球場(館)",FREE,
261,南湖國小學生活動中心,苗栗縣大湖鄉義和村南昌路5號,10005,10005080,24.39825665,120.8661801,037-991462#13,https://az804957.vo.msecnd.net/photogym/20140626145703_學生活動中心.JPG,"籃球場,排球場(館)",PAID,
262,大同國小綜合球場,嘉義縣朴子市文化南路,10010,10010020,23.45976723,120.2405119,05-2949036#034,https://az804957.vo.msecnd.net/photogym/20140624140616_P1140669.JPG,"籃球場,排球場(館)",FREE,
263,馬偕醫護管理專科學校體育館,臺北市北投區聖景路92號,63000,63000120,25.12286703,121.4644575,02-28584180#2145,https://az804957.vo.msecnd.net/photogym/20140627130210_C:\Documents and Settings\user\桌面\運動地圖\運動地圖-雙校區場地照片\關渡\羽球\DSC_6523-1.JPG,"羽球場(館),排球場(館)",CLOSE,
264,鳳山沙灘排球場,高雄市鳳山區大明路,64000,64000120,22.61540733,120.33948,07-8224646,https://az804957.vo.msecnd.net/photogym/20140619104517_20130419_152906.jpg,鳳山沙灘排球場,FREE,
265,大愛籃排球場,高雄市杉林區,64000,64000340,22.96590114,120.5459189,07-7229449#678,https://az804957.vo.msecnd.net/photogym/20140630102525_IMG_0044.JPG,大愛籃排球場,FREE,
266,景山國小籃球場,苗栗縣卓蘭鎮景山里5鄰88號,10005,10005070,24.35283484,120.8649536,04-25921221,https://az804957.vo.msecnd.net/photogym/20140630153005_CAM01477.jpg,"籃球場,網球場(館),羽球場(館),排球場(館)",FREE,
267,前鎮國中排球館,高雄市前鎮區新衙路17號,64000,,22.58243342,120.3225875,07-8217677#22,https://az804957.vo.msecnd.net/photogym/20140627150822_20140627_145842.jpg,排球場(館),PAID,
268,新竹國小綜合球場,新竹市東區興學街106號,10018,10018010,24.79641129,120.9663123,03-5222153#262,https://az804957.vo.msecnd.net/photogym/20140606092957_1.jpg,"羽球場(館),排球場(館)",PAID,
269,蘭嶼高中活動中心,臺東縣蘭嶼鄉椰油村37號,10014,10014160,22.04887487,121.5112366,089-732016,https://az804957.vo.msecnd.net/photogym/20140613085143_IMG_8508.JPG,"籃球場,排球場(館),羽球場(館)",CLOSE,
270,臺南大學排球場(館),臺南市中西區樹林街二段33號,67000,67000370,22.98376512,120.208481,06-2133111#341,https://az804957.vo.msecnd.net/photogym/20140625161125_C:\Users\user\Desktop\運動場館照片\排球場1新.JPG,排球場(館),CLOSE,
271,快樂國小活力館,桃園市桃園區大有路789號,68000,68000010,25.01902044,121.3154313,03-3580001,https://az804957.vo.msecnd.net/photogym/20140620135024_IMG_3205.jpg,"羽球場(館),籃球場,排球場(館),躲避球場",PAID,
272,東明國中排球場(館),雲林縣斗南鎮中興路111號,10009,10009020,23.67851049,120.4700178,05-5975474#31,https://az804957.vo.msecnd.net/photogym/20140701085904_C:\Documents and Settings\user\桌面\籃球場\DSC00854.JPG,排球場(館),FREE,
273,新興國小遮蔽籃球場,臺東縣金峰鄉新興村一鄰1號,10014,10014140,22.63162642,121.0031042,089-781687#203,https://az804957.vo.msecnd.net/photogym/20140701110543_DSC_0254.jpg,排球場(館),FREE,
274,龍肚國中體育館,高雄市美濃區龍山里中華路68號,64000,64000310,22.87912583,120.5716628,07-6851314,https://az804957.vo.msecnd.net/photogym/20140617133216_IMAG1813.jpg,排球場(館),CLOSE,
275,霧鹿國小籃球場,臺東縣海端鄉利稻村文化路1號,10014,10014120,23.18611398,121.0253638,089-938040,https://az804957.vo.msecnd.net/photogym/20140701104118_IMG_0477.jpg,"排球場(館),籃球場",FREE,
276,海青工商排球場,高雄市左營區左營大路1號,64000,64000030,22.67335721,120.2853477,07-5819155#538,https://az804957.vo.msecnd.net/photogym/20140606154310_P1070826.JPG,排球場,FREE,
277,漳和國中田徑場,新北市中和區廣福路39號,65000,65000030,25.00205902,121.5052056,02-22488616,https://az804957.vo.msecnd.net/photogym/20140616210927_C14_2468.JPG,"風雨操場,籃球場,手球場,田徑場,排球場",FREE,
278,中興商工籃球場,苗栗縣竹南鎮大營路211號,10005,10005040,24.68871683,120.8721828,(03)7467360-307,https://az804957.vo.msecnd.net/photogym/20140612140105_IMG_20140612_135020[1].jpg,排球場(館),FREE,
279,鳳西國民中學排球場(館),高雄市鳳山區興中里光華路69號,64000,64000120,22.61981447,120.352875,07-7463452#31,https://az804957.vo.msecnd.net/photogym/20140702092656_SAM_0169.jpg,排球場,CLOSE,
280,西螺國中籃球場,雲林縣西螺鎮興農西路217號,10009,10009040,23.79257033,120.462513,05-5863522,https://az804957.vo.msecnd.net/photogym/20140630104248_籃球1.JPG,排球場(館),FREE,
281,頭洲國小活動中心,桃園市新屋區中山東路二段668巷64號,68000,68000110,24.96364047,121.1414552,03-4901204,https://az804957.vo.msecnd.net/photogym/20140702153818_IMG_1679-1.JPG,"羽球場(館),排球場(館)",CLOSE,
282,玉里國中排球場(館),花蓮縣玉里鎮民族街30號,10015,10015030,23.33563598,121.3115019,03-8882054#13,https://az804957.vo.msecnd.net/photogym/20140702161539_IMG_0634.jpg,排球場(館),FREE,
283,黎明技術學院綜合運動場,新北市泰山區黎專路2之2號,65000,65000160,25.06631916,121.4209843,02-29097811#1251,https://az804957.vo.msecnd.net/photogym/20140603101616_DSC06096.JPG,"籃球場,排球場(館),網球場(館)",CLOSE,
284,花蓮縣立中正體育館,花蓮縣花蓮市民權里公園路53號,10015,10015010,23.97798897,121.6131055,03-8580686,https://az804957.vo.msecnd.net/photogym/20140611151611_全景.jpg,"籃球場,排球場(館)",CLOSE,
285,卓蘭國小活動中心,苗栗縣卓蘭鎮新厝里中山路125號,10005,10005070,24.31239314,120.8247399,04-25892008#723,https://az804957.vo.msecnd.net/photogym/20140616143153_2014-06-16 08.41.03.jpg,"羽球場(館),排球場(館)",CLOSE,
286,實踐大學體育館(臺北校區),臺北市中山區大直街70號,63000,63000040,25.08457119,121.5456258,02-25381111#3811,https://az804957.vo.msecnd.net/photogym/20140617182508_體育館日.JPG,"籃球場,桌球場(館),排球場(館),羽球場(館),健身房(含重量訓練室),體適能中心,舞蹈教室",PAID,
287,實踐大學體育館(高雄校區),高雄市內門區大學路200號,64000,64000350,22.90517463,120.4667287,07-6678888#3261,https://az804957.vo.msecnd.net/photogym/20140617160150_體育館外觀.JPG,"羽球場(館),籃球場,排球場(館),健身房,韻律教室",CLOSE,
288,精誠高中操場,彰化縣彰化市林森路200號,10007,10007010,24.07246456,120.5277658,(04)7622790,https://az804957.vo.msecnd.net/photogym/20140618164841_P1020043.JPG,"田徑場,籃球場,排球場(館)",FREE,
289,樹人醫護管理專科學校排球場,高雄市路竹區環球路452號,64000,64000240,22.88329219,120.2635735,07-6979333,https://az804957.vo.msecnd.net/photogym/20140618172019_排球場全景.JPG,排球場(館),FREE,
290,振聲高中操場,桃園市桃園區復興路439號,68000,68000010,24.99061922,121.3022129,03-3322605#1351,https://az804957.vo.msecnd.net/photogym/20140619144210_53872.jpg,"田徑場,半場籃球場,排球場",CLOSE,
291,海星高中田徑場,花蓮縣新城鄉嘉新村嘉新路36號,10015,10015040,24.00746309,121.6132879,03-8242588,https://az804957.vo.msecnd.net/photogym/20140619162246_海星鳥瞰圖.jpg,"排球場(館),籃球場,健身房(含重量訓練室)",CLOSE,
292,陽明大學活動中心,臺北市北投區立農街二段155號,63000,63000120,25.1216217,121.5142487,02-28267000#2169,https://az804957.vo.msecnd.net/photogym/20140620141950_CIMG0740.JPG,"排球場(館),桌球場(館),韻律教室,籃球場,羽球場(館),健身房(含重量訓練室),心肺功能室",CLOSE,
293,陽明大學山下球場,臺北市北投區立農街二段155號,63000,63000120,25.11978395,121.5137203,02-28267000#2169,https://az804957.vo.msecnd.net/photogym/20140620161711_CIMG0744.JPG,"籃球場,排球場(館),網球場(館)",FREE,
294,陽明大學山頂運動場,臺北市北投區立農街二段155號,63000,63000120,25.12518658,121.514883,02-28267000#2169,https://az804957.vo.msecnd.net/photogym/20140620163000_CIMG0734.JPG,"田徑場,籃球場,排球場(館),足球場",FREE,
295,高雄科技大學建工校區排球場(館),高雄市三民區建工路415號,64000,64000050,22.64780399,120.3292018,07-3814526#13536,https://az804957.vo.msecnd.net/photogym/20140701091014_照片.JPG,排球場(館),FREE,
296,鎮南國小室外綜合球場,雲林縣斗六市社口里南揚街60號,10009,10009010,23.69899774,120.5401871,05-6341109#036,https://az804957.vo.msecnd.net/photogym/20140702152104_SAM_6204.JPG,"網球場(館),排球場(館),籃球場(館)",CLOSE,
297,永安國小永安館,臺中市西屯區西屯路三段133號,66000,66000060,24.18411683,120.6250226,04-24624470#731,https://az804957.vo.msecnd.net/photogym/20140717141602_永安館_壓縮.jpg,"羽球場(館),排球場(館)",PAID,
298,富春國小體操館,臺中市豐原區豐西里中山路455號,66000,66000090,24.25191434,120.7129025,04-25222542#724,https://az804957.vo.msecnd.net/photogym/20140718101433_DSC00512.JPG,"體操館,籃球場",FREE,
299,金門大學排球場(館),金門縣金寧鄉大學路1號,9020,9020040,24.44695845,118.3223378,082-313802,https://az804957.vo.msecnd.net/photogym/20140718134722_IMG_3740.JPG,排球場(館),FREE,
300,東峰國中排球場(館),臺中市東區仁和路330號,66000,66000020,24.12510592,120.6871641,04-22825133#731,https://az804957.vo.msecnd.net/photogym/20140718150659_DSCN7987.JPG,排球場(館),FREE,
301,埤頭國中綜合球場,彰化縣埤頭鄉崙腳村中學路67號,10007,10007220,23.88009875,120.4611102,04-8922004#39,https://az804957.vo.msecnd.net/photogym/20140718160406_綜合球場.JPG,排球場,FREE,
302,景文高中排球場,臺北市文山區木新里保儀路127號,63000,63000080,24.98543724,121.568259,02-29390310,https://az804957.vo.msecnd.net/photogym/20140709133437_DSC_0039.JPG,排球場(館),CLOSE,
303,向上國中排球場,臺中市西區美村路一段389號,66000,66000040,24.14291093,120.6623161,04-23726085,https://az804957.vo.msecnd.net/photogym/20140723113802_K5JC4072.JPG,排球場(館),CLOSE,
304,達人女中籃球場,臺北市內湖區內湖路二段314號,63000,63000100,25.0812481,121.5877104,02-27956899#401,https://az804957.vo.msecnd.net/photogym/20140610105853_操場.JPG,排球場(館),CLOSE,
305,馬偕醫學院多功能活動中心,新北市三芝區中正路三段46號,65000,65000210,25.2548655,121.4942729,02-26360303#5013,https://az804957.vo.msecnd.net/photogym/20140703144529__IGP1049.JPG,"籃球場(館),排球場(館),羽球場(館),桌球場(館)",CLOSE,
306,曾文家商籃排球場,臺南市麻豆區和平路9號,67000,67000070,23.17797242,120.2460265,06-5722079#305,https://az804957.vo.msecnd.net/photogym/20140603163918_IMG_34591.JPG,"籃球場,排球場",FREE,
307,慈明高中排球場(館),臺中市太平區光德路388號,66000,66000270,24.10520758,120.7272524,04-22713911#204,https://az804957.vo.msecnd.net/photogym/20140703155938_DSC_0981.jpg,排球場(館),CLOSE,
308,六信高中籃球場,臺南市南區新都路20號,67000,67000330,22.97384317,120.2019471,(06)2619885,https://az804957.vo.msecnd.net/photogym/20140703180506_IMG_20140703_181103.jpg,"籃球場,半場籃球場,排球場(館),躲避球場",FREE,
309,聖功女中云和館,臺南市北區北園街87巷64號,67000,67000340,23.01611379,120.2226859,(06)2740126,https://az804957.vo.msecnd.net/photogym/20140703193956_IMG_5389.JPG,"籃球場,羽球場(館),排球場(館),桌球場(館),舞蹈教室",CLOSE,
310,雲林國中排球場,雲林縣斗六市明德路599號,10009,10009010,23.69986962,120.5327171,05-5326071#036,https://az804957.vo.msecnd.net/photogym/20140702144100_IMG_3830.JPG,排球場(館),CLOSE,
311,花壇國中排球場,彰化縣花壇鄉長沙村彰員路二段580號,10007,10007080,24.0303996,120.5507228,04-7862043#45,https://az804957.vo.msecnd.net/photogym/20140707101823_DSC00038.GIF,排球場,FREE,
312,員林國中田徑場,彰化縣員林市南興里南潭路2號,10007,10007100,23.96356312,120.5590779,04-8320873,https://az804957.vo.msecnd.net/photogym/20140707101725_操場全景.JPG,"田徑場,排球場(館)",FREE,
313,太平國小綜合球場,花蓮縣卓溪鄉太平村1鄰2號,10015,10015130,23.40540613,121.3200608,03-8841359,https://az804957.vo.msecnd.net/photogym/20140703141550_籃球場1.jpg,排球場(館),FREE,
314,鹿港國小田徑場,彰化縣鹿港鎮菜園里三民路192號,10007,10007020,24.05252866,120.4331642,04-7772038#131,https://az804957.vo.msecnd.net/photogym/20140707141724_26K4UXCC644SQ2C5HHPD.JPG,"田徑場,籃球場,躲避球場,排球場(館)",FREE,
315,大同國小田徑場,彰化縣伸港鄉大同村彰新路七段724號,10007,10007050,24.16043938,120.4916391,04-7982307,https://az804957.vo.msecnd.net/photogym/20140707141015_DSCN0020.JPG,"田徑場,籃球場,躲避球場,排球場(館)",FREE,
316,鹿港國小活動中心,彰化縣鹿港鎮菜園里三民路192號,10007,10007020,24.05285197,120.4335451,04-7772038,https://az804957.vo.msecnd.net/photogym/20140707142525_DSC01818.JPG,"排球場(館),羽球場(館)",PAID,
317,明台高中田徑場,臺中市霧峰區萊園路91號,66000,66000260,24.06038285,120.704239,04-23393071#313,https://az804957.vo.msecnd.net/photogym/20140707145830_IMG_1352.jpg,"田徑場,籃球場,排球場(館)",FREE,
318,文開國小活動中心,彰化縣鹿港鎮新宮里文開路60號,10007,10007020,24.05660426,120.4289424,04-7772042#713,https://az804957.vo.msecnd.net/photogym/20140707143459_clip_image0021.jpg,"排球場(館),籃球場",CLOSE,
319,東勢國小綜合球場,雲林縣東勢鄉東南村東榮路29巷9號,10009,10009140,23.6739022,120.2563342,05-6991036,https://az804957.vo.msecnd.net/photogym/20140625121753_5.jpg,"籃球場,排球場(館)",FREE,
320,萬來國小網球場(館),彰化縣北斗鎮西德里文賢街35號,10007,10007190,23.87049893,120.522058,04-8882119,https://az804957.vo.msecnd.net/photogym/20140708095142_網球場.jpg,"網球場(館),排球場(館),躲避球場",FREE,
321,二水國中籃球場,彰化縣二水鄉源泉村月眉巷13號,10007,10007180,23.804041,120.6445545,04-8791557#32,https://az804957.vo.msecnd.net/photogym/20140707102431_04.JPG,"籃球場,排球場(館)",FREE,
322,員林國小籃球場,彰化縣員林市三和里三民東街221號,10007,10007100,23.96052383,120.5780303,04-8320145#772,https://az804957.vo.msecnd.net/photogym/20140708103030_B02.jpg,"籃球場,排球場",FREE,
323,嘉義高中籃球場(館),嘉義市東區大雅路二段738號,10020,10020010,23.47802778,120.4636931,05-2762804,https://az804957.vo.msecnd.net/photogym/20140530120516_排.jpg,躲避球場,FREE,
324,和仁國小田徑場,彰化縣和美鎮山犁里15鄰仁愛路279號,10007,10007030,24.10311181,120.4952413,04-7575407,https://az804957.vo.msecnd.net/photogym/20140708095925_100_4731.JPG,"田徑場,籃球場,躲避球場,排球場(館)",FREE,
325,虎尾高中排球場,雲林縣虎尾鎮光復路222號,10009,10009030,23.71147617,120.4418492,05-6322121#351,https://az804957.vo.msecnd.net/photogym/20140708104930_P_20140708_102435.jpg,"體育館,羽球場(館),排球場(館)",CLOSE,
326,清華大學室外排球場,新竹市東區光復路二段101號,10018,10018010,24.79646269,120.996719,03-5715131#34677,https://az804957.vo.msecnd.net/photogym/20140708112348_室外排球場22.jpg,排球場(館),FREE,
327,嶺東科技大學環形/直線慢跑道(非田徑場型),臺中市南屯區嶺東路1號,66000,66000070,24.13789817,120.6088275,04-23892088,https://az804957.vo.msecnd.net/photogym/20140708095209_C:\Users\LTU\Desktop\DSCN1184_調整大小.JPG,"環形/直線慢跑道(非田徑場型),春安校區排球場,春安校區籃球場,寶文校區籃球場,寶文校區排球場,寶文校區網球場,春安校區網球場",FREE,
328,育華國小田徑場,彰化縣芳苑鄉永興村太平路300號,10007,10007230,23.94582637,120.3324097,04-8933261#12,https://az804957.vo.msecnd.net/photogym/20140708113038_DSC_0228_01.JPG,"田徑場,籃球場,排球場(館),躲避球場",FREE,
329,潭墘國小排球場(館),彰化縣大城鄉潭墘村潭城路1號,10007,10007240,23.83564515,120.3481865,04-8941009,https://az804957.vo.msecnd.net/photogym/20140708142126_拍球場3.JPG,羽球場(館),FREE,
330,香田國小籃球場,彰化縣二林鎮香田里儒林路10之1號,10007,10007200,23.87439879,120.3771544,04-8960654,https://az804957.vo.msecnd.net/photogym/20140708142928_P_20140707_104438.jpg,"籃球場,排球場(館),躲避球場",CLOSE,
331,五常國小體育館,臺北市中山區下埤里五常街16號,63000,63000040,25.06398309,121.5415442,02-25023416#825,https://az804957.vo.msecnd.net/photogym/20140729102443_P3170022.JPG,排球場(館),PAID,
332,內湖國中戶外排球場,臺北市內湖區紫陽里陽光街1號,63000,63000100,25.07644772,121.5898266,02-27900843,https://az804957.vo.msecnd.net/photogym/20140729103029_排球場3.jpg,排球場(館),PAID,
333,至善國中籃球場,臺北市士林區臨溪里至善路2段360號,63000,63000110,25.10381662,121.5569039,02-28411350#32,https://az804957.vo.msecnd.net/photogym/20140729105830_P1310665.JPG,排球場(館),CLOSE,
334,東隆國小田徑場,屏東縣東港鎮共和里共和路45號,10013,10013030,22.46386432,120.45084,08-8322064,https://az804957.vo.msecnd.net/photogym/20140616171449_IMAG0696.jpg,"足球場,籃球場,躲避球場,排球場(館),田徑場",FREE,
335,伸東國小綜合球場,彰化縣伸港鄉七嘉村中華路565號,10007,10007050,24.1461099,120.4954746,04-7982314,https://az804957.vo.msecnd.net/photogym/20140708142107_DSC03184.JPG,"籃球場,排球場(館)",FREE,
336,臺灣體育運動大學教學大樓(術科場地),臺中市北區雙十路一段16號,66000,66000050,24.15255897,120.689047,04-22213108#1106,https://az804957.vo.msecnd.net/photogym/20140708153724_新教學大樓全景.jpg,"籃球場,羽球場(館),排球場(館)",CLOSE,
337,康寧大學排球場(館),臺南市安南區安中路五段188號,67000,67000350,23.0605207,120.1570139,06-2552500#52410,https://az804957.vo.msecnd.net/photogym/20140708164136_籃球場.jpg,排球場(館),FREE,
338,培英國小風雨操場,彰化縣和美鎮塗厝里彰新路五段310號,10007,10007030,24.13414317,120.5096479,04-7552430,https://az804957.vo.msecnd.net/photogym/20140707143628_IMG_20140703_113927.jpg,"排球場(館),羽球場(館)",CLOSE,
339,海佃國小籃球場,臺南市安南區郡安路五段56號,67000,67000350,23.02838929,120.2004665,06-2505013#5102,https://az804957.vo.msecnd.net/photogym/20140709094618_綜合球場 2.jpg,"籃球場,排球場(館)",FREE,
340,原斗國中小國中部籃球場,彰化縣二林鎮原斗里原竹路872號,10007,10007200,23.89420287,120.427368,04-8904600#22,https://az804957.vo.msecnd.net/photogym/20140709101049_1.JPG,"籃球場,排球場(館),躲避球場",FREE,
341,明道高中排球場(館),臺中市烏日區中山路一段497號,66000,66000230,24.1048844,120.6367707,04-23341336,https://az804957.vo.msecnd.net/photogym/20140709104112_0IF917RMMLZGLFU6LY83.JPG,排球場(館),FREE,
342,新竹高商排球場,新竹市東區學府路128號,10018,10018010,24.7957149,120.9841168,03-5722150,https://az804957.vo.msecnd.net/photogym/20140709104519_X3VBLCJRLB1JW0IWW19V.jpg,排球場,FREE,
343,安順國中田徑場,臺南市安南區安和路三段227號,67000,67000350,23.04947156,120.2180672,06-3559652#134,https://az804957.vo.msecnd.net/photogym/20140709085731_C:\Users\Administrator\Desktop\操場.JPG,排球場(館),FREE,
344,民生國小活動中心,彰化縣彰化市民生路338號,10007,10007010,24.08475274,120.542306,04-7224122,https://az804957.vo.msecnd.net/photogym/20140709112758_P1220668.JPG,排球場(館),PAID,
345,原斗國小躲避球場,彰化縣二林鎮原斗里斗苑路一段865號,10007,10007200,23.89590232,120.4269952,04-8902322#103,https://az804957.vo.msecnd.net/photogym/20140708142827_DSCN6228.JPG,"躲避球場,籃球場,排球場(館)",FREE,
346,羅東高工排球場(館),宜蘭縣冬山鄉廣興路117號,10002,10002080,24.66981226,121.7517221,03-9514196#306,https://az804957.vo.msecnd.net/photogym/20140709111258_排球場1.JPG,排球場(館),FREE,
347,永康國中田徑場附設排球場,臺南市永康區中山路43號,67000,67000310,23.02731037,120.2544277,06-2015247#8023,https://az804957.vo.msecnd.net/photogym/20140709132539_P1000641.JPG,"田徑場,排球場(館)",FREE,
348,新營高中排球場(館),臺南市新營區民權路101號,67000,67000010,23.30814338,120.3111291,06-6562274#204,https://az804957.vo.msecnd.net/photogym/20140709140628_IMG_20140709_133741.jpg,排球場(館),FREE,
349,輔仁大學中美堂,新北市新莊區中正路510號,65000,65000050,25.03794066,121.4320296,02-29056436,https://az804957.vo.msecnd.net/photogym/20140618113628_中美堂外.jpg,"籃球場,排球場(館),羽球場(館)",PAID,
350,成功國中排球場(館),臺南市北區和緯路1段2號,67000,67000340,23.00930003,120.2166402,06-2517906#130,https://az804957.vo.msecnd.net/photogym/20140709154922_DSC05965.JPG,排球場(館),FREE,
351,民生國小籃球場,彰化縣彰化市民生路338號,10007,10007010,24.08402303,120.5423355,04-7224122,https://az804957.vo.msecnd.net/photogym/20140709110306_P1220655.JPG,"排球場(館),躲避球場",FREE,
352,高師大附中籃球場,高雄市苓雅區凱旋二路89號,64000,6400800,22.75034855,120.4980469,07-7613875#526,https://az804957.vo.msecnd.net/photogym/20140709163915_R0021848.JPG,"籃球場,排球場(館)",FREE,
353,樹德科技大學北校區-綜合運動場,高雄市燕巢區橫山路59號,64000,64000210,22.76431804,120.3724658,07-6158000#2855,https://az804957.vo.msecnd.net/photogym/20140614134405_圖片8.gif,"籃球場,排球場(館),棒、壘球打擊練習場,壘球場,網球場(館),沙灘排球場",FREE,
354,樹德科技大學南校區-上操運動場,高雄市燕巢區橫山路59號,64000,64000210,22.76019965,120.3766716,(07)6158000*2855,https://az804957.vo.msecnd.net/photogym/20140614133020_12.gif,"田徑場,籃球場,排球場(館)",FREE,
355,臺東高中排球場(館),臺東縣臺東市中華路一段721號,10014,10014010,22.74625418,121.1463904,089-322070#6412,https://az804957.vo.msecnd.net/photogym/20140710095855_DSC_0003.JPG,排球場(館),FREE,
356,花蓮高農田徑場,花蓮縣花蓮市建國路161號,10015,10015010,23.98273352,121.598525,03-8312358,https://az804957.vo.msecnd.net/photogym/20140709105016_IMAG0177.jpg,"田徑場,足球場,排球場(館),籃球場",FREE,
357,臺東大學學生活動中心暨綜合體育館,臺東縣臺東市大學路二段369號,10014,10014010,22.73283175,121.0674369,08-9518232,https://az804957.vo.msecnd.net/photogym/20140708114546_學生活動中心暨綜合體育館.jpg,"游泳池(館),籃球場,羽球場(館),排球場(館),體操室/館,舞蹈教室,健身房(含重量訓練室),攀岩場",CLOSE,
358,大成商工環形/直線慢跑道(非田徑場型),雲林縣虎尾鎮成平街21號,10009,10009030,23.71112764,120.4461047,(05)6322534,https://az804957.vo.msecnd.net/photogym/20140710115720_tcvhs10.jpg,"籃球場,排球場(館),網球場(館)",FREE,
359,樹德科技大學行政大樓禮堂（兼體育館）,高雄市燕巢區橫山路59號,64000,64000210,22.76484699,120.3764087,(07)6158000*2855,https://az804957.vo.msecnd.net/photogym/20140614115710_10.gif,"排球場(館),羽球場(館),籃球場",CLOSE,
360,鳳山高中排球場(館),高雄市鳳山區光復路二段130號,64000,64000120,22.63187308,120.3447912,07-7463150#380,https://az804957.vo.msecnd.net/photogym/20140710163121_排球場1.JPG,排球場(館),CLOSE,
361,港東國小網球場(館),臺南市西港區港東里雙張廍1之1號,67000,67000140,23.12294106,120.2092588,06-7952231,https://az804957.vo.msecnd.net/photogym/20140710110418_IMG_0029.JPG,網球場(館),FREE,
362,東石高中排球場(館),嘉義縣朴子市大鄉里253號,,,23.46465861,120.2514768,05-3794180,https://az804957.vo.msecnd.net/photogym/20140711100238_排球全2-1.jpg,排球場(館),FREE,
363,後壁國中戶外運動場,臺南市後壁區嘉苳里124之20號,67000,67000050,23.35392105,120.3595296,06-6871974#222,https://az804957.vo.msecnd.net/photogym/20140710172327_P_20140710_153518.jpg,"田徑場,籃球場,排球場(館)",FREE,
364,水里商工排球場,南投縣水里鄉南湖路2號,10008,10008110,23.80421279,120.8534288,049-2870666#235,https://az804957.vo.msecnd.net/photogym/20140619121546_D:\政穎\photo\場地\IMG_0031.JPG,排球場,FREE,
365,新港藝術高中體育館,嘉義縣新港鄉宮後村藝高路1號,10010,10010070,23.55963542,120.3509009,05-3747060#254,https://az804957.vo.msecnd.net/photogym/20140710091613_DSC06603.JPG,"舞蹈教室,籃球場,排球場(館),羽球場(館)",CLOSE,
366,苑裡高中綜合球場,苗栗縣苑裡鎮客庄里24鄰新興路19號,10005,10005020,24.4392772,120.6549615,037-861042#623,https://az804957.vo.msecnd.net/photogym/20140711105827_IMG_1026.JPG,"籃球場,排球場",FREE,
367,德光高中體育館,臺南市東區德光街106號,67000,67000320,22.97949385,120.2201539,06-2894560,https://az804957.vo.msecnd.net/photogym/20140711121431_PIC_5064.JPG,"游泳池(館),籃球場,排球場(館),羽球場(館),桌球場(館)",PAID,
368,七賢國小運動中心,高雄市新興區七賢一路393號,64000,64000060,22.63300536,120.3067946,07-2351150,https://az804957.vo.msecnd.net/photogym/20140711124702_張家界 376.JPG,"躲避球場,籃球場,排球場(館),羽球場(館),田徑場",CLOSE,
369,德光高中田徑場,臺南市東區德光街106號,67000,67000320,22.97911804,120.2210209,(06)2894560,https://az804957.vo.msecnd.net/photogym/20140711131015_PIC_5065.JPG,"田徑場,籃球場,排球場(館)",CLOSE,
370,環球科技大學排球場(館),雲林縣斗六市嘉東里鎮南路1221號,,,23.67712998,120.5486012,05-5370988#2312,https://az804957.vo.msecnd.net/photogym/20140711143444_IMG_20140715_111504.jpg,排球場(館),CLOSE,
371,屏東大學排球場(館),屏東縣屏東市民生路4號之18,10013,10013010,22.66612966,120.5052835,08-7663800#10522,https://az804957.vo.msecnd.net/photogym/20140711150039_IMG_6551.jpg,排球場(館)(民生校區),FREE,
372,仁德國中籃球場附設排球場,臺南市仁德區民安路一段363號,67000,67000270,22.95718631,120.2487436,06-2682724#44,https://az804957.vo.msecnd.net/photogym/20140711155055_5.jpg,"籃球場,排球場(館)",FREE,
373,羅東高中躍虎球場(排球場、籃球場),宜蘭縣羅東鎮公正路324號,10002,10002020,24.68355919,121.7635172,03-9567645#300,https://az804957.vo.msecnd.net/photogym/20140709113730_IMG_20140709_132532.jpg,"半場籃球場,排球場(館)",FREE,
374,高雄大學排球場(館),高雄市楠梓區高雄大學路700號,64000,64000040,22.73221329,120.2775264,(07)5919490,https://az804957.vo.msecnd.net/photogym/20140711175802_排小檔.JPG,排球場(館),PAID,
375,聯興國小田徑場,彰化縣彰化市牛埔里一心南街208號,10007,10007010,24.07654932,120.5984044,04-7384340,https://az804957.vo.msecnd.net/photogym/20140707095027_11 (3).JPG,"籃球場,田徑場,躲避球場,排球場(館)",FREE,
376,羅東高中中正堂(室內籃球場),宜蘭縣羅東鎮公正路324號,10002,10002020,24.68092784,121.7627414,03-9567645#309,https://az804957.vo.msecnd.net/photogym/20140618145146_IMG_20140710_141924.jpg,"籃球場,羽球場(館),排球場(館)",PAID,
377,北斗國中籃球場,彰化縣北斗鎮文苑路一段136號,10007,10007190,23.87776386,120.5217576,04-8882072#33,https://az804957.vo.msecnd.net/photogym/20140712182957_照片--籃球場.jpg,"籃球場,排球場(館)",FREE,
378,黎明高中排球場(館),臺南市麻豆區磚井里141號,67000,67000070,23.17300513,120.2480331,(06)5717123轉234或235,https://az804957.vo.msecnd.net/photogym/20140713100854_DSC01920_2.jpg,排球場(館),FREE,
379,衛道高中排球場(館),臺中市北屯區四平路161號,66000,66000080,24.18274555,120.6743163,04-22911187,https://az804957.vo.msecnd.net/photogym/20140713211056_排球場全景.JPG,排球場(館),FREE,
380,聖心女中籃排球場,新北市八里區龍米路一段263號,65000,65000230,25.134391,121.4486194,02-26182287,https://az804957.vo.msecnd.net/photogym/20140714000138_P1270686.jpg,"籃排球場,排球場(館)",CLOSE,
381,宜蘭高中籃、排球場,宜蘭縣宜蘭市復興路三段8號,10002,,24.75245808,121.742447,03-9324153#112,https://az804957.vo.msecnd.net/photogym/20140714095026_IMG_5262.JPG,排球場(館),FREE,
382,屏東大學體育館,屏東縣屏東市民生路4號之18,10013,10013010,22.66598115,120.5044466,08-7663800#10522,https://az804957.vo.msecnd.net/photogym/20140714101306_IMG_6595.JPG,"排球場(館),籃球場,羽球場(館)",CLOSE,
383,治平高中體育場,桃園市楊梅區埔心中興路137號,68000,68000040,24.91548974,121.1880425,03-4823636#302,https://az804957.vo.msecnd.net/photogym/20140714095328_DSCF1598.JPG,"田徑場,籃球場,排球場(館)",CLOSE,
384,和春技術學院排球場(館),高雄市大寮區琉球里至學路288號,64000,64000140,22.60863054,120.4265036,(07)7889888,https://az804957.vo.msecnd.net/photogym/20140714112735_排球場.jpg,排球場(館),FREE,
385,紀安國小籃球場,臺南市麻豆區謝厝寮里231號,67000,67000070,23.15131781,120.2374542,06-5722306#183,https://az804957.vo.msecnd.net/photogym/20140714113011_P1170974.JPG,排球場(館),CLOSE,
386,玄奘大學排球場,新竹市香山區東香里玄奘路48號,10018,10018030,24.77388624,120.9407347,03-5302255#6141,https://az804957.vo.msecnd.net/photogym/20140714121112_DSC00061.JPG,排球場,FREE,
387,福康國小活動中心,高雄市苓雅區漢陽街17號,64000,6400800,22.61898873,120.3292636,07-7227134#721,https://az804957.vo.msecnd.net/photogym/20140714120117_014Q4KOLDB20JQGNPTAI.jpg,排球場(館),CLOSE,
388,屏榮高中體育館,屏東縣屏東市豐田里民學路100號,10013,10013010,22.6749018,120.5045646,(08)7223409,https://az804957.vo.msecnd.net/photogym/20140714111951_照片 029.jpg,"排球場(館),桌球場(館)",CLOSE,
389,臺北護理健康大學體育館,臺北市北投區明德路365號,63000,63000120,25.11841799,121.5186274,02-28227101#2901,https://az804957.vo.msecnd.net/photogym/20140714122228_S__4046900.jpg,"籃球場,羽球場,排球場,健身教室,韻律教室,攀岩場",CLOSE,
390,學甲國中排球館,臺南市學甲區華宗路540號,67000,67000130,23.2369931,120.1837993,06-7832128#207,https://az804957.vo.msecnd.net/photogym/20140707164447_C:\Users\user\Desktop\DSCN4743.JPG,排球場(館),CLOSE,
391,中央大學排球場,桃園市中壢區中大路300號,68000,68000020,24.96762828,121.1909473,03-4227151#57251,https://az804957.vo.msecnd.net/photogym/20140714145928_球場全景.JPG,排球場,FREE,
392,大美國小排球場(館),雲林縣莿桐鄉大美村23號,10009,10009090,23.73781914,120.5143654,05-5842504#13,https://az804957.vo.msecnd.net/photogym/20140707143749_排球場1.JPG,排球場(館),FREE,
393,新東國小排球場,臺南市後壁區長短樹里下長81號,67000,67000050,23.34501401,120.3166866,06-6320902#13,https://az804957.vo.msecnd.net/photogym/20140714162804_P1000320.JPG,排球場,FREE,
394,中央大學依仁堂,桃園市中壢區中大路300號,68000,68000020,24.96829938,121.1908078,03-4267128,https://az804957.vo.msecnd.net/photogym/20140710103425_依仁堂全景.JPG,"籃球館,排球館,韻律教室,技擊教室,體適能健身教室",PAID,
395,興國高中籃球場,臺南市新營區大同路86號,67000,67000010,23.31327947,120.3219867,06-6352201#1206,https://az804957.vo.msecnd.net/photogym/20140713120018_DSC04352.jpg,排球場(館),CLOSE,
396,輔仁大學排球場(館),新北市新莊區中正路510號,65000,65000050,25.03989206,121.4317989,02-29056436,https://az804957.vo.msecnd.net/photogym/20140620125314_DSC_0062.JPG,排球場(館),CLOSE,
397,東南科技大學龍鳳館,新北市深坑區北深路三段152號,65000,65000180,25.00480587,121.6036427,02-86625850,https://az804957.vo.msecnd.net/photogym/20140714175648_IMG_1853-1.JPG,"籃球場,排球場",FREE,
398,依仁國小籃球場,臺南市仁德區中洲里港墘3號,67000,67000270,22.91280399,120.2617604,06-2662108#020,https://az804957.vo.msecnd.net/photogym/20140714185731_SAM_3712.JPG,"籃球場,排球場(館)",FREE,
399,和美實驗學校體育館,[508]彰化縣和美鎮鹿和路六段115號,,,24.10519289,120.4914916,04-7552009#304,https://az804957.vo.msecnd.net/photogym/20140714221149_體育館1.jpg,"籃球場,排球場(館),羽球場(館)",CLOSE,
400,太子國中籃球場,臺南市新營區太北里140-21號,67000,67000010,23.29195342,120.2713144,06-6524762,https://az804957.vo.msecnd.net/photogym/20140715101120_DSCN1658.jpg,"籃球場,風雨球場",FREE,
401,"旗山農工田徑場附設5座籃球場,2座排球場",高雄市旗山區旗甲路一段195號,64000,64000300,22.90146686,120.4819608,07-6612501#238,https://az804957.vo.msecnd.net/photogym/20140714091850_DSC05459.JPG,田徑場,FREE,
402,安平國小排球場(館),臺南市安平區怡平路392號,67000,67000360,22.99473323,120.1757687,06-2996735#733,https://az804957.vo.msecnd.net/photogym/20140714114330_全景.JPG,羽球場(館),FREE,
403,臺灣師範大學體育館,臺北市大安區和平東路一段162號,63000,63000030,25.02614533,121.5273754,02-77343177,https://az804957.vo.msecnd.net/photogym/20140618152733_IMG_4028.jpg,"籃球場,排球場(館)",PAID,
404,重溪國小籃球場,臺南市柳營區義士路二段2號,67000,67000040,23.28604554,120.3655565,06-6231824,https://az804957.vo.msecnd.net/photogym/20140711142731_D:\103年工程\103年度綜合球場整修工程\施工前照片\DSCN1895(001).jpg,排球場(館),FREE,
405,新社高中排球場,臺中市新社區復盛里中和街三段國中巷10號,66000,66000190,24.23725028,120.8067048,04-25812116,https://az804957.vo.msecnd.net/photogym/20170323153428_ZCRJF8SK5EJJI2SVLK0S.JPG,排球場,CLOSE,
406,基隆市國民運動中心,基隆市仁愛區獅球路8-1號,10017,10017040,25.12471425,121.7378169,02-24301505#403,https://az804957.vo.msecnd.net/photogym/20161223101941_FJ2YQKYFGPIA4YLGX92H.jpg,"棒、壘球打擊練習場,籃球場,羽球場(館),高爾夫球練習場,排球場(館),攀岩場,游泳池(館),桌球場(館),健身房(含重量訓練室),舞蹈教室",PAID,
407,臺中二中田徑場,臺中市北區英士路109號,66000,66000050,24.15316593,120.6760705,04-22021521,https://az804957.vo.msecnd.net/photogym/20140611104534_田徑場2.JPG,"籃球場,排球場(館),田徑場",FREE,
408,春日鄉士文社區集會所,94249屏東縣春日鄉士文村士文路64-2號,,,22.36829299,120.6639576,08-8781407#58,https://az804957.vo.msecnd.net/photogym/20140613145636_1403686334018.jpg,"半場籃球場,排球場(館)",FREE,
409,體育館,新竹市東區學府路128號,10018,10018010,24.79614345,120.9854472,03-5722150,https://az804957.vo.msecnd.net/photogym/20140708164747_05-03-04.jpg,"羽球場(館),排球場(館)",FREE,
410,家齊女中排、羽球場(館),臺南市中西區健康路一段342號,67000,67000370,22.98176841,120.2004156,06-2133265#2230,https://az804957.vo.msecnd.net/photogym/20140612102530_IMG_4353.JPG,"排球場(館),羽球場(館)",CLOSE,
411,安和國小操場,嘉義縣新港鄉安和村46號,10010,10010070,23.51405923,120.3132105,05-3772940#25,https://az804957.vo.msecnd.net/photogym/20140604104906_IMG_3227.JPG,"綜合球場,田徑場",FREE,
412,清水高中田徑場,臺中市清水區中山路90號,66000,66000120,24.26456184,120.5742109,04-26222116#341,https://az804957.vo.msecnd.net/photogym/20140603161911_R0015217.JPG,"田徑場,籃球場,排球場(館)",FREE,
413,中華國小活動中心,花蓮縣花蓮市國盛二街22號,10015,10015010,23.99239361,121.6068238,03-8324308,https://az804957.vo.msecnd.net/photogym/20140611103341_複製 -DSC01370.JPG,"籃球場,羽球場(館),排球場(館)",PAID,
414,壽山國中攀岩場,高雄市鼓山區鼓山二路37巷108號,64000,64000020,22.63448211,120.2787152,07-5519150#32,https://az804957.vo.msecnd.net/photogym/20140624103801_DSCN4252.JPG,"攀岩場,羽球場(館),排球場(館)",PAID,
415,玉里高中排球場(館),花蓮縣玉里鎮中華路424號,10015,10015030,23.34439682,121.320101,03-8886171#331,https://az804957.vo.msecnd.net/photogym/20140714205824_室外排球場.JPG,排球場(館),FREE,
416,泰山高中田徑場,新北市泰山區辭修路7號,65000,65000160,25.05775698,121.4298892,02-22963625,https://az804957.vo.msecnd.net/photogym/20170413091421_EZJOCKJLKOAYUBJ1EX19.JPG,"泰山高中田徑場,室外籃球場,排球場(館)",FREE,
417,新北市永和區中正橋左側排球場(新店溪左岸自行車道6.0KM),新北市永和區中正橋左側排球場(新店溪左岸自行車道6.0KM),65000,65000040,25.01944821,121.5123081,02-89699596#521,https://az804957.vo.msecnd.net/photogym/20141227090021_29.jpg,排球場(館),FREE,
418,新北市蘆洲區微風運河右側排球場,新北市蘆洲區微風運河右側足球場,65000,65000140,25.08847505,121.4549625,02-89699596#508,https://az804957.vo.msecnd.net/photogym/20140730120359_41.jpg,排球場(館),FREE,
419,新北市永和區綠寶石公園排球場(新店溪左岸自行車道5.5KM),新北市永和區綠寶石公園排球場(新店溪左岸自行車道5.5KM),65000,65000040,25.01798989,121.5090251,02-89699596#521,https://az804957.vo.msecnd.net/photogym/20141226111755_19.jpg,排球場(館),FREE,
420,新北市新店區陽光運動園區沙灘排球場(新店溪左岸自行車道12.8KM),新北市新店區陽光運動園區沙灘排球場(新店溪左岸自行車道12.8KM),65000,,24.97601196,121.5207624,02-89699596#521,https://az804957.vo.msecnd.net/photogym/20141227092116_39.jpg,沙灘排球場,FREE,
421,斗南高中綜合球場,雲林縣斗南鎮中山路212號,10009,10009020,23.68247506,120.4759991,05-5972059,https://az804957.vo.msecnd.net/photogym/20140604140948_籃球場002.jpg,"排球場(館),籃球場,籃球場",CLOSE,
422,排球場,臺南市柳營區中山東路二段1330號,67000,67000040,23.27936376,120.3254038,06-6223208#27,https://az804957.vo.msecnd.net/photogym/20180403121046_O0BUU9OQ62SD78S9HNJE.JPG,排球場(館),CLOSE,
423,過嶺國中田徑場,桃園市中壢區松智路2號,68000,68000020,24.96053282,121.1739475,03-4200026#314,https://az804957.vo.msecnd.net/photogym/20140618084041_場地圖.JPG,"田徑場,籃球場,排球場(館)",FREE,
424,田徑場,桃園市楊梅區高獅路5號,68000,68000040,24.9215467,121.1489439,03-4789618,https://az804957.vo.msecnd.net/photogym/20140617111807_YRLBCM3Z7XDK581VW0HW.jpg,"籃球場,足球場,排球場(館)",FREE,
425,經國國中田徑場,桃園市桃園區經國路276號,68000,68000010,25.02244258,121.3041258,03-3572699#314,https://az804957.vo.msecnd.net/photogym/20140606155730_123.jpg,"排球場,田徑場",FREE,
426,林邊國小排球場,屏東縣林邊鄉林邊村中山路68號,10013,10013190,22.43304872,120.5191514,08-8752120#14,https://az804957.vo.msecnd.net/photogym/20180418120513_76I76CCAOJWRH3DHUYIA.jpg,排球場(館),CLOSE,
427,鼓山高中活動中心,高雄市鼓山區明德路2號,64000,64000020,22.65270651,120.2756174,07-5213258,https://az804957.vo.msecnd.net/photogym/20180312144534_GADQBQMED7QBA4DBV1U6.JPG,"羽球場(館),排球場(館)",CLOSE,
428,新化高工田徑場,臺南市新化區東榮里信義路54號,67000,67000180,23.03821171,120.3186634,06-5903994#2025,https://az804957.vo.msecnd.net/photogym/20170411120525_ORVRPH9TIJKFO5DTBRCZ.jpg,"田徑場,籃球場,網球場(館),排球場(館)",FREE,
429,安平國中排球場,臺南市安平區慶平路687號,67000,67000360,22.99741462,120.1681137,06-2990461#802,https://az804957.vo.msecnd.net/photogym/20170928155756_WVT1JX4HZ4KJ05UODNOH.jpg,排球場(館),CLOSE,
430,潭秀國中體育館,臺中市潭子區雅潭路一段175號,66000,66000170,24.21557881,120.6996632,04-25343542#215,https://az804957.vo.msecnd.net/photogym/20140725160815_P1130711.JPG,排球場(館),CLOSE,
431,集集國中綜合球場,南投縣集集鎮集集里成功路200號,10008,10008050,23.83188765,120.7842989,049-2762013,https://az804957.vo.msecnd.net/photogym/20170418104115_HH2ZVFN1GKHXZWBRKHMF.jpg,"排球場(館),籃球場,網球場(館)",PAID,
432,延平國小活動中心,南投縣竹山鎮集山路二段1161號,10008,10008040,23.76793097,120.7071787,04-92642450,https://az804957.vo.msecnd.net/photogym/20140604154055_P1080096.JPG,排球場,CLOSE,
433,籃球場,花蓮縣鳳林鎮長橋路1號,10015,10015020,23.7075665,121.4178193,03-8751264,https://az804957.vo.msecnd.net/photogym/20140821091759_K8APCD8K2VH9XBU3Y4JA.jpg,"籃球場,排球場(館)",FREE,
434,壽山國中排球場,高雄市鼓山區鼓山二路37巷108號,64000,64000020,22.63329254,120.2784759,07-5519150,https://az804957.vo.msecnd.net/photogym/20180425194752_WS0L90J7RKBIIU81F9HV.JPG,排球場(館),FREE,
435,鳳林國中活動中心,高雄市小港區龍鳳路559號,64000,64000110,22.52167501,120.3485298,07-8711130,https://az804957.vo.msecnd.net/photogym/20140630131814_IMG_1129.JPG,"籃球場,羽球場(館),排球場(館),足球場,游泳池(館)",FREE,
436,中正高中排球場(館),臺北市北投區文林北路77號,63000,63000120,25.10397692,121.5149447,02-28234811#330,https://az804957.vo.msecnd.net/photogym/20140616182820_CIMG9202.JPG,排球場(館),PAID,
437,新莊高中田徑場、新莊高中排球場,高雄市左營區文慈路99號,64000,64000030,22.6804702,120.3162575,07-3420103,https://az804957.vo.msecnd.net/photogym/20140707105348_IMG_20140705_090715.jpg,田徑場,FREE,
438,屏東縣三地門鄉立多功能綜合體育館,屏東縣三地門鄉三地村中正路二段100號,10013,10013260,22.71251666,120.6558967,08-7991104#702,https://az804957.vo.msecnd.net/photogym/20140820145239_體育館.jpg,"籃球場,羽球場(館),排球場(館)",FREE,
439,安樂高中室外球場,基隆市安樂區安一路360號,10017,10017060,25.13505324,121.7305475,02-24236600#31,https://az804957.vo.msecnd.net/photogym/20140618091815_P6181932.JPG,"籃球場,排球場(館)",CLOSE,
440,鳳山國中樂群堂,高雄市鳳山區中山東路227號,64000,64000120,22.62504345,120.3721654,07-7462774#213,https://az804957.vo.msecnd.net/photogym/20140704100031_DSC_0369.JPG,"排球場(館),羽球場(館)",CLOSE,
441,桂林國小躲避球場,高雄市小港區桂林里桂陽路390號,64000,64000110,22.58265136,120.3504986,07-7910766#723,https://az804957.vo.msecnd.net/photogym/20140613100729_IMG_0843.JPG,"躲避球場,足球場,排球場(館)",CLOSE,
442,寶來國小籃球場,高雄市六龜區寶來里中正路89號,64000,64000320,23.10817439,120.7014602,07-6881009,https://az804957.vo.msecnd.net/photogym/20140618160629_P1020986(1).jpg,"排球場(館),籃球場",FREE,
443,同德家商籃排球場,南投縣草屯鎮中正路培英巷8號,10008,10008030,23.99804463,120.6958394,04-92553109,https://az804957.vo.msecnd.net/photogym/20200331110411_PYIA8QHMPTEM2IGDE3BR.jpg,籃排球場,CLOSE,
444,順天國小綜合球場,臺中市大甲區經國路168號,66000,66000110,24.34487286,120.617954,04-26872040#821,https://az804957.vo.msecnd.net/photogym/20200401161217_5J933PNRZRL87P5PPR8V.jpg,排球場(館),CLOSE,
445,北門農工,臺南市佳里區六安里117號,67000,67000120,23.17600476,120.1808703,06-7260148#222,https://az804957.vo.msecnd.net/photogym/20140703111618_O4AXXXKROQSDJPHH6PAO.jpg,"籃球場,田徑場,排球場,網球場",CLOSE,
446,新竹高中排球場,新竹市東區學府路36號,10018,10018010,24.79367441,120.980793,03-5736666#206,https://az804957.vo.msecnd.net/photogym/20140911144824_排球場場地照片1.jpg,排球場(館),FREE,
447,政大附中體育館,臺北市文山區政大一街353號,63000,63000080,24.98787653,121.584819,02-82377500#9441,https://az804957.vo.msecnd.net/photogym/20140529142512_D:\My Documents\總務處\空間配置圖\1030616體育館照片\DSCN0477.jpg,"籃球場,排球場(館),羽球場(館)",PAID,
448,嘉義女中排球場(館),嘉義市西區垂楊路243號,10020,10020020,23.47292999,120.4509312,05-2254603#1361,https://az804957.vo.msecnd.net/photogym/20140611155350_排球1.jpg,排球場(館),CLOSE,
449,南崗國中運動場,南投縣南投市大庄路94號,10008,10008010,23.89582385,120.6830174,049-2222460#252,https://az804957.vo.msecnd.net/photogym/20140610151204_操場-1.JPG,"田徑場,籃球場,沙灘排球場",PAID,
450,新興高中排球場(館),高雄市新興區五福二路218號,64000,64000060,22.62363719,120.2993703,07-2727127#2050,https://az804957.vo.msecnd.net/photogym/20140529122351_DSC03855.JPG,排球場(館),PAID,
451,後庄國小田徑場,高雄市大寮區後庄里民揚路28號,64000,64000140,22.63755553,120.3890526,07-7035278,https://az804957.vo.msecnd.net/photogym/20140612103007_P1050773.JPG,"田徑場,籃球場,排球場(館)",FREE,
452,河東國小籃球場,臺南市白河區河東里83之1號,67000,67000030,23.34462167,120.4370803,06-6852527,https://az804957.vo.msecnd.net/photogym/20140715120400_DSC02603.jpg,"籃球場,排球場(館)",FREE,
453,成功國中籃球場,臺南市北區和緯路1段2號,67000,67000340,23.00918153,120.2166563,06-2517906#130,https://az804957.vo.msecnd.net/photogym/20140709154403_DSC05961.JPG,"籃球場,排球場(館)",FREE,
454,成功國中風雨球場,臺南市北區和緯路1段2號,67000,67000340,23.00926053,120.216651,06-2517906#130,https://az804957.vo.msecnd.net/photogym/20140709153647_DSC05953.JPG,"風雨球場,半場籃球場,羽球場(館),排球場(館)",FREE,
455,僑平國小彩翼館,嘉義市西區德安路10號,10020,10020020,23.48434531,120.4316998,05-2333746#705,https://az804957.vo.msecnd.net/photogym/20140605104559_排球場.jpg,"羽球場(館),排球場(館)",CLOSE,
456,龍山國小排球場,高雄市美濃區龍山里龍山街62號,64000,64000310,22.86429169,120.5566089,07-6833654#30,https://az804957.vo.msecnd.net/photogym/20140612132353_DSC08699.JPG,排球場(館),FREE,
457,鷺江國中田徑場,新北市蘆洲區長樂路235號,65000,65000140,25.09061269,121.4617968,02-82862517,https://az804957.vo.msecnd.net/photogym/20140619104245_IMAG0170[1].jpg,"田徑場,籃球場,排球場(館)",FREE,
458,芬園國中籃球場,彰化縣芬園鄉彰南路四段27巷80號,10007,10007090,24.01213304,120.626058,049-2522001#304,https://az804957.vo.msecnd.net/photogym/20140707095203_圖片1.jpg,"籃球場,排球場(館)",FREE,
459,五樓籃球場,高雄市三民區大昌一路200號,64000,64000050,22.65602697,120.3243041,07-3813210,https://az804957.vo.msecnd.net/photogym/20170414153337_PXU3B5T162O5K2GDC7PA.jpg,籃球場,CLOSE,
460,古坑國中排球場(館),雲林縣古坑鄉朝陽村朝陽路2號,10009,10009070,23.64666181,120.567264,05-5821004#204,https://az804957.vo.msecnd.net/photogym/20140630155527_DSC08715.JPG,排球場(館),FREE,
461,文昌國中操場,桃園市桃園區民生路729號,68000,68000010,25.00969657,121.3076448,03-3552776#315,https://az804957.vo.msecnd.net/photogym/20140606155405_未命名.JPG,"籃球場,排球場(館),田徑場",FREE,
462,光復商工排球場,花蓮縣光復鄉林森路100號,10015,10015070,23.66789476,121.4290309,03-8700245#207,https://az804957.vo.msecnd.net/photogym/20140719213410_排球場1.JPG,排球場,FREE,
463,佳興國中籃球場,臺南市佳里區民安里新宅34之1號,67000,67000120,23.18239765,120.1956439,06-7260291#13,https://az804957.vo.msecnd.net/photogym/20150922143445_1XG7GR31BNI6CXSWDIKV.JPG,"籃球場,排球場(館)",FREE,
464,綜合球場,雲林縣崙背鄉草湖村二鄰2號,10009,10009120,23.7918046,120.3302586,05-6552384,https://az804957.vo.msecnd.net/photogym/20170418101039_X6ZZLT2NUQB2VGIM1QNQ.JPG,排球場(館),FREE,
465,內湖高中排球場,臺北市內湖區紫陽里文德路218號,63000,63000100,25.07784947,121.5870881,02-27977035#206,https://az804957.vo.msecnd.net/photogym/20140606094902_84ZZJC693TMUINB0MA23.jpg,排球場,FREE,
466,中州國小排球場,南投縣竹山鎮集山路一段955號,10008,10008040,23.81201864,120.7381895,049-2622030#112,https://az804957.vo.msecnd.net/photogym/20180430104130_AO3VW7QUAIGPJSY8QX4B.JPG,中州國小排球場(館),FREE,
467,活動中心室內排球場,雲林縣元長鄉元南路16號,10009,10009170,23.64509914,120.3169227,05-7882012,https://az804957.vo.msecnd.net/photogym/20180508093227_9FKVRXGYSFK5EZ5O4KH8.jpg,排球場(館),CLOSE,
468,溜冰場,臺南市北區西門路三段223號,67000,67000340,23.0054264,120.2053696,06-2223014#19,https://az804957.vo.msecnd.net/photogym/20170928111641_O3ZQ08BFRTQ934VJVWRC.JPG,排球場(館),CLOSE,
469,排球場,屏東縣萬丹鄉四維村萬丹路2段5號,10013,10013050,22.59689081,120.4884519,08-7772020,https://az804957.vo.msecnd.net/photogym/20170706113745_F831J8V6AG6VTBYKLZD7.JPG,排球場(館),CLOSE,
470,學甲國中風雨操場,臺南市學甲區華宗路540號,67000,67000130,23.23681969,120.1851404,06-7832128,https://az804957.vo.msecnd.net/photogym/20180514084746_OZJOVAMHUR7T26Z7NRNK.jpg,排球場(館),CLOSE,
471,豐濱國中體育館,花蓮縣豐濱鄉豐濱村光豐路26號,10015,10015080,23.60064392,121.5216637,03-8791159#117,https://az804957.vo.msecnd.net/photogym/20140702142749_1030627綜合體育館5 .jpg,"籃球場,羽球場(館),排球場(館)",CLOSE,
472,高雄市立英明國中排球場,高雄市苓雅區英明路147號,64000,6400800,22.61512903,120.3239447,07-7150949#526,https://az804957.vo.msecnd.net/photogym/20170623164709_TEV38BC3Y0B5N2JQBQ2Q.JPG,排球場(館),CLOSE,
473,福和國中籃球場,新北市永和區永利路71號,65000,65000040,25.00453028,121.5222098,02-29289493#229,https://az804957.vo.msecnd.net/photogym/20170929150941_8VV5DQ6J7866LTRVLZZE.JPG,"籃球場,排球場(館)",FREE,
474,埔里高工田徑場,南投縣埔里鎮中山路一段435號,10008,10008020,23.97297709,120.9793326,04-92982225#407,https://az804957.vo.msecnd.net/photogym/20200421081816_TR9AP89A7BZ3FUO4K60K.jpg,"田徑場,排球場(館)",FREE,
475,北港農工排球場,雲林縣北港鎮太平路80號,10009,10009060,23.57952425,120.3072238,05-7832246#533,https://az804957.vo.msecnd.net/photogym/20140606112343_排球場.jpg,排球場,FREE,
476,北港農工活動中心,雲林縣北港鎮太平路80號,10009,10009060,23.57881381,120.3076234,05-7832246#533,https://az804957.vo.msecnd.net/photogym/20140603141343_100_5300.JPG,"羽球場,排球場",CLOSE,
477,彰安國中西邊操場,彰化縣彰化市中正路二段530號,10007,10007010,24.07064009,120.5346885,04-7236117#231,https://az804957.vo.msecnd.net/photogym/20140707101252_48QLBRY1HVPWRRTIQ8NG.JPG,"跑道,籃球場,排球場(館)",FREE,
478,和群國中田徑場,彰化縣和美鎮柑井里美寮路一段390號,10007,10007030,24.1126992,120.5195689,04-7350071#134,https://az804957.vo.msecnd.net/photogym/20140707095230_P1140907.JPG,"籃球場,排球場(館),田徑場",FREE,
479,中正國中進華堂,屏東縣屏東市民學路2號,10013,10013010,22.67235264,120.509119,08-7226387#41,https://az804957.vo.msecnd.net/photogym/20140618094121_h6.jpg,活動中心,FREE,
480,溪陽國中風雨操場,彰化縣溪州鄉成功村下柑路1號,10007,10007260,23.82386811,120.5431187,04-8802151#31,https://az804957.vo.msecnd.net/photogym/20140707102105_CIMG0423.JPG,風雨操場,FREE,
481,南平中學活動中心,花蓮縣鳳林鎮八德路62號,10015,10015020,23.78404888,121.4571673,03-8772586#131,https://az804957.vo.msecnd.net/photogym/20140610142058_DSC07902.JPG,"羽球場+籃球場(館),排球場(館)",CLOSE,
482,仁美國中體育活動中心,桃園市楊梅區高榮里11鄰東高山頂9-8號,68000,68000040,24.92515093,121.1842569,03-4641123#316,https://az804957.vo.msecnd.net/photogym/20200422135103_EI2RVZZUJH47CWSGKNUQ.jpg,"籃球場,羽球場,排球場",CLOSE,
483,陽明高中-田徑場,桃園縣桃園市德壽街8號,,,24.98033975,121.3032246,03-3672706#102,https://az804957.vo.msecnd.net/photogym/20190625164917_UF032O0DBM2B127BSJN4.jpg,"排球場,跳遠場,草地,跑道,半場籃球場",FREE,
484,板橋國中沙灘排球場,新北市板橋區中正路437號,65000,65000010,25.02614547,121.4527898,02-29666498#650,https://az804957.vo.msecnd.net/photogym/20200422150833_CNR1RTU32GXYTAHA3SLO.jpg,沙灘排球場,CLOSE,
485,板橋國中體育館,新北市板橋區中正路437號,65000,65000010,25.02552187,121.4528362,02-29666498#650,https://az804957.vo.msecnd.net/photogym/20140618130905_IMG_7004.JPG,"排球場(館),籃球場",CLOSE,
486,北港高中志清堂活動中心,雲林縣北港鎮成功路26號,10009,10009060,23.57865894,120.3051209,05-7821411#307,https://az804957.vo.msecnd.net/photogym/20140623093450_038-1.JPG,"羽球場(館),排球場(館)",CLOSE,
487,南榮國中排球場,屏東縣崁頂鄉園寮村田寮路1之15號,10013,10013180,22.51337463,120.5182922,08-8631112#13,https://az804957.vo.msecnd.net/photogym/20200423122223_ZIO6PUTB8EIPB92DIVD2.jpg,排球場(館),CLOSE,
488,新興高中籃球場 排球場 田徑場,高雄市新興區五福二路218號,64000,64000060,23.22778053,120.6539154,07-2727127#2050,https://az804957.vo.msecnd.net/photogym/20140529111933_DSC03848.JPG,籃球場,PAID,
489,仁和國小排球場,屏東縣林邊鄉仁和村中山路417號,10013,10013190,22.43756298,120.5115652,08-8752201#12,https://az804957.vo.msecnd.net/photogym/20140609144803_IMG_20140610_131316.jpg,排球場(館),FREE,
490,瑞峰國中籃球場,南投縣鹿谷鄉仁愛路154之1號,10008,10008070,23.78296893,120.775044,049-2671712#13,https://az804957.vo.msecnd.net/photogym/20140612110825_DSC07349.JPG,排球場(館),FREE,
491,正德高中籃球場,彰化縣彰化市莿桐里彰水路145號,10007,10007010,24.05810563,120.5188134,(04)7524109#112,https://az804957.vo.msecnd.net/photogym/20140612130507_籃球場全.jpg,"籃球場,排球場(館)",CLOSE,
492,福山國中籃球場,高雄市左營區重信路215號,64000,64000030,22.6798317,120.3142512,07-3501581#29,https://az804957.vo.msecnd.net/photogym/20140612132542_IMG_8329.JPG,"籃球場,排球場(館)",FREE,
493,真理大學排球場(館),新北市淡水區真理街32號,65000,65000100,25.17847362,121.435377,02-26212121#1714,https://az804957.vo.msecnd.net/photogym/20140612133748_DSC03366.JPG,排球場(館),PAID,
494,新興國小田徑場,新北市淡水區新興街123號,65000,65000100,25.18004412,121.4394647,02-26203646#823,https://az804957.vo.msecnd.net/photogym/20140612111717_操場01.jpg,"田徑場,排球場(館)",FREE,
495,土城高中排球場(館),臺南市安南區安中路五段265號,67000,67000350,23.05640175,120.1506472,06-2577014#305,https://az804957.vo.msecnd.net/photogym/20140612153351_G:\DCIM\101MSDCF\DSC03208.JPG,排球場(館),CLOSE,
496,朴子國中活動中心,嘉義縣朴子市竹圍里大同路245號,10010,10010020,23.43797262,120.2322451,05-3792201#204,https://az804957.vo.msecnd.net/photogym/20140612153819_DSC_5622.JPG,排球館,CLOSE,
497,國姓國中排球場(館),南投縣國姓鄉石門村國姓路237號,10008,10008100,24.04240767,120.8587718,049-2721144#400,https://az804957.vo.msecnd.net/photogym/20140612164024_排球場2IMG_9612.jpg,國姓國中排球場,FREE,
498,玉山國中排球場,嘉義市西區友忠路1號,10020,10020020,23.46912171,120.425123,05-2357980#212,https://az804957.vo.msecnd.net/photogym/20140606104937_20140606_IMG_0001.JPG,排球場,FREE,
499,大潭國小風雨球場,屏東縣東港鎮大潭里大潭路93號,10013,10013030,22.45784139,120.4957101,08-8324226,https://az804957.vo.msecnd.net/photogym/20140610211034_未命名 - 1.jpg,"籃球場,排球場(館)",CLOSE,
500,大潭國小綜合球場,屏東縣東港鎮大潭里大潭路93號,10013,10013030,22.45728499,120.4955857,08-8324226,https://az804957.vo.msecnd.net/photogym/20140610203413_DSC_8581.jpg,"躲避球場,籃球場,排球場",FREE,
501,海山高中排球場(館),新北市板橋區漢生東路215號,65000,65000010,25.01100429,121.4717317,02-29517475#223,https://az804957.vo.msecnd.net/photogym/20140613100426_排球場3.JPG,"排球場(館),半場籃球場",CLOSE,
502,排球場,桃園市大園區沙崙里2鄰海港路2巷87號,68000,68000060,25.10975258,121.2388945,03-3835026#410,https://az804957.vo.msecnd.net/photogym/20140613095810_躲避球場2.JPG,躲避球場,PAID,
503,東港高級海事水產職業學校排球場(館),屏東縣東港鎮豐漁街66號,10013,10013030,22.4657661,120.4412645,08-8333131#233,https://az804957.vo.msecnd.net/photogym/20140613103545_W4ZDKCZ9CJ12PHF5Z5NI.JPG,排球場(館),CLOSE,
504,豐原高中排球場(館),臺中市豐原區水源路150號,66000,66000090,24.25812172,120.7420484,04-25290381#1241,https://az804957.vo.msecnd.net/photogym/20140613104733_5_20140612_085015.jpg,排球場(館),FREE,
505,竹山高中排球場(館),南投縣竹山鎮下橫街253號,10008,10008040,23.76003267,120.6799865,049-2643344#126,https://az804957.vo.msecnd.net/photogym/20140613112332_IMG_8994.jpg,排球場(館),FREE,
506,屏東商業技術學院排球場(館),屏東縣屏東市民生東路51號,10013,10013010,22.65827446,120.5114579,(08)7238700,https://az804957.vo.msecnd.net/photogym/20140613112740_IMG_0228.jpg,排球場(館),FREE,
507,新生國小排球場,雲林縣元長鄉瓦搖村新生路11號,10009,10009170,23.63845762,120.35891,05-7983093,https://az804957.vo.msecnd.net/photogym/20140613102219_C:\Users\USer\Desktop\排球場\2014-06-13 08.38.07.jpg,排球場(館),FREE,
508,高雄海洋科技大學排球場,高雄市楠梓區海專路142號,64000,64000040,22.72601861,120.3174806,07-3617141#2901,https://az804957.vo.msecnd.net/photogym/20140613153941_IMG_20140613_132203.jpg,排球場,FREE,
509,基隆商工田徑場,基隆市七堵區東新街22號,10017,10017020,25.09418049,121.7177688,02-24567126#231,https://az804957.vo.msecnd.net/photogym/20140613150111_P1020260.JPG,"田徑場,籃球場,排球場",CLOSE,
510,福山國中活動中心,高雄市左營區重信路215號,64000,64000030,22.68059888,120.3146482,07-3501581#29,https://az804957.vo.msecnd.net/photogym/20140612135509_DSC00585.JPG,"籃球場,羽球場(館),排球場(館)",CLOSE,
511,基隆商工體育館,基隆市七堵區東新街22號,10017,10017020,25.09423393,121.718493,02-24567126#231,https://az804957.vo.msecnd.net/photogym/20140605152322_P1020274.JPG,排球場(館),CLOSE,
512,高雄海洋科技大學體育館,高雄市楠梓區海專路142號,64000,64000040,22.72729213,120.316802,07-3617141#2901,https://az804957.vo.msecnd.net/photogym/20140612153807_IMG_20140613_133453.jpg,"健身房(含重量訓練室),游泳池(館),羽球場,撞球場,桌球場,籃球場,排球場",PAID,
513,屏東縣立排球場,屏東縣屏東市勝利路9號,10013,10013010,22.67683272,120.4929119,08-7362589#223,https://az804957.vo.msecnd.net/photogym/20140612164829_排球場.jpg,縣立排球場,FREE,
514,新竹高工排球場(館),新竹市東區中華路二段2號,10018,10018010,24.8101388,120.9836107,03-5318646,https://az804957.vo.msecnd.net/photogym/20140613170219_DSC_1797.JPG,排球場(館),FREE,
515,弘光科技大學體育館(排球場),臺中市沙鹿區臺灣大道六段1018號,66000,66000130,24.21753086,120.58097,04-26318652#7009,https://az804957.vo.msecnd.net/photogym/20140614132806_排球場.JPG,排球場(館),PAID,
516,草屯商工排球場(館),南投縣草屯鎮墩煌路3段188號,10008,10008030,23.99671126,120.6653631,049-2362082,https://az804957.vo.msecnd.net/photogym/20140615135151_IMG_20140613_114909.jpg,排球場(館),CLOSE,
517,石碇高中田徑場,新北市石碇區隆盛里八分寮45號,65000,65000190,25.01322592,121.6428566,02-26631224#203,https://az804957.vo.msecnd.net/photogym/20140616083819_P6160015.JPG,"田徑場,籃球場,排球場(館)",FREE,
518,石碇高中籃球場,新北市石碇區隆盛里八分寮45號,65000,65000190,25.01307035,121.6427708,02-26631224#203,https://az804957.vo.msecnd.net/photogym/20140616091452_P6160017.JPG,"籃球場,羽球場(館),排球場(館)",FREE,
519,真理大學體育館,臺南市麻豆區北勢里北勢寮70-11號,67000,67000070,23.2181576,120.2267146,06-5703100#7761,https://az804957.vo.msecnd.net/photogym/20140616091617_張利聰-體育館之夜.JPG,"有氧中心,體適能中心,排球場(館),籃球場,田徑場",PAID,
520,東吳大學體育館,臺北市士林區臨溪路70號,63000,63000110,25.09415671,121.5463655,(02)28819471#5606,https://az804957.vo.msecnd.net/photogym/20140616095059_雙溪體育館-2.jpg,"籃球場,羽球場(館),排球場(館)",PAID,
521,三峽國小活動中心,新北市三峽區中山路16號,65000,65000090,24.93493422,121.3687845,02-26711018#824,https://az804957.vo.msecnd.net/photogym/20140612141232_IMAG1636.jpg,"籃球場,排球場(館),羽球場(館)",CLOSE,
522,東吳大學排球場(館),臺北市士林區臨溪路70號,63000,63000110,25.0954368,121.5452778,(02)28819471#5606,https://az804957.vo.msecnd.net/photogym/20140616105753_雙溪排球場-2.jpg,排球場(館),PAID,
523,三芝國中活動中心,新北市三芝區淡金路一段38號,65000,65000210,25.25915431,121.5017509,933490310,https://az804957.vo.msecnd.net/photogym/20140616085423_IMGP0370.jpg,"籃球場,排球場(館)",FREE,
524,成州國民小學風雨操場,新北市五股區成泰路三段493號,65000,65000150,25.09955392,121.4502499,02-22933613,https://az804957.vo.msecnd.net/photogym/20140616110551_DSC08502.JPG,籃球場(館),FREE,
525,明志國中田徑場,新北市三重區中正北路107號,65000,65000020,25.06393814,121.4892304,02-29844132#318,https://az804957.vo.msecnd.net/photogym/20140616102648_操場全景.jpg,"田徑場,足球場,排球場(館)",FREE,
526,五峰國中田徑場,新北市新店區中興路一段253號,65000,65000060,24.96673954,121.5438227,02-29112005,https://az804957.vo.msecnd.net/photogym/20140616111903_2013-09-11 08.09.09.jpg,"田徑場,籃球場,排球場(館)",FREE,
527,北門高中排球場(館),臺南市佳里區六安里269號,67000,67000120,23.16754539,120.1776055,06-7222150,https://az804957.vo.msecnd.net/photogym/20140616124046_DSC03392.JPG,排球場(館),FREE,
528,臺東高商中興堂,臺東縣臺東市長安街 傳廣路交叉口,10014,10014010,22.75939333,121.1443627,089-350575#2302,https://az804957.vo.msecnd.net/photogym/20140616131258_中興堂1.jpg,"籃球場,羽球場,排球場",PAID,
529,三芝國中籃球場,新北市三芝區淡金路一段38號,65000,65000210,25.2591252,121.5017617,933490310,https://az804957.vo.msecnd.net/photogym/20140616101617_IMAG2193.jpg,"風雨操場,風雨操場",PAID,
530,臺東高商田徑場,臺東縣臺東市正氣路440號,10014,10014010,22.75906685,121.1449957,089-350575#2209,https://az804957.vo.msecnd.net/photogym/20140616134029_室外排球場1.jpg,"田徑場,籃球場,排球場",FREE,
531,中山高中膜構球場,高雄市楠梓區藍昌路416號,64000,64000040,22.72853708,120.2941346,07-3641116#131,https://az804957.vo.msecnd.net/photogym/20140616110415_膜構球場內觀.JPG,"籃球場,排球場(館),籃球場",FREE,
532,健行科技大學操場,桃園市中壢區健行路229號,68000,68000020,24.94756151,121.2298286,03-4581196#3531,https://az804957.vo.msecnd.net/photogym/20140616141342_8GJDEZ4K54C1VCSLHBPU.JPG,"排球場,籃球場,田徑場",FREE,
533,臺灣觀光學院排球場,花蓮縣壽豐鄉豐山村中興街268號,10015,10015060,23.85924999,121.4881253,(038)653906#835,https://az804957.vo.msecnd.net/photogym/20140616141912_DSC08284.JPG,排球場(館),PAID,
534,豐裡國小綜合運動場,花蓮縣壽豐鄉豐裡村中山路299號,10015,10015060,23.84272558,121.5082955,03-8652183,https://az804957.vo.msecnd.net/photogym/20140616142519_DSC00506.JPG,"籃球場,排球場(館),田徑場",FREE,
535,蘇澳海事籃球場,宜蘭縣蘇澳鎮蘇港路213號,10002,10002030,24.59432217,121.8434496,03-9951661#324,https://az804957.vo.msecnd.net/photogym/20140616150242_H1640010-1.jpg,排球場(館),FREE,
536,南華大學排球場(館),嘉義縣大林鎮南華路一段55號,10010,10010040,23.56882547,120.4938358,05-2721001#2992,https://az804957.vo.msecnd.net/photogym/20140616153251_10485306_814966178521484_516303687_o.jpg,排球場(館),FREE,
537,東吳大學體育館,臺北市中正區貴陽街一段56號,63000,63000050,25.03787504,121.5100175,(02)28819471#5606,https://az804957.vo.msecnd.net/photogym/20140616153647_城中體育館-1.jpg,"排球場(館),羽球場(館)",PAID,
538,協同高中排球場(館),嘉義縣民雄鄉建國路二段31號,10010,10010050,23.53214986,120.4338705,05-2213045#235,https://az804957.vo.msecnd.net/photogym/20140616135654_DSC00018.JPG,排球場(館),CLOSE,
539,江翠國中排球場(館),新北市板橋區松江街63號,65000,65000010,25.0286158,121.4676923,02-22518007#260,https://az804957.vo.msecnd.net/photogym/20140616154655_DSCF6530.JPG,排球場(館),FREE,
540,嘉南藥理大學戶外排球場,臺南市仁德區二仁路一段60號,67000,67000270,22.92458853,120.2293038,06-2664911#1219,https://az804957.vo.msecnd.net/photogym/20140616154405_排球場1.JPG,排球場(館),CLOSE,
541,華南高商室外排球場,嘉義市東區光彩街69號,10020,10020010,23.4779343,120.4592943,05-2787140#137,https://az804957.vo.msecnd.net/photogym/20140616155346_IMG_6751.jpg,排球場,FREE,
542,義峰高級中學活動中心,雲林縣林內鄉烏麻村長源201號,10009,10009100,23.75940423,120.5952501,05-5800099#533,https://az804957.vo.msecnd.net/photogym/20140603162633_IMG_3247.JPG,"羽球場(館),排球場(館),棒球場",CLOSE,
543,鶯歌工商排球場(館),新北市鶯歌區中正三路154號,65000,65000080,24.93993957,121.3353199,02-26775040#823,https://az804957.vo.msecnd.net/photogym/20140604144024_IMG_8220.JPG,排球場(館),CLOSE,
544,馬光國中排球場(館),雲林縣土庫鎮馬光里和平街101號,10009,10009050,23.69277159,120.3561044,05-6653587#23,https://az804957.vo.msecnd.net/photogym/20140616160311_DSC01048.JPG,排球場,FREE,
545,清水高中綜合體育館,新北市土城區明德路一段72號,65000,65000130,24.98184714,121.4645863,02-22707801,https://az804957.vo.msecnd.net/photogym/20140612140224_DSC05863.JPG,"籃球場,羽球場(館),排球場(館)",CLOSE,
546,清水高中田徑場,新北市土城區明德路一段72號,65000,65000130,24.98210262,121.4646506,02-22707801#330,https://az804957.vo.msecnd.net/photogym/20140613113609_足球場.jpg,"足球場,田徑場,籃球場,排球場(館)",FREE,
547,臺中一中田徑場,臺中市北區育才街2號,66000,66000050,24.15104647,120.6868637,04-22226081#305,https://az804957.vo.msecnd.net/photogym/20140616135308_DSC_0337.jpg,"田徑場,籃球場,排球場(館),網球場(館),足球場",FREE,
548,宜梧國中綜合球場,雲林縣口湖鄉梧南村光明路1號,10009,10009190,23.54627945,120.1953113,05-7907254#13,https://az804957.vo.msecnd.net/photogym/20140617005512_10471386_863791096983915_883301798_o.jpg,"籃球場,排球場(館)",PAID,
549,經國管理暨健康學院綜合運動場,基隆市中山區復興路336號,10017,10017050,25.1500483,121.7278183,02-24372093#331,https://az804957.vo.msecnd.net/photogym/20140604111602_C360_2014-06-04-11-07-12-821.jpg,"籃球場,排球場",FREE,
550,大成國小活動中心,桃園市八德區廣福路31號,68000,68000080,24.95765853,121.2979996,03-3661155#313,https://az804957.vo.msecnd.net/photogym/20140617093345_IMG_1379.JPG,排球場(館),CLOSE,
551,大灣國中籃球場,高雄市仁武區大灣里仁雄路99號,64000,64000170,22.67569871,120.3433371,07-3711715,https://az804957.vo.msecnd.net/photogym/20140613151631_DSC_2983.JPG,"排球場,網球場(館)",FREE,
552,東華大學排球場(館)(美崙校區),花蓮市華西路123號,,,24.0092664,121.6181374,(03)8632619,https://az804957.vo.msecnd.net/photogym/20140613155146_室外排球場image001.jpg,排球場(館),PAID,
553,苑裡國民小學學生活動中心,苗栗縣苑裡鎮中山路307號,10005,10005020,24.44804464,120.6546128,03-7861013#25,https://az804957.vo.msecnd.net/photogym/20140616142113_DSC03658.JPG,"桌球場(館),排球場(館),羽球場(館)",CLOSE,
554,明志國中排球場(館),新北市三重區中正北路107號,65000,65000020,25.06419082,121.4887154,02-29844132#318,https://az804957.vo.msecnd.net/photogym/20140617114612_室外排球場全景.jpg,排球場(館),FREE,
555,西螺農工活動中心,雲林縣西螺鎮大同路4號,10009,10009040,23.79483804,120.4683387,05-5862024#331,https://az804957.vo.msecnd.net/photogym/20140617113347_2014西螺農工綜合活動中心外觀.jpg,"排球場(館),田徑場",FREE,
556,褒忠國中活動中心,雲林縣褒忠鄉中勝路62號,10009,10009150,23.69940298,120.3113651,05-6972056,https://az804957.vo.msecnd.net/photogym/20140617123701_20140623_IMG_0951.JPG,"籃球場(館)風雨球場,排球場(館)風雨球場",CLOSE,
557,豐原高商活動中心,臺中市豐原區圓環南路50號,66000,66000090,24.24548252,120.7136375,04-25283556,https://az804957.vo.msecnd.net/photogym/20140603155109_IMG_2362.JPG,"排球場(館),羽球場(館)",PAID,
558,景文科技大學排球場(館),新北市新店區安忠路99號,65000,65000060,24.95131638,121.5097761,02-82122000#2213,https://az804957.vo.msecnd.net/photogym/20140617135418_排球場地照片 052.jpg,排球場(館),CLOSE,
559,莿桐國中排球場,雲林縣莿桐鄉農校路1號,10009,10009090,23.75080205,120.5077189,05-5842014#107,https://az804957.vo.msecnd.net/photogym/20140606105949_C:\Documents and Settings\ttjh\桌面\運動場照片\I排球1.jpg,排球場(館),FREE,
560,中山高中排球場(館),高雄市楠梓區藍昌路416號,64000,64000040,22.72865831,120.2922946,07-3641116#131,https://az804957.vo.msecnd.net/photogym/20140616104020_排球場1.jpg,排球場(館),FREE,
561,嘉興國中籃球場兼排球場,高雄市岡山區嘉興里信中街486號,64000,64000190,22.81580409,120.3124595,07-6221039#35,https://az804957.vo.msecnd.net/photogym/20140617142609_DSCF3164.JPG,"籃球場,排球場(館)",FREE,
562,新城國中排球場(館),花蓮縣新城鄉北埔村北埔路143號,10015,10015040,24.03044125,121.6049677,03-8263911#243,https://az804957.vo.msecnd.net/photogym/20140617134105_DSCN6313.jpg,排球場(館),CLOSE,
563,吳鳳科技大學旭光中心(體育館),62153嘉義縣民雄鄉建國路二段117號,,,23.53469313,120.4319572,05-2267125#21642,https://az804957.vo.msecnd.net/photogym/20140617090652_旭光中心(體育館 ).jpg,"籃球場,羽球場,排球場,柔道教室,桌球教室,韻律教室,攀岩場,健身中心,足球場",FREE,
564,西螺農工排球場(館),雲林縣西螺鎮大同路4號,10009,10009040,23.79419994,120.4691648,05-5862024#331,https://az804957.vo.msecnd.net/photogym/20140617151704_2014西螺農工排球場外觀.jpg,排球場(館),FREE,
565,東華大學排球場(館)(壽豐校區),花蓮縣壽豐鄉志學村大學路二段1-30號,10015,10015060,23.89972785,121.534667,03-8906619,https://az804957.vo.msecnd.net/photogym/20140613154504_IMG_2075.JPG,排球場(館),PAID,
566,中山國中排球場,高雄市小港區漢民路352號,64000,64000110,22.56651318,120.3564155,07-8021765#531,https://az804957.vo.msecnd.net/photogym/20140617161450_PNRR24HGS7YNEFC9ATEF.jpg,排球場,FREE,
567,嘉義國中活動中心,嘉義市東區王田里圓福街86號,10020,10020010,23.48811404,120.4645032,05-2762625#230,https://az804957.vo.msecnd.net/photogym/20140617171030_G:\體育館.jpg,"籃球場,羽球場(館),排球場(館)",CLOSE,
568,重慶國中田徑場,新北市板橋區國慶路221號,65000,65000010,24.99780007,121.4624137,02-29543001#504,https://az804957.vo.msecnd.net/photogym/20140617180002_9OFCVZ2VDIY7ZIBV2P0Z.JPG,"田徑場,排球場(館),躲避球場",FREE,
569,彰化師範大學體育館,彰化縣彰化市進德路1號,10007,10007010,24.08067804,120.5593783,04-7232105#1942,https://az804957.vo.msecnd.net/photogym/20140617161133_IMGP0373.JPG,"綜合球場-籃球場,羽球場,桌球教室,體操教室,韻律教室,技擊室,重量訓練室,綜合球場-排球場,綜合球場-手球場",CLOSE,
570,臺北科技大學東校區運動園區（排球場）,臺北市大安區忠孝東路三段1號,63000,63000030,25.04307304,121.5381847,02-27712171#3327,https://az804957.vo.msecnd.net/photogym/20140617213306_volleyball - 1.jpg,排球場(館),PAID,
571,莒光國小排球場(館),新北市板橋區華翠里莒光路163號,65000,65000010,25.025415,121.4739391,02-22517272#104,https://az804957.vo.msecnd.net/photogym/20140618075104_排球場 01.jpg,排球場(館),FREE,
572,大漢技術學院排球場,花蓮縣新城鄉大漢村樹人街1號,10015,10015040,24.03799848,121.6089106,(03)8210879,https://az804957.vo.msecnd.net/photogym/20140618092650_排球場1.JPG,排球場,FREE,
573,文山高中籃球場,高雄市鳥松區大埤路31號,64000,64000180,22.64815426,120.3538199,07-7777272#360,https://az804957.vo.msecnd.net/photogym/20140617174010_籃球場壓縮.jpg,排球場,FREE,
574,八斗高中活動中心,基隆市中正區新豐街100號,10017,10017010,25.14037019,121.787138,02-24692366#20,https://az804957.vo.msecnd.net/photogym/20140617141114_mobile0c083b16-aba5-417d-bc72-1e0188fe6fee.jpg,排球場(館),FREE,
575,竹光國中田徑場,新竹市北區和平路1號,10018,10018020,24.80879467,120.9550953,03-5246683#625,https://az804957.vo.msecnd.net/photogym/20140618095543_DSC_1756.JPG,"田徑場,籃球場,排球場",FREE,
576,彰化師範大學網球館,彰化縣彰化市進德路1號,10007,10007010,24.08043806,120.5604672,04-7232105#1942,https://az804957.vo.msecnd.net/photogym/20140618102158_網球館1.jpg,"網球館,網球館頂樓戶外球場-籃球場,網球館頂樓戶外球場-排球場",CLOSE,
577,燕巢國中排球場(館),高雄市燕巢區中興路267號,64000,64000210,22.78541066,120.3645238,07-6161267#25,https://az804957.vo.msecnd.net/photogym/20140618104651_P1150154.JPG,排球場(館),FREE,
578,丹鳳高中籃球場,新北市新莊區龍安路72號,65000,65000050,25.02105234,121.4166337,02-29089627,https://az804957.vo.msecnd.net/photogym/20140605173132_IMGP3800.JPG,排球場(館),CLOSE,
579,中國科技大學籃球場,新竹縣湖口鄉中山路三段530號,10004,10004050,24.91854988,121.0565257,03-6991111#1616,https://az804957.vo.msecnd.net/photogym/20140618110636_IMG_0260.JPG,"籃球場,排球場",CLOSE,
580,育仁國小綜合球場,雲林縣莿桐鄉甘厝村75號,10009,10009090,23.7582848,120.4867387,05-5842525,https://az804957.vo.msecnd.net/photogym/20140618111736_ball01.jpg,"籃球場,排球場(館)",FREE,
581,丹鳳高中半場籃球場,新北市新莊區龍安路72號,65000,65000050,25.02105234,121.4166605,02-29089627#115,https://az804957.vo.msecnd.net/photogym/20140609114724_IMGP3835.JPG,排球場(館),CLOSE,
582,中庄國中體育館,高雄市大寮區中庄里光明路三段1437號,64000,64000140,22.63760999,120.4006398,07-7033166#213,https://az804957.vo.msecnd.net/photogym/20140617172812_P_20131126_143649.jpg,排球場(館),PAID,
583,淡水國中田徑場,新北市淡水區文化里真理街10號,65000,65000100,25.17485437,121.4381182,02-26218821,https://az804957.vo.msecnd.net/photogym/20140618102338_田徑場外觀.JPG,"田徑場,籃球場,排球場(館)",FREE,
584,淡水國中中正堂-活動中心,新北市淡水區文化里真理街10號,65000,65000100,25.17486165,121.4375147,02-26218821,https://az804957.vo.msecnd.net/photogym/20140617105113_中正堂外觀.JPG,"籃球場,排球場(館),羽球場(館)",PAID,
585,竹南高級中學排球場,苗栗縣竹南鎮中正路98號,10005,10005040,24.68579236,120.8737868,03-7476855#210,https://az804957.vo.msecnd.net/photogym/20140618114924_DSCF8954.jpg,排球場,FREE,
586,中山醫學大學排球場(館),臺中市南區建國北路一段110號,66000,66000030,24.12001657,120.6504607,04-22651657,https://az804957.vo.msecnd.net/photogym/20140618120016_DSC_0054.JPG,排球場(館),FREE,
587,鹿港高中排球場(館),彰化縣鹿港鎮東石里中山路661號,10007,10007020,24.06028786,120.4238302,04-7772403#671,https://az804957.vo.msecnd.net/photogym/20140618133809_122-31風雨球場.JPG,排球場(館),CLOSE,
588,三重商工排球場(館),新北市三重區中正北路163號,65000,65000020,25.06933668,121.4794403,02-29715606#303,https://az804957.vo.msecnd.net/photogym/20140618135729_IMG_5787.JPG,排球場(館),FREE,
589,土庫國小排球場(館),屏東縣里港鄉中和村中和路33號,10013,10013090,22.80702699,120.4924196,08-7731553,https://az804957.vo.msecnd.net/photogym/20140616165755_20140616_155545.jpg,東側綜合籃球場,FREE,
590,矽谷國(中)小田徑場,新竹市東區藝術路2號,10018,10018010,24.76874752,120.9659582,(03)5296380#381,https://az804957.vo.msecnd.net/photogym/20140618133744_2014-06-19_155059.jpg,"田徑場,籃球場,排球場(館)",CLOSE,
591,復興高中田徑場,臺北市北投區復興四路70號,63000,63000120,25.14274001,121.5020084,02-28914131#330,https://az804957.vo.msecnd.net/photogym/20140618133957_DSC000651.jpg,"籃球場,排球場,田徑場",FREE,
592,開南商工田徑場,臺北市中正區東門里濟南路1段6號,63000,63000050,25.04172921,121.5216744,02-23212666#212,https://az804957.vo.msecnd.net/photogym/20140618142306_11.jpg,"田徑場,環形/直線慢跑道(非田徑場型),籃球場,排球場(館)",CLOSE,
593,德明財經科技大學排球場,臺北市內湖區環山路一段56號,63000,63000100,25.08746238,121.5669233,02-26585801#5196,https://az804957.vo.msecnd.net/photogym/20140618145913_mobile9e074ac5-48d4-4203-9450-5ccb0db647d5.jpg,排球場,FREE,
594,彰化師範大學寶山校區排球場,彰化縣彰化市師大路二號,10007,10007010,24.06925151,120.55749,04-7232105#1942,https://az804957.vo.msecnd.net/photogym/20140618151908_圖片12.jpg,寶山校區排球場,CLOSE,
595,青少年運動園區,高雄市苓雅區明德街2號,64000,6400800,22.62716271,120.3319108,07-7111164,https://az804957.vo.msecnd.net/photogym/20140611174133_青少年園區.jpg,"青少年運動園區籃球場,青少年運動園區極限運動場曲棍球場,青少年運動園區極限運動場排球場,青少年運動園區籃網球場,青少年運動園區極限運動場",CLOSE,
596,屏東科技大學排球場(館),屏東縣內埔鄉學府路1號,10013,10013130,22.64542265,120.6134462,(08)7703202#6481,https://az804957.vo.msecnd.net/photogym/20140618151233_11.jpg,排球場(館),CLOSE,
597,中山醫學大學多功能運動場,臺中市南區建國北路一段110號,66000,66000030,24.12303985,120.6505251,04-22651657,https://az804957.vo.msecnd.net/photogym/20140618153404_DSC06571.JPG,"籃球場,排球場",FREE,
598,屏東科技大學孟祥體育館,屏東縣內埔鄉學府路1號,10013,10013130,22.64403641,120.6140471,08-7703202#6481,https://az804957.vo.msecnd.net/photogym/20140610144306_G8-1.jpg,"健身房(含重量訓練室),舞蹈教室,桌球場(館),攀岩場,田徑場,拳擊場/館,羽球場(館),籃球場,排球場(館)",CLOSE,
599,志航國小綜合球場,嘉義市西區世賢路四段141號,10020,10020020,23.46243931,120.4452395,05-2857924,https://az804957.vo.msecnd.net/photogym/20140613141441_109_1212.JPG,"籃球場,排球場",FREE,
600,靜宜大學若望保祿二世體育館,臺中市沙鹿區臺灣大道7段200號,66000,66000130,24.22923276,120.581072,04-26328001#16321,https://az804957.vo.msecnd.net/photogym/20140617172140_靜宜體育館.JPG,"室內籃球場,室內排球場,攀岩場,舞蹈教室,多功能教室,飛輪教室,羽球場,桌球教室,健身中心",CLOSE,
601,東勢國中籃球場,雲林縣東勢鄉東榮路65號,10009,10009140,23.67255112,120.2575761,05-6991035#23,https://az804957.vo.msecnd.net/photogym/20140618182613_DSC00285.JPG,"籃球場,排球場(館)",FREE,
602,坪林國中體育館,新北市坪林區國中路4號,65000,65000200,24.93762541,121.7118202,02-26656210,https://az804957.vo.msecnd.net/photogym/20140618103626_體育館.JPG,"籃球場,羽球場(館),桌球場(館),排球場(館),舞蹈教室",FREE,
603,坪林國中田徑場,新北市坪林區國中路4號,65000,65000200,24.93746854,121.7123204,02-26656210,https://az804957.vo.msecnd.net/photogym/20140619080200_田徑場.JPG,"田徑場,籃球場,排球場(館)",FREE,
604,穀保家商排球場(館),新北市三重區中正北路560巷38號,65000,65000020,25.06958935,121.4712971,02-29712343#304,https://az804957.vo.msecnd.net/photogym/20140619091901_P1040820.JPG,排球場(館),CLOSE,
605,大觀國小田徑場,新北市板橋區大觀路一段30號,65000,65000010,25.0088604,121.4498663,02-29603373#831,https://az804957.vo.msecnd.net/photogym/20140617094659_DSC09948.JPG,"籃球場,排球場(館),田徑場",FREE,
606,三重國小田徑場,新北市三重區三和路三段1號,65000,65000020,25.07029513,121.4976257,02-29722095#182,https://az804957.vo.msecnd.net/photogym/20140617154401_20140617_150621.jpg,"田徑場,籃球場,排球場(館),躲避球場",FREE,
607,彰化縣立體育場排球場,彰化市健興路1號,,,24.06850702,120.5532628,04-7112175,https://az804957.vo.msecnd.net/photogym/20140619095924_P6189903(001).jpg,排球場,FREE,
608,新和國小田徑場,新北市新店區安和路三段100號,65000,65000060,24.98522169,121.5180051,02-29400170#823,https://az804957.vo.msecnd.net/photogym/20140619102620_田徑場.jpg,"田徑場,籃球場,排球場,躲避球場",FREE,
609,萬巒國中排球場(館),屏東縣萬巒鄉萬和村褒忠路5號,10013,10013120,22.5703027,120.5749887,08-7812537#14,https://az804957.vo.msecnd.net/photogym/20140619105323_C:\Documents and Settings\user\桌面\學校場地\排球1.JPG,排球場(館),FREE,
610,育成高中活動中心,臺北市南港區重陽路366號,63000,63000090,25.05826237,121.6096187,02-26530475#541,https://az804957.vo.msecnd.net/photogym/20140611143603_C:\Documents and Settings\user\桌面\6F籃球場.jpg,"籃球場,羽球場(館),排球場(館),游泳池(館)",PAID,
611,中山大學體育館,高雄市鼓山區蓮海路70號,64000,64000020,22.62463742,120.2663416,07-5252000#2801,https://az804957.vo.msecnd.net/photogym/20140618092210_20140619_170126.jpg,"籃球場,羽球場(館),排球場(館),韻律教室,桌球場(館),健身房(含重量訓練室)",PAID,
612,中山大學田徑場,高雄市鼓山區蓮海路70號,64000,64000020,22.62288454,120.2648449,07-5252000#2801,https://az804957.vo.msecnd.net/photogym/20140619101706_DSC09691.JPG,"籃球場,排球場,室內射箭場,田徑場,足球場,田徑場",PAID,
613,鶯歌國小活動中心,新北市鶯歌區同慶里尖山埔路106號,65000,65000080,24.95121667,121.3466227,02-26792038#223,https://az804957.vo.msecnd.net/photogym/20140619134030_活動中心.JPG,排球場(館),CLOSE,
614,萬丹國小排球場(館),屏東縣萬丹鄉寶厝村萬新路1497號,10013,10013050,22.58306742,120.4883641,08-7772014#13,https://az804957.vo.msecnd.net/photogym/20140619140252_1.jpg,排球場(館),CLOSE,
615,大崙國中排球場(館),桃園市中壢區月眉路一段50號,68000,68000020,24.99233517,121.1800522,03-4982840#310,https://az804957.vo.msecnd.net/photogym/20140613142856_STB_2964.JPG,排球場(館),CLOSE,
616,旗山國中活動中心,高雄市旗山區大德里中學路42號,64000,64000300,22.88111018,120.4816425,07-6612650#214,https://az804957.vo.msecnd.net/photogym/20140618144244_IMG_1789.jpg,"排球場(館),羽球場(館),籃球場",CLOSE,
617,新化高中籃球場,臺南市新化區忠孝街2號,67000,67000180,23.04045047,120.3104932,06-5982065#4002,https://az804957.vo.msecnd.net/photogym/20140619130211_籃球場1.JPG,"籃球場,排球場(館)",FREE,
618,宜蘭高商籃球場,宜蘭縣宜蘭市延平路50號,10002,,24.75487922,121.7661256,03-9384147#330,https://az804957.vo.msecnd.net/photogym/20140606155619_室外籃球場1.jpg,排球場(館),FREE,
619,松山工農田徑場,臺北市信義區忠孝東路5段236巷15號,63000,63000020,25.03962961,121.5730011,02-27226616#351,https://az804957.vo.msecnd.net/photogym/20140619150012_BYA1HL24VSOIXSPKEFE9.JPG,"田徑場,籃球場,排球場",FREE,
620,亞太創意技術學院運動中心,苗栗縣頭份鎮學府路110號,10005,,24.68203432,120.9696811,037-605560,https://az804957.vo.msecnd.net/photogym/20140619150924_室外排球場5.jpg,"籃球場,網球場(館),排球場(館)",FREE,
621,復興商工籃球場,新北市永和區秀朗路一段201號,65000,65000040,25.00360991,121.5184987,02-29262121#218,https://az804957.vo.msecnd.net/photogym/20140619143347_IMAG3827.jpg,排球場,CLOSE,
622,牡丹國中籃球場,屏東縣牡丹鄉石門村石門路1-1號,10013,10013330,22.12904071,120.775306,08-8831014,https://az804957.vo.msecnd.net/photogym/20140617171408_2014-06-19 12.49.51.jpg,排球場(館),FREE,
623,東興國小綜合球場,雲林縣崙背鄉羅厝村東興路1號,10009,10009120,23.75640924,120.3735495,05-6962164#11,https://az804957.vo.msecnd.net/photogym/20140616083547_籃球場.JPG,"籃球場,躲避球場,排球場(館)",FREE,
624,中科實驗高級中學活動中心,42878台中市大雅區平和路227號,,,24.22992251,120.624733,04-25686850#1320,https://az804957.vo.msecnd.net/photogym/20140619152602_2014-06-19 15.10.27_resize.jpg,"籃球場,游泳池(館),羽球場(館),排球場(館),舞蹈教室",CLOSE,
625,義守大學體育館,高雄市大樹區三和里學城路一段1號,64000,64000150,22.7269785,120.4073131,07-6577711,https://az804957.vo.msecnd.net/photogym/20140603165939_mobile918d7518-3a09-471b-be46-42247f6154e0.jpg,"籃球場,排球場(館),羽球場(館)",CLOSE,
626,錦和高中田徑場,新北市中和區錦和路163號,65000,65000030,24.99326384,121.4913332,02-22498566,https://az804957.vo.msecnd.net/photogym/20140619155807_DSC09197.JPG,"田徑場,排球場(館),籃球場",FREE,
627,春日國小田徑場,94249屏東縣春日鄉春日村春日路314號,,,22.36944389,120.6273508,08-8782433#14,https://az804957.vo.msecnd.net/photogym/20140619152954_111.jpg,"田徑場,排球場(館),足球場",FREE,
628,頭前國中風雨操場,新北市新莊區中原路2號,65000,65000050,25.05602697,121.4592218,02-85222862,https://az804957.vo.msecnd.net/photogym/20140617124711_2014-06-17 11.42.42.jpg,"田徑場,羽球場(館)",FREE,
629,中科實驗高級中學籃排球場,42878台中市大雅區平和路227號,,,24.22916916,120.6248403,04-25686850#1320,https://az804957.vo.msecnd.net/photogym/20140619161929_2014-06-19 15.14.29_resize.jpg,"籃球場,排球場(館)",CLOSE,
630,新化高中排球場(館),臺南市新化區忠孝街2號,67000,67000180,23.04026777,120.3086641,06-5982065#4002,https://az804957.vo.msecnd.net/photogym/20140619164924_排球場1.JPG,排球場(館),FREE,
631,前鎮高中排球場(館),高雄市前鎮區鎮中路132號,64000,,22.58917445,120.3186446,07-8226841#206,https://az804957.vo.msecnd.net/photogym/20140619171233_DSC05608.JPG,排球場(館),FREE,
632,大誠高中籃球場,臺北市文山區萬興里秀明路2段175號,63000,63000080,24.99067232,121.5783978,02-22348989#34,https://az804957.vo.msecnd.net/photogym/20140619154428_C:\Documents and Settings\PEHT\桌面\體育組\102學年度\公文附件\建構全國運動場館資訊網計畫相關資料\DSC09658.JPG,排球場(館),FREE,
633,吳鳳科技大學排球場(館),62153嘉義縣民雄鄉建國路二段117號,,,23.5357979,120.435521,05-2267125#21642,https://az804957.vo.msecnd.net/photogym/20140618163222_排球場地.JPG,排球場,FREE,
634,宜梧國中體育館,雲林縣口湖鄉梧南村光明路1號,10009,10009190,23.54613684,120.195601,05-7907254#13,https://az804957.vo.msecnd.net/photogym/20140616173844_10471386_863791096983915_883301798_o.jpg,"羽球場(館),籃球場,排球場(館)",PAID,
635,大忠國小活動中心,桃園市八德區忠誠街18號,68000,68000080,24.95992976,121.3012129,03-3635206#511,https://az804957.vo.msecnd.net/photogym/20140610153333_D:\103年度\活動中心.jpg,"排球場(館),羽球場(館)",PAID,
636,金門高中室外排球場,金門縣金城鎮光前路94號,9020,9020010,24.4345362,118.3155844,082-325450#213,https://az804957.vo.msecnd.net/photogym/20140620085506_排球場.JPG,排球場(館),FREE,
637,僑德國小排球場(館),屏東縣枋寮鄉隆山村僑德路186號,10013,10013160,22.3634,120.6006789,08-8782096,https://az804957.vo.msecnd.net/photogym/20140620092520_IMG_9320.JPG,排球場(館),FREE,
638,新光高中籃球場,高雄市大寮區後庄村鳳屏一路217號,64000,64000140,22.63555526,120.3901201,(07)7019888,https://az804957.vo.msecnd.net/photogym/20140620092833_DSCN5539.JPG,"排球場(館),籃球場",CLOSE,
639,美濃國中體育館,高雄市美濃區合和里中正路一段191號,64000,64000310,22.89457978,120.5434245,07-6816166,https://az804957.vo.msecnd.net/photogym/20140620095043_IMAG1602.jpg,"籃球場,排球場",PAID,
640,水利國小籃球場,屏東縣林邊鄉水利村豐漁路117號,10013,10013190,22.41937966,120.5042052,08-8752745,https://az804957.vo.msecnd.net/photogym/20140620101638_籃1.JPG,排球場(館),FREE,
641,臺中家商排球場,臺中市東區和平街50號,66000,66000020,24.1331153,120.6850934,04-22223307,https://az804957.vo.msecnd.net/photogym/20140620093652_照片 252.jpg,排球場(館),CLOSE,
642,屏東縣九如鄉排球場(館),屏東縣九如鄉九如路二段416號,10013,10013080,22.73133259,120.4823935,08-7394216,https://az804957.vo.msecnd.net/photogym/20140620111331_C:\Documents and Settings\Administrator\桌面\IMG_0188.JPG,排球場(館),FREE,
643,樹林高中田徑場,新北市樹林區中華路8號,65000,65000070,24.98347122,121.421231,02-86852011#3101,https://az804957.vo.msecnd.net/photogym/20140620111628_田徑場.JPG,"田徑場,手球場(館),足球場,排球場(館)",FREE,
644,大同大學排球場,臺北市中山區中山北路三段40號,63000,63000040,25.06771131,121.5204298,02-21822928#7519,https://az804957.vo.msecnd.net/photogym/20140620141503_DSC_7397.JPG,排球場,CLOSE,
645,內埔國小體育館,屏東縣內埔鄉內埔村廣濟路2號,10013,10013130,22.61040083,120.5664861,08-7792055#13,https://az804957.vo.msecnd.net/photogym/20140620101257_DSC01758.JPG,排球場(館),PAID,
646,二林工商籃球場,彰化縣二林鎮豐田里斗苑路四段500號,10007,10007200,23.90004252,120.3777337,04-8962132#323,https://az804957.vo.msecnd.net/photogym/20140620144002_DSC03195-1.jpg,"籃球場,排球場(館)",PAID,
647,淡江高中籃排球場,新北市淡水區真理街26號,65000,65000100,25.17561658,121.4363775,(02)2620-3850,https://az804957.vo.msecnd.net/photogym/20140620144507_20140122-IMG_6223.JPG,籃排球場,FREE,
648,宜蘭大學體育館,宜蘭縣宜蘭市神農路一段1號,10002,,24.74539899,121.7463523,03-9357400#7194,https://az804957.vo.msecnd.net/photogym/20140620155431_照片 015.jpg,"羽球場(館),排球場(館),桌球場(館),攀岩場,籃球場,撞球場",PAID,
649,林園國小活動中心,高雄市林園區林園里忠孝西路20號,64000,,22.50808691,120.3939664,07-6412125,https://az804957.vo.msecnd.net/photogym/20140620163944_CIMG7710.JPG,排球場(館),CLOSE,
650,宜蘭大學田徑場,宜蘭縣宜蘭市神農路一段1號,10002,,24.74527232,121.7478812,03-9357400#7194,https://az804957.vo.msecnd.net/photogym/20140620114557_照片 1111.jpg,"田徑場,籃球場,排球場,足球場",FREE,
651,新埔國中排球場(館),新北市板橋區新海路181號,65000,65000010,25.02497023,121.4589429,02-22572275#318,https://az804957.vo.msecnd.net/photogym/20140620172016_20140620_102559.jpg,排球場(館),FREE,
652,台灣首府大學排球場(館),臺南市麻豆區南勢168號,67000,67000070,23.19252292,120.2679563,(06)5718888,https://az804957.vo.msecnd.net/photogym/20140620172546_H:\致遠體育室\運動場地照片\排球場\IMG_0034.JPG,排球場(館),CLOSE,
653,義守大學籃球場,高雄市大樹區三和里學城路一段1號,64000,64000150,22.72787902,120.4068169,07-6577711,https://az804957.vo.msecnd.net/photogym/20140620151328_籃球全景2.jpg,"籃球場,排球場(館)",CLOSE,
654,岡山高中室外排球場,高雄市岡山區公園路52號,64000,64000190,22.79651187,120.2898645,07-6212033#320,https://az804957.vo.msecnd.net/photogym/20140620175142_IMG_5814.JPG,室外排球場,FREE,
655,大同高中綜合球場(籃球兼排球場),屏東縣屏東市和平路429號,10013,10013010,22.67789639,120.4751998,08-7663916,https://az804957.vo.msecnd.net/photogym/20140621135539_CIMG1987.JPG,"籃球場,排球場(館)",CLOSE,
656,淡江大學紹謨紀念體育館,新北市淡水區英專路151號,65000,65000100,25.17580685,121.4488336,02-26230985,https://az804957.vo.msecnd.net/photogym/20140529154254_紹謨紀念體育館.jpg,"籃球場,羽球場(館),桌球場(館),排球場(館),舞蹈教室,跆拳道場/館",CLOSE,
657,交通大學體育館,新竹市東區大學路1001號,10018,10018010,24.78891492,120.9958454,03-5712121#51003,https://az804957.vo.msecnd.net/photogym/20140622164056_體育館2.JPG,"籃球場,排球場(館),韻律教室,體適能教室,健身房(含重量訓練室)",PAID,
658,中庄國小排球場(館),高雄市大寮區中庄里中庄路59號,64000,64000140,22.63591669,120.397346,07-7032838#741,https://az804957.vo.msecnd.net/photogym/20140619105901_IMGP3382.JPG,排球場(館),CLOSE,
659,林內國小籃球場,雲林縣林內鄉中正路111號,10009,10009100,23.75978228,120.618234,05-5892019,https://az804957.vo.msecnd.net/photogym/20140623115647_DSC05925.JPG,排球場(館),FREE,
660,靜宜大學室外排球場,臺中市沙鹿區臺灣大道7段200號,66000,66000130,24.22644191,120.5778882,04-26328001#16320,https://az804957.vo.msecnd.net/photogym/20140623133550_室外排球場.JPG,排球場,FREE,
661,麥寮高中活動中心,雲林縣麥寮鄉中興路310號,10009,10009130,23.75776436,120.2519166,05-6932050#043,https://az804957.vo.msecnd.net/photogym/20140623151141_IMG_2086.JPG,排球場(館),CLOSE,
662,北港高中排球場(館),雲林縣北港鎮成功路26號,10009,10009060,23.57864911,120.3045309,05-7821411#307,https://az804957.vo.msecnd.net/photogym/20140623134008_籃球賽 012.jpg,排球場(館),FREE,
663,大元國小新元館,臺中市大里區內元路220號,66000,66000280,24.09911603,120.6904578,04-24834568,https://az804957.vo.msecnd.net/photogym/20140722145302_outlook.jpg,"排球場(館),羽球場(館)",PAID,
664,大元國小操場,臺中市大里區現岱路60號,66000,66000280,24.09996808,120.6908977,04-24834568,https://az804957.vo.msecnd.net/photogym/20140722161044_S4502.jpg,"田徑場,躲避球場,排球場,籃球場",FREE,
665,亞洲餐旅籃球場,臺南市南區大成路一段5號,67000,67000330,22.97463834,120.2023709,06-2640175#304,https://az804957.vo.msecnd.net/photogym/20140722170229_DSC_3127.JPG,排球場(館),CLOSE,
666,育達高職體育館,臺北市松山區美仁里寧安街12號,63000,63000010,25.04993775,121.5543598,02-25706767#306,https://az804957.vo.msecnd.net/photogym/20140724112836_IMAG0358.jpg,排球場(館),CLOSE,
667,誠正國中活動中心,臺北市南港區新富里富康街1巷24號,63000,63000090,25.0541531,121.6195895,02-27828094#1314,https://az804957.vo.msecnd.net/photogym/20140721115932_P1020405.JPG,"排球場(館),籃球場",PAID,
668,大勇國小排球場,臺中市西區忠明南路515號,66000,66000040,24.13421353,120.6590098,04-23755959,https://az804957.vo.msecnd.net/photogym/20140724124048_IMAG5633.jpg,"排球場(館),網球場(館)",FREE,
669,沙鹿國中風雨操場,臺中市沙鹿區中正街1號,66000,66000130,24.2344963,120.5622107,04-26622163,https://az804957.vo.msecnd.net/photogym/20140722102049_IMG_0456.JPG,排球場(館),CLOSE,
670,永靖國中田徑場,彰化縣永靖鄉瑚璉村錫壽路123號,10007,10007160,23.93021522,120.5508059,04-8221929,https://az804957.vo.msecnd.net/photogym/20140724160428_操場正面.jpg,"排球場(館),田徑場,足球場",FREE,
671,鹽埔國中綜合球場,屏東縣鹽埔鄉鹽南村勝利路30號,10013,10013100,22.75487353,120.5743697,08-7932001#13,https://az804957.vo.msecnd.net/photogym/20140725094614_綜合球場 (2).jpg,排球場(館),FREE,
672,公明國中籃球場,臺中市沙鹿區公明里中清路六段567號,66000,66000130,24.24852239,120.5998394,04-26154262#222,https://az804957.vo.msecnd.net/photogym/20140718145355_DSCF8893.JPG,排球場(館),FREE,
673,公明國中排球場,臺中市沙鹿區公明里中清路六段567號,66000,66000130,24.24938723,120.5990252,04-26154262#222,https://az804957.vo.msecnd.net/photogym/20140718114113_QEVAFIM6BC6TQYB0HDJ8.JPG,排球場(館),FREE,
674,潮州國中田徑場,屏東縣潮州鎮文化路66號,10013,10013020,22.55445537,120.5439663,08-7882401#10,https://az804957.vo.msecnd.net/photogym/20140724120822_P1130594.JPG,"田徑場,籃球場,排球場(館)",FREE,
675,金湖國中籃球場,金門縣金湖鎮太湖路三段1號,9020,9020030,24.43647389,118.4215236,082-332612#123,https://az804957.vo.msecnd.net/photogym/20140721112139_10566239_886197864727032_645101936_n.jpg,"籃球場,排球場(館)",FREE,
676,漚汪國小禮堂,臺南市將軍區長榮里4號,67000,67000160,23.19849549,120.1597613,06-7942012,https://az804957.vo.msecnd.net/photogym/20140709171524_IMG_3502.JPG,排球場(館),FREE,
677,清泉國中排球場,臺中市清水區菁埔里臨海路27之2號,66000,66000120,24.30578217,120.5925679,04-26113134#725,https://az804957.vo.msecnd.net/photogym/20140724175358_排球場2面.jpg,排球場,FREE,
678,景美國小籃球場,臺北市文山區景行里景文街108號,63000,63000080,24.98931791,121.5404562,02-29322151#123,https://az804957.vo.msecnd.net/photogym/20140728152613_DSC05793_1.jpg,"籃球場,排球場(館),躲避球場",CLOSE,
679,信義國中田徑場,臺北市信義區松仁路158巷1號,63000,63000020,25.02961223,121.5678889,02-27236771,https://az804957.vo.msecnd.net/photogym/20140728155005_SANY0272.JPG,"田徑場,籃球場,排球場(館)",FREE,
680,民權國中排球場(館),臺北市大同區重慶北路三段1號,63000,63000060,25.0637632,121.5142071,02-25931951#123,https://az804957.vo.msecnd.net/photogym/20140722150932_IMG_7084.JPG,"排球場(館),環形/直線慢跑道(非田徑場型)",FREE,
681,大成國中排球場,臺南市南區西門路一段306號,67000,67000330,22.9782278,120.2001554,06-2630011#310,https://az804957.vo.msecnd.net/photogym/20140730182907_DSC01761.JPG,排球場(館),FREE,
682,仁德文賢國中室外排球場,臺南市仁德區保安里中正路一段185號,67000,67000270,22.91920541,120.2287209,06-2662392#12,https://az804957.vo.msecnd.net/photogym/20140731092357_CIMG7287.JPG,排球場(館),FREE,
683,大雅國小榮寬體育館,臺中市大雅區三和里學府路230號,66000,66000180,24.22188251,120.6519279,04-25667766,https://az804957.vo.msecnd.net/photogym/20140723144404_IMG_1610.JPG,排球場(館),CLOSE,
684,雙十國中中正堂,臺中市北區力行路258號,66000,66000050,24.15251982,120.6919599,04-22334445#730,https://az804957.vo.msecnd.net/photogym/20140731100420_144552.jpg,"排球場(館),羽球場(館)",CLOSE,
685,大安國小活動中心,臺北市大安區芳和里臥龍街129號,63000,63000030,25.01929509,121.5501541,02-27322332#824,https://az804957.vo.msecnd.net/photogym/20140724131633___ 1 (1).JPG,"羽球場(館),排球場(館)",CLOSE,
686,柑園國中排球場,新北市樹林區柑園街二段125號,65000,65000070,24.95410908,121.3847999,02-26801958#109,https://az804957.vo.msecnd.net/photogym/20140731160506_DSC_0031.JPG,柑園國中排球場(館),FREE,
687,大安高工田徑場,臺北市大安區龍圖里復興南路2段52號,63000,63000030,25.03207447,121.54117,02-27091630#123,https://az804957.vo.msecnd.net/photogym/20140731113532_操場.jpg,"籃球場,田徑場,網球場(館),排球場(館)",CLOSE,
688,崇倫國中田徑場,臺中市南區忠明南路653號,66000,66000030,24.13095144,120.6583142,04-23712324#731,https://az804957.vo.msecnd.net/photogym/20140804181351_DSC_0498.JPG,"田徑場,排球場(館),手球場(五人制足球場)",FREE,
689,桃園高中排球場(館),桃園市桃園區成功路三段38號,68000,68000010,24.99918687,121.3275099,03-3946001#6024,https://az804957.vo.msecnd.net/photogym/20140603102756_IMG_1888.jpg,排球場,FREE,
690,大文國小風雨球場,臺南市七股區大寮里36之2號,67000,67000150,23.15022527,120.1538873,06-7872730,https://az804957.vo.msecnd.net/photogym/20140804095535_DSCF0973.jpg,"羽球場(館),排球場(館)",CLOSE,
691,佳冬國中活動中心,屏東縣佳冬鄉玉光村大同路1號,10013,10013210,22.42880632,120.5671781,08-8662041,https://az804957.vo.msecnd.net/photogym/20140721104300_未命名 - 1.jpg,排球場(館),CLOSE,
692,中埔國中活動中心,嘉義縣中埔鄉中埔村177號,10010,10010130,23.42459713,120.5205935,05-2531002,https://az804957.vo.msecnd.net/photogym/20140612141508_mobileac643ce9-fea9-47ad-b88f-cd01a074a428.jpg,"籃球場,排球場(館),羽球場(館)",CLOSE,
693,崇光國小籃球場,臺中市大里區大明路181號,66000,66000280,24.11410444,120.6844336,04-24818836#5035,https://az804957.vo.msecnd.net/photogym/20140806143547_綜合球場.JPG,排球場(館),FREE,
694,鹿草國中田徑場,嘉義縣鹿草鄉鹿草路132號,10010,10010110,23.41055059,120.3129825,05-3752037,https://az804957.vo.msecnd.net/photogym/20140624103933_IMGP7526.JPG,"田徑場,籃球場,排球場(館),足球場",FREE,
695,西屯國小籃球場,臺中市西屯區西屯路二段300號,66000,66000060,24.17986422,120.6412876,04-27013534#720,https://az804957.vo.msecnd.net/photogym/20140815202143_IMG_1914.JPG,"籃球場,躲避球場,排球場(館)",FREE,
696,九如國中籃球場,屏東縣九如鄉玉水路26號,10013,10013080,22.71808683,120.484845,08-7392404#14,https://az804957.vo.msecnd.net/photogym/20140825095451_籃球場.jpg,"籃球場,排球場(館)",FREE,
697,三光國中活動中心,臺中市北屯區三光一街77號,66000,66000080,24.16730933,120.6978258,04-22313699#730,https://az804957.vo.msecnd.net/photogym/20140828095215_P1090789.JPG,"羽球場(館),籃球場,排球場(館)",CLOSE,
698,三光國中綜合球場,臺中市北屯區三光一街77號,66000,66000080,24.16806235,120.6978071,04-22313699#731,https://az804957.vo.msecnd.net/photogym/20140828101725_P1090793.JPG,"籃球場,排球場(館)",FREE,
699,城光國中籃球場,臺南市仁德區文華路593號,67000,67000270,22.9766287,120.2442241,(06)2703301*14,https://az804957.vo.msecnd.net/photogym/20140721115920_DSC08507.JPG,排球場(館),CLOSE,
700,鹿鳴國中籃球場,彰化縣鹿港鎮頭南里頂草路三段167號,10007,10007020,24.0982248,120.4685962,04-7713846#251,https://az804957.vo.msecnd.net/photogym/20140707100047_ASACREJUHD7R3TPALPTC.jpg,"籃球場,排球場(館)",CLOSE,
701,和東國小活動中心,彰化縣和美鎮和東里彰美路五段210號,10007,10007030,24.10938139,120.5022311,04-7552724,https://az804957.vo.msecnd.net/photogym/20140905155021_55.JPG,排球場(館),CLOSE,
702,聖約翰科技大學自強排球場,新北市淡水區淡金路四段499號,65000,65000100,25.2263003,121.4506227,02-28013131#6217,https://az804957.vo.msecnd.net/photogym/20140821075618_自強排球場-1.JPG,排球場(館),FREE,
703,聖約翰科技大學自強排球場,新北市淡水區淡金路四段499號,65000,65000100,25.2263003,121.4506227,02-28013131#6217,https://az804957.vo.msecnd.net/photogym/20140821075621_自強排球場-1.JPG,排球場(館),FREE,
704,東海大學排球場,臺中市西屯區臺灣大道四段1727號,66000,66000060,24.18114045,120.6043482,(04)23590121,https://az804957.vo.msecnd.net/photogym/20140724150055__MG_5455-3.jpg,排球場(館),FREE,
705,烏日國中田徑場,臺中市烏日區新興路457號,66000,66000230,24.1034154,120.6179094,04-23381009,https://az804957.vo.msecnd.net/photogym/20140909094938_IMG_2561.JPG,"田徑場,排球場(館)",FREE,
706,豐南國中體育館,臺中市豐原區豐南街151號,66000,66000090,24.23905526,120.7171994,04-25280185,https://az804957.vo.msecnd.net/photogym/20140905182043_場館外 (3).JPG,"排球場(館),游泳池(館)",CLOSE,
707,國防醫學院田徑場,臺北市內湖區民權東路六段161號,63000,63000100,25.07173247,121.5987504,(02)87923144,https://az804957.vo.msecnd.net/photogym/20140708152207_DSCN4424_compressed.jpg,"田徑場,足球場,籃球場,網球場(館),排球場(館)",CLOSE,
708,潮州鎮運動公園體育館,92045屏東縣潮州鎮三城路301號,,,22.54451209,120.5491698,08-7895333,https://az804957.vo.msecnd.net/photogym/20140915153036_9QAXIKIW4DLACWRP0B2V.JPG,排球場(館),FREE,
709,南強工商籃球場,新北市新店區文化路42號,65000,65000060,24.98074334,121.5452027,02-29155144,https://az804957.vo.msecnd.net/photogym/20140717110558_20130107801.JPG,"籃球場,排球場(館),健身房(含重量訓練室)",CLOSE,
710,草港國小田徑場,彰化縣鹿港鎮草中里頂草路四段251號,10007,10007020,24.10637052,120.4612309,04-7712834#714,https://az804957.vo.msecnd.net/photogym/20140710163946_運動場全部 .jpg,"田徑場,躲避球場,排球場(館)",FREE,
711,排球場,臺北市北投區學園路2號,63000,63000120,25.13517567,121.4693123,02-28927154#2501,https://az804957.vo.msecnd.net/photogym/20141022120149_排球場.jpg,排球場(館),FREE,
712,南興排球館,嘉義縣義竹鄉新店村77號,10010,10010100,23.34071911,120.1926184,05-3427394,https://az804957.vo.msecnd.net/photogym/20141209162406_育英館 001.jpg,羽球場(館),FREE,
713,義竹國小綜合球場,嘉義縣義竹鄉六桂村208號,10010,10010100,23.33646348,120.2461767,05-3412203,https://az804957.vo.msecnd.net/photogym/20160509114824_1.jpg,排球場(館),FREE,
714,大林國小風雨球場,嘉義縣大林鎮西林里中正路423號,10010,10010040,23.60216041,120.4520752,05-2652061,https://az804957.vo.msecnd.net/photogym/20140611095504_P1030138.JPG,排球場(館),PAID,
715,羅娜國小操場,南投縣信義鄉羅娜村信筆巷一鄰73號,10008,10008120,23.62787423,120.8706594,049-2831327,https://az804957.vo.msecnd.net/photogym/20140623122604_DSC01612.JPG,"環形/直線慢跑道(非田徑場型),排球場(館),籃球場",FREE,
716,六甲國中活動中心,臺南市六甲區民權街43號,67000,67000090,23.22469456,120.3505683,06-6982040,https://az804957.vo.msecnd.net/photogym/20140710110750_IMGP0412_大小.JPG,排球場(館),CLOSE,
717,豐田國小活動中心,臺中市豐原區田心路二段290號,66000,66000090,24.236947,120.7221293,04-25262891#730,https://az804957.vo.msecnd.net/photogym/20140717152940_弘文樓全景.jpg,排(羽)球場,CLOSE,
718,中山女中籃球場,臺北市中山區力行里長安東路2段141號,63000,63000040,25.0486025,121.5384248,02-25073148#401,https://az804957.vo.msecnd.net/photogym/20140604113216_DSC09774.JPG,"排球場(館),羽球場(館),籃球場",CLOSE,
719,下營國中排球場(新),臺南市下營區中山路一段412號,67000,67000080,23.23788829,120.2722183,06-6891105#131,https://az804957.vo.msecnd.net/photogym/20151002153949_全景1.jpg,排球場(館),FREE,
720,下營國中排球場(舊),臺南市下營區中山路一段412號,67000,67000080,23.23810272,120.2719152,06-6891105#131,https://az804957.vo.msecnd.net/photogym/20160606163514_141782.jpg,排球場(館),FREE,
721,北門國中排球場,臺南市北門區永華里1之1號,67000,67000170,23.25262341,120.1279879,06-7862014#14,https://az804957.vo.msecnd.net/photogym/20150812165947_排球場1.jpg,"排球場(館),排球場(館)",FREE,
722,花蓮縣萬榮鄉立綜合運動公園,花蓮縣萬榮鄉萬榮村1鄰19號,10015,10015120,23.81188406,121.4417231,03-8751321#77,https://az804957.vo.msecnd.net/photogym/20160623174238_D:\backup\Desktop\A-Di 業務資料\西林綜合運動公園\綜合運動公園勘地照片\105.01.30清潔進度巡視\105.1.30西林綜合運動公園清潔巡視_5054.jpg,"籃球場,排球場(館)",CLOSE,
723,臺南高商田徑場,臺南市南區健康路一段327號,67000,67000330,22.98067848,120.2013892,06-2617123,https://az804957.vo.msecnd.net/photogym/20140529162155_IMAG4288.jpg,"足球場,田徑場,籃球場,排球場(館)",FREE,
724,國立嘉義家職排球場,嘉義市東區體育路7號,10020,10020010,23.4714777,120.4587976,05-2259640#1340,https://az804957.vo.msecnd.net/photogym/20160701161339_13582330_1156264597727942_1042427073_o.jpg,"排球場(館),環形/直線慢跑道(非田徑場型)",FREE,
725,籃、排球場,屏東縣內埔鄉美和村屏光路23號,10013,10013130,22.60399434,120.5611185,08-7799821#8214,https://az804957.vo.msecnd.net/photogym/20160705101745_P1060632.JPG,半場籃球場,FREE,
726,排球場,嘉義市西區北湖里雙園街280號,10020,10020020,23.49494569,120.4273653,05-2374673#120,https://az804957.vo.msecnd.net/photogym/20160707155318_IMG_7524.JPG,北園國中排球場(館),CLOSE,
727,外埔國中籃球場,臺中市外埔區外埔路999號,66000,66000210,24.33224805,120.6507987,04-26833721#212,https://az804957.vo.msecnd.net/photogym/20140722132514_DSCN8418.JPG,"籃球場,排球場(館)",FREE,
728,高雄大學洪四川運動廣場(半室內球場),高雄市楠梓區高雄大學路700號,64000,64000040,22.73140186,120.2797472,07-5919576,https://az804957.vo.msecnd.net/photogym/20140710203557_洪四川運動廣場.jpg,"籃球場,排球場(館)",PAID,
729,嘉南藥理大學體育館,臺南市仁德區二仁路一段60號,67000,67000270,22.92258258,120.2253878,06-2664911#1220,https://az804957.vo.msecnd.net/photogym/20140616134313_d_20080722144010.jpg,排(羽)球場,CLOSE,
730,實踐國小活動中心,臺北市文山區樟文里忠順街1段4號,63000,63000080,24.98295255,121.557945,02-29360725#135,https://az804957.vo.msecnd.net/photogym/20160818142431_實小活動中心外部1.jpg,"羽球場(館),排球場(館)",CLOSE,
731,永春國小活動中心,臺北市信義區永春里松山路225巷48號,63000,63000020,25.04412039,121.5793097,02-27641314#632,https://az804957.vo.msecnd.net/photogym/20160507145555_活動中心外觀.jpeg,排球場(館),CLOSE,
732,露天綜合球場,高雄市內門區內南里大學路200號,64000,64000350,22.90541182,120.4665363,07-6678888#3261,https://az804957.vo.msecnd.net/photogym/20160830112915_籃排球場.jpg,排球場(館),CLOSE,
733,永安國小排球場,臺東縣鹿野鄉永安村鹿寮路31號,10014,10014050,22.9339999,121.1289024,08-9551172,https://az804957.vo.msecnd.net/photogym/20160826151706_Image80.JPG,排球場(館),CLOSE,
734,花蓮女中籃球場,花蓮縣花蓮市菁華街２號,10015,10015010,23.97869969,121.6163296,03-8321202#133,https://az804957.vo.msecnd.net/photogym/20160504163142_IMG_4296.JPG,"籃球場,排球場(館)",CLOSE,
735,斗六家商排球場,雲林縣斗六市成功路120號,10009,10009010,23.70630384,120.547613,05-5322147,https://az804957.vo.msecnd.net/photogym/20160308135434_DSCN3906.JPG,排球場(館),FREE,
736,明湖國小活動中心,臺北市內湖區東湖里康寧路3段105號,63000,63000100,25.07086404,121.6112781,02-26323477#41,https://az804957.vo.msecnd.net/photogym/20160918170024_IMAG4510.jpg,"排球場(館),羽球場(館),游泳池(館)",CLOSE,
737,東光國小籃球場,屏東縣東港鎮興東里長春二路15號,10013,10013030,22.46875715,120.4602277,08-8324927#13,https://az804957.vo.msecnd.net/photogym/20140619104337_IMG_5533.JPG,"籃球場,排球場(館)",FREE,
738,光華學校財團法人臺中市光華高級工業職業學校籃球場,臺中市太平區東平路18號,66000,66000270,24.13802055,120.7364845,04-23949009#1240,https://az804957.vo.msecnd.net/photogym/20160919093835_運動場館02.jpg,"籃球場,排球場",CLOSE,
739,長庚大學排球場,桃園市龜山區文化一路259號,68000,68000070,25.03510407,121.3906721,03-2118800#2107,https://az804957.vo.msecnd.net/photogym/20140610163655_P6130664 (800x526).jpg,室外排球場,FREE,
740,長庚大學體育館,桃園市龜山區文化一路259號,68000,68000070,25.0326019,121.3902912,03-2118800#2107,https://az804957.vo.msecnd.net/photogym/20140609104329_P6130654 (800x600).jpg,"羽球場,排球場,籃球場",CLOSE,
741,室外排球場,嘉義市東區王田里圓福街86號,10020,10020010,23.48763188,120.4662681,05-2762625,https://az804957.vo.msecnd.net/photogym/20160513192837_IMG_1984-1.jpg,排球場(館),FREE,
742,大吉國中室外籃球場,嘉義縣民雄鄉大崎村內埔仔2之1號,10010,10010050,23.51533324,120.4876989,05-2211651#15,https://az804957.vo.msecnd.net/photogym/20160920114942_DSC_1230.JPG,籃球場(館),FREE,
743,烏龍國小風雨球場,屏東縣新園鄉南龍村南興路217號,10013,10013170,22.48747535,120.4578652,08-8325896,https://az804957.vo.msecnd.net/photogym/20160510191922_DSC05241.JPG,排球場(館),CLOSE,
744,長榮大學體育館,臺南市歸仁區長大路1號,67000,67000280,22.90473979,120.275107,06-2785123#1552,https://az804957.vo.msecnd.net/photogym/20140709163124_967.jpg,"籃球場,羽球場(館),排球場(館),舉重室",CLOSE,
745,學甲國小活動中心,臺南市學甲區秀昌里3鄰一秀30號,67000,67000130,23.23648592,120.175066,06-7833229,https://az804957.vo.msecnd.net/photogym/20140715155335_DSCN6287.JPG,排球場(館),CLOSE,
746,敏惠醫護管理專科學校籃球場,臺南市柳營區中山東路二段1116號,67000,67000040,23.27996494,120.3289175,06-6226111#368,https://az804957.vo.msecnd.net/photogym/20140717093119_運動場.JPG,"籃球場,排球場",CLOSE,
747,名間國中網球場,南投縣名間鄉中山村彰南路237號,10008,10008060,23.85350005,120.6780338,04-92732046,https://az804957.vo.msecnd.net/photogym/20160720123717_IMAG4491.jpg,"網球場(館),排球場(館)",FREE,
748,基隆商工維新館,基隆市七堵區東新街22號,10017,10017020,25.09378992,121.7182589,02-24567126#231,https://az804957.vo.msecnd.net/photogym/20140605153655_P1020272.JPG,"籃球場,排球場(館),羽球場(館)",CLOSE,
749,後港國小網球場,臺南市七股區大潭里台潭1號,67000,67000150,23.18348565,120.137279,06-7941305#14,https://az804957.vo.msecnd.net/photogym/20140714144626_DSCN3740.JPG,"網球場,排球場(館)",FREE,
750,永安國中排球場(館),高雄市永安區保興一路3號,64000,64000270,22.82219247,120.2404904,07-6912064#33,https://az804957.vo.msecnd.net/photogym/20140624145219_C:\Users\Administrator\Desktop\P_20140624_143722.jpg,排球場(館),CLOSE,
751,天母國中田徑場,臺北市士林區天和里天母東路120號,63000,63000110,25.11695113,121.5378481,02-28754864,https://az804957.vo.msecnd.net/photogym/20170619103731_1AGPNV0GQN4949ZYU4OK.jpg,"排球場,籃球場",CLOSE,
752,高雄高工排球場(館),高雄市三民區建工路419號,64000,64000050,22.64872483,120.3259242,07-3815366#2252,https://az804957.vo.msecnd.net/photogym/20140605115851_D:\謝鎮丞\回報資料\操場竄根回報照片\壓縮檔\DSC04281.JPG,排球場(館),FREE,
753,鳥松國中排球場,高雄市鳥松區松埔北巷5之1號,64000,64000180,22.66721952,120.371806,07-7323977#22,https://az804957.vo.msecnd.net/photogym/20170626100146_RUKFD2AF8AD6ROI6JMRJ.JPG,排球場(館),FREE,
754,楠陽國小排球場,高雄市楠梓區楠陽路100號,64000,64000040,22.72594854,120.3320074,07-3520675#131,https://az804957.vo.msecnd.net/photogym/20170626111040_GNDLRKIVT1ZIM6UFPTM6.jpg,排球場(館),FREE,
755,太平國中排球場,臺中市太平區中山路二段116號,66000,66000270,24.14864306,120.7340759,04-23922540#124,https://az804957.vo.msecnd.net/photogym/20160506150601_排球場1--s.jpg,排球場(館),CLOSE,
756,寶來國中田徑場,高雄市六龜區寶來里中正路137號,64000,64000320,23.10943749,120.703032,07-6881258#31,https://az804957.vo.msecnd.net/photogym/20140612153618_田徑場.jpg,"田徑場,壘球場,籃球場,排球場(館),網球場",FREE,
757,鶯歌國中活動中心,新北市鶯歌區尖山埔路108號,65000,65000080,24.95083,121.3447022,02-26701461#230,https://az804957.vo.msecnd.net/photogym/20140618090838_DSC04236.JPG,"排球場(館),籃球場,羽球場(館),田徑場",CLOSE,
758,雙溪高中田徑場,新北市雙溪區梅竹蹊3號,65000,65000250,25.0364461,121.8620306,02-24931028#221,https://az804957.vo.msecnd.net/photogym/20170627141057_TPZAO4UEVKKA48ORV5MV.jpg,"籃球場,排球場(館)",PAID,
759,積穗國中田徑場,新北市中和區民安街66號,65000,65000030,25.00035254,121.4797354,02-22234747#832,https://az804957.vo.msecnd.net/photogym/20170627095840_7XP5EEB4HRNLSQP21120.JPG,"田徑場,排球場(館)",CLOSE,
760,義學國中排球場,新北市泰山區民生路33號,65000,65000160,25.05053872,121.4305651,02-22961168#290,https://az804957.vo.msecnd.net/photogym/20170628093629_13NDR2IERCO0F0V29EOK.jpg,排球場(館),FREE,
761,翠屏排球場,高雄市楠梓區翠屏路135號,64000,64000040,22.72930909,120.2992827,07-3683018#133,https://az804957.vo.msecnd.net/photogym/20170628111040_R4W41RGPTHJMBK4VGFA7.JPG,環形/直線慢跑道(非田徑場型),FREE,
762,高雄市龍山國小風雨球場,高雄市美濃區龍山里龍山街62號,64000,64000310,22.86446098,120.5559826,07-6833654,https://az804957.vo.msecnd.net/photogym/20160826023334_IMG_1467.JPG,"籃球場,排球場(館)",PAID,
763,武潭國小平和分校風雨球場,屏東縣泰武鄉平和村太和巷1號,10013,10013290,22.55608032,120.6361485,08-7851265,https://az804957.vo.msecnd.net/photogym/20140707090321_1404696426724.jpg,"籃球場,排球場(館)",FREE,
764,琉球國中籃球場,屏東縣琉球鄉中正路158號,10013,10013220,22.33534454,120.3678471,08-8612509#14,https://az804957.vo.msecnd.net/photogym/20160929221911_7ATV8IFBVUXV4I8MRW5J.jpg,排球場(館),FREE,
765,泰山高中排球場,新北市泰山區辭修路7號,65000,65000160,25.05764424,121.4295995,02-22963625#303,https://az804957.vo.msecnd.net/photogym/20170629161150_BQICR5ZXAF2OAWE5AOQF.JPG,排球場(館),FREE,
766,東光國小籃球場,南投縣魚池鄉東光村慶隆巷36號,10008,10008090,23.89069354,120.9668648,04-92880584,https://az804957.vo.msecnd.net/photogym/20140603133639_照片 035.jpg,排球場(館),FREE,
767,蘆洲國中活動中心,新北市蘆洲區中正路265號,65000,65000140,25.08560861,121.4653587,02-22811571#215,https://az804957.vo.msecnd.net/photogym/20140612102141_DSCN2504.JPG,"排球場(館),籃球場",PAID,
768,中興大學附屬高級中學田徑場,臺中市大里區東榮路369號,66000,66000280,24.10889517,120.6835091,04-24875199#521,https://az804957.vo.msecnd.net/photogym/20140610111356_IMG_20140610_122010[1].jpg,"田徑場,排球場",FREE,
769,六龜高中運動中心,高雄市六龜區義寶里光復路212號,64000,64000320,22.99295548,120.6346786,07-6891023,https://az804957.vo.msecnd.net/photogym/20140530113636_DSCF0364.JPG,"A排球場,B籃球場,C籃球場,D籃球場,田徑場",FREE,
770,白河商工籃球場,臺南市白河區永安里新興路528號,67000,67000030,23.35491342,120.4176182,06-6852054,https://az804957.vo.msecnd.net/photogym/20140604162043_IMG_1587.jpg,排球場(館),FREE,
771,蘆洲國中排球場,新北市蘆洲區中正路265號,65000,65000140,25.08617705,121.4656001,02-22811571#215,https://az804957.vo.msecnd.net/photogym/20170704150449_TPNRSZK9BHKL1YMCFPH2.jpg,羽球場(館),FREE,
772,臺北藝術大學排球場(館),臺北市北投區學園路1號,63000,63000120,25.13650941,121.47443,02-28961000#3663,https://az804957.vo.msecnd.net/photogym/20140609193005_排球場全景.jpg,排球場(館),FREE,
773,蚵寮國小網球場,高雄市梓官區禮蚵里光明路177號,64000,64000290,22.73324921,120.2478953,07-6101044,https://az804957.vo.msecnd.net/photogym/20170703094238_WL09BF8Q95MH5IB9YXMK.jpg,排球場(館),CLOSE,
774,金山高中環形/直線慢跑道(非田徑場型),新北市金山區美田里文化二路2號,65000,65000270,25.22477165,121.6374707,02-24982028#410,https://az804957.vo.msecnd.net/photogym/20140611105856_PU17.jpg,排球場(館),PAID,
775,水里國中排球場,南投縣水里鄉民生路68號,10008,10008110,23.81017791,120.8581104,04-92770134#132,https://az804957.vo.msecnd.net/photogym/20170418145250_F24ACJQXUTV189L2JSBI.JPG,排球場(館),CLOSE,
776,獅甲國中多功能球場,高雄市前鎮區中山三路43號,64000,,22.60402484,120.3075778,07-3331522,https://az804957.vo.msecnd.net/photogym/20140702164815_手球場.jpg,"多功能球場,排球場(館),足球場",FREE,
777,八德國中活動中心,桃園市八德區興豐路321號,68000,68000080,24.92946653,121.2867022,03-3685322#510,https://az804957.vo.msecnd.net/photogym/20160930120408_NHPBZEFOYY7VI1UNZ6ZG.JPG,排球場(館),CLOSE,
778,桃源國中排球場(館),臺東縣延平鄉桃源村昇平路178號,10014,10014130,22.90238105,121.0807121,089-561255#13,https://az804957.vo.msecnd.net/photogym/20140620144822_CIMG5286.JPG,"排球場(館),籃球場",FREE,
779,台中高工排球場,臺中市南區高工路191號,66000,66000030,24.11552925,120.6629598,04-22613158#5200,https://az804957.vo.msecnd.net/photogym/20170714184131_W7WNWZIKRDQ7GA0LLLDO.JPG,排球場(館),PAID,
780,鶯歌工商活動中心,新北市鶯歌區中正三路154號,65000,65000080,24.939777,121.3353162,02-26775040#823,https://az804957.vo.msecnd.net/photogym/20140603132504_IMG_8215.JPG,"籃球場,羽球場(館),排球場(館)",PAID,
781,溪崑國民排球場,新北市板橋區大觀路三段50巷30號,65000,65000010,24.99687145,121.4314878,02-26869727,https://az804957.vo.msecnd.net/photogym/20170712170859_1Q605T9SKRPRTB6H4GSC.JPG,排球場(館),CLOSE,
782,室內體育館,新北市石碇區華梵路1號,65000,65000190,24.98133171,121.6913402,02-26632102#2710,https://az804957.vo.msecnd.net/photogym/20140605164214_DSC_6058(2.jpg,"籃球場,羽球場,排球場",CLOSE,
783,華梵大學籃球場,新北市石碇區華梵路1號,65000,65000190,24.98167938,121.6930676,02-26632102#2710,https://az804957.vo.msecnd.net/photogym/20140620111204_圖片2.jpg,"籃球場,排球場",FREE,
784,崇右影藝科技大學室外綜合球場,基隆市信義區義七路40號,10017,10017070,25.13154122,121.7535889,02-24237785#616,https://az804957.vo.msecnd.net/photogym/20140710113109_IMAG7050[1].jpg,"籃球場,排球場",CLOSE,
785,崇右影藝科技大學體育館,基隆市信義區義七路40號,10017,10017070,25.13301276,121.7545116,02-24237785#616,https://az804957.vo.msecnd.net/photogym/20140709161122_IMAG7101[1].jpg,"籃球場,排球場(館),羽球場(館)",CLOSE,
786,曾文農工風雨球場,臺南市麻豆區南勢里南勢1號,67000,67000070,23.18715937,120.2633214,06-5721137#305,https://az804957.vo.msecnd.net/photogym/20170709175424_GLNDAUWFZLGRDS3VBGE7.JPG,風雨球場,FREE,
787,古亭國小體育館,宜蘭縣壯圍鄉古亭村古亭路81號,10002,10002060,24.77122193,121.7984569,03-9301022#206,https://az804957.vo.msecnd.net/photogym/20140611112637_IMAG2093.jpg,排球場(館),CLOSE,
788,高苑科技大學體育館,高雄市路竹區中山路1821號,64000,64000240,22.83902235,120.2678061,07-6077777,https://az804957.vo.msecnd.net/photogym/20140603152232_E:\上課教材.PPT\1-5運動攝影-課程內容........休運系三年級上學期3學分必修課程.........廖清海\Home Work\期末作業\_IGP2603.JPG,"籃球場,羽球場(館),排球場(館),籃球場,棒球場,網球場(館),足球場",CLOSE,
789,達德商工田徑場,彰化縣田中鎮中南路二段277號,10007,10007120,23.85280837,120.6087213,04-8753929#122,https://az804957.vo.msecnd.net/photogym/20140609161729_IMG_8974.JPG,"游泳池(館),籃球場,排球場(館),網球場(館),躲避球場,田徑場",FREE,
790,永年高中排球場(館),雲林縣土庫鎮建國路13號,10009,10009050,23.67869226,120.4010046,05-6622540#218,https://az804957.vo.msecnd.net/photogym/20140714133900_S__557079.jpg,"排球場(館),排球場(館)",CLOSE,
791,新北高中排球場,新北市三重區三信路1號,65000,65000020,25.08819327,121.4916873,02-28577326#127,https://az804957.vo.msecnd.net/photogym/20170710115916_PT7L2B4SFHBCI5HBJNN2.JPG,排球場(館),FREE,
792,建德國中籃球場,基隆市安樂區安和一街29號,10017,10017060,25.12783072,121.722073,02-24321234#31,https://az804957.vo.msecnd.net/photogym/20140609111326_籃球場1.JPG,"籃球場,排球場(館)",PAID,
793,光復校區籃球場,臺南市東區大學路1號,67000,67000320,22.99730416,120.2154547,06-2757575#50385,https://az804957.vo.msecnd.net/photogym/20170706123342_05K4JST604ZSSIOKI787.jpg,"籃球場,排球場(館)",FREE,
794,室外多功能球場,嘉義市西區新民路601號,10020,10020020,23.46407318,120.4388763,05-2855331#250,https://az804957.vo.msecnd.net/photogym/20170905120506_OUFB0QYB7MX8EDQ1X8SM.jpg,棒、壘球室外打擊場,FREE,
795,淡江大學五虎崗球場,新北市淡水區英專路151號,65000,65000100,25.1756226,121.4539701,02-26230985,https://az804957.vo.msecnd.net/photogym/20170906110829_XVFP07CO70DPOPJZA30Z.JPG,"籃球場,排球場,網球場",FREE,
796,泰源國中風雨集合場,臺東縣東河鄉北源村三鄰30號,10014,10014070,23.00200392,121.2895138,089-891252#207,https://az804957.vo.msecnd.net/photogym/20140618142647_C:\Users\User-PC\Desktop\IMG_1471.jpg,"籃球場,排球場(館),羽球場(館)",FREE,
797,新泰國中活動中心,新北市新莊區新泰路359號,65000,65000050,25.04252142,121.4441746,02-29960745#501,https://az804957.vo.msecnd.net/photogym/20140612141137_活動中心1.jpg,"田徑場,籃球場,風雨操場,棒、壘球打擊練習場",FREE,
798,高英工商綜合球場,高雄市大寮區鳳林三路19巷44號,64000,64000140,22.59332489,120.4005271,07-7832991,https://az804957.vo.msecnd.net/photogym/20170919150856_HMHBRJKYSQ84L20YNFNW.jpg,"籃球場,排球場(館)",FREE,
799,懷恩館,宜蘭縣礁溪鄉林美村林尾路160號,10002,10002050,24.81624943,121.723752,03-9871000#11252,https://az804957.vo.msecnd.net/photogym/20140704105433_DSC_2457.jpg,"懷恩館,羽球場(館),排球場(館)",CLOSE,
800,瑞中田徑場,新北市瑞芳區三爪子坑路1號,65000,65000120,25.10790188,121.814974,02-24972145#0223,https://az804957.vo.msecnd.net/photogym/20170922092601_OBUTI9J1IJ9E8TWGUIYA.jpg,"排球場(館),田徑場",FREE,
801,秀水國中環形/直線慢跑道(非田徑場型),彰化縣秀水鄉安東村中山路202號,10007,10007070,24.03618968,120.5037342,04-7696031#330,https://az804957.vo.msecnd.net/photogym/20140707102136_IMG_2410.jpg,"環形/直線慢跑道(非田徑場型),籃球場,排球場(館)",FREE,
802,宜蘭縣成功國小體育館,宜蘭縣羅東鎮興東南路100號,10002,10002020,24.67149462,121.7681587,03-9542156#112,https://az804957.vo.msecnd.net/photogym/20140923220853_003_G.jpg,"籃球場,羽球場(館),武術場,排球場(館)",CLOSE,
803,排球場,新竹市東區仰德路11號,10018,10018010,24.81215448,121.0027474,03-5711125,https://az804957.vo.msecnd.net/photogym/20170925133721_FZF6OQTI52GQ0XYNI4LO.jpg,排球場(館),FREE,
804,三星國中運動場,宜蘭縣三星鄉月眉村月眉街54號,10002,10002100,24.66786143,121.6537678,03-9892012#235,https://az804957.vo.msecnd.net/photogym/20170925140343_M5H66C9BBRP271ZN9CWZ.JPG,排球場(館),FREE,
805,三星國小學生活動中心,宜蘭縣三星鄉三星路五段86號,10002,10002100,24.6661128,121.6503904,03-9892026#12,https://az804957.vo.msecnd.net/photogym/20140617092741_20140617_091016.jpg,"籃球場,羽球場(館),躲避球場,排球場(館)",CLOSE,
806,三和國中排球場,新北市三重區三和路四段216號,65000,65000020,25.07634811,121.4867842,02-22879890#623,https://az804957.vo.msecnd.net/photogym/20170926125200_WMR4KF4GLBBFC95596XB.jpg,排球場,FREE,
807,中寮國小籃球場,南投縣中寮鄉永平村永平路316號,10008,10008080,23.8800627,120.7637036,049-2691322,https://az804957.vo.msecnd.net/photogym/20170927095730_SUI1MMAJ17W50AW4ZA33.JPG,"籃球場,躲避球場,排球場(館)",FREE,
808,中寮國小活動中心,南投縣中寮鄉永平村永平路316號,10008,10008080,23.87913733,120.7638484,049-2691322,https://az804957.vo.msecnd.net/photogym/20170927094750_3JNEUFKGXQWX5KH7IS05.JPG,排球場(館),CLOSE,
809,東光國中體育館,宜蘭縣羅東鎮興東南路201號,10002,10002020,24.67156745,121.7675471,03-9542603,https://az804957.vo.msecnd.net/photogym/20140610153620_950829.jpg,"籃球場,排球場(館),羽球場(館)",CLOSE,
810,育德工家籃球場,臺南市新營區健康路211號,67000,67000010,23.31542959,120.3118157,06-6563275#235,https://az804957.vo.msecnd.net/photogym/20140529135614_DSC02604.JPG,"排球場(館),籃球場",CLOSE,
811,中正國中體育館,基隆市中正區中船路36巷59號,10017,10017010,25.13561826,121.7533582,02-24282191,https://az804957.vo.msecnd.net/photogym/20140611092217_DSC00097.JPG,"羽球場(館),籃球場,排球場(館)",PAID,
812,五結國中體育館,宜蘭縣五結鄉大吉村大吉5路58號,10002,10002090,24.70274359,121.8017721,03-9501105#13,https://az804957.vo.msecnd.net/photogym/20140610142127_DSC04795.JPG,"籃球場,羽球場(館),排球場(館)",CLOSE,
813,高雄高商排球場,高雄市新興區五福二路3號,64000,64000060,22.62551583,120.3103083,07-2269975,https://az804957.vo.msecnd.net/photogym/20170922171235_P5EAZFE2U122T2SPA5WF.JPG,排球場(館),FREE,
814,玉井國中排球場(館),臺南市玉井區大成路152號,67000,67000230,23.12396968,120.4713053,06-5742214,https://az804957.vo.msecnd.net/photogym/20140715104038_P1250571 (800x600).jpg,排球場(館),FREE,
815,雙春國小籃球場,臺南市北門區雙春里35之2號,67000,67000170,23.30154516,120.1240692,06-7863141#14,https://az804957.vo.msecnd.net/photogym/20140804110016_333.JPG,排球場(館),FREE,
816,寶山國中莒光分部籃球場,新竹縣寶山國中莒光分部,,,24.73652705,121.0258037,03-5761278,https://az804957.vo.msecnd.net/photogym/20170928105723_CCU0MA0KUN4WWS1HJ6R8.JPG,"排球場(館),網球場(館),籃球場",FREE,
817,大樹國小綜合球場,高雄市大樹區中正一路249號,64000,64000150,22.68763206,120.4346931,07-6513752,https://az804957.vo.msecnd.net/photogym/20170930154855_U396WNGCXARTK8L48VVH.jpg,排球場(館),FREE,
818,豫章工商排球場,新北市板橋區四川路一段391號,65000,65000010,24.99734792,121.4589375,02-29519810#351,https://az804957.vo.msecnd.net/photogym/20140620103055_P1030757.JPG,排球場(館),CLOSE,
819,崇光女中操場,新北市新店區三民路18號,65000,65000060,24.97154544,121.5386125,02-29112543#215,https://az804957.vo.msecnd.net/photogym/20160910113937_操場圖.jpg,"環形/直線慢跑道(非田徑場型),籃球場,排球場(館)",CLOSE,
820,柯林國小籃球場,宜蘭縣冬山鄉柯林村光華路158號,10002,10002080,24.67687125,121.7320293,03-9511355#103,https://az804957.vo.msecnd.net/photogym/20140613131641_IMGP3349.JPG,"籃球場,排球場(館),躲避球場",FREE,
821,廣福國小排球場兼樂樂足球場兼躲避球場,新北市土城區學府路一段127號,65000,65000130,24.98683527,121.4548142,02-22626782#303,https://az804957.vo.msecnd.net/photogym/20170926144458_ZLAPITQEKL7GPAZQDHUV.jpg,樂樂足球場,CLOSE,
822,培英國中排球場,新竹市東區學府路4號,10018,10018010,24.79360136,120.9776044,03-5721301#40,https://az804957.vo.msecnd.net/photogym/20171013163649_MVHMY45KV3YA5JJBYX3U.jpg,排球場(館),CLOSE,
823,礁溪國中五育館,宜蘭縣礁溪鄉礁溪路4段23號,10002,10002050,24.81665073,121.7666781,03-9882412,https://az804957.vo.msecnd.net/photogym/20140612105119_IMG_8707-1.JPG,"籃球場,排球場(館)",CLOSE,
824,南港高中田徑場,臺北市南港區西新里向陽路21號,63000,63000090,25.05219512,121.5941628,02-27837863#245,https://az804957.vo.msecnd.net/photogym/20171016133441_0SRI7EWVKLIQQVMLXPCY.jpg,"田徑場,籃球場,排球場(館)",FREE,
825,白河國小活動中心,臺南市白河區永安里三民路448號,67000,67000030,23.35201262,120.4143995,06-6852177,https://az804957.vo.msecnd.net/photogym/20140709152722_DSC_1732.JPG,"排球場(館),桌球場(館)",CLOSE,
826,祥和國小籃球場,嘉義縣朴子市祥和二路西段9號,10010,10010020,23.456842,120.2878475,05-3621839,https://az804957.vo.msecnd.net/photogym/20140611133540_tn_2.JPG,排球場(館),FREE,
827,排路國小田徑場,嘉義縣大林鎮排路里231號,10010,10010040,23.61059298,120.4221725,05-2694974,https://az804957.vo.msecnd.net/photogym/20140611141041_排路國小田徑場地.JPG,"田徑場,排球場(館)",FREE,
828,福豐國中活動中心,桃園市桃園區延平路326號,68000,68000010,24.97684106,121.3129207,03-3669547#314,https://az804957.vo.msecnd.net/photogym/20140611164250_A02-9604-活動中心.jpg,"籃球場,排球場(館)",CLOSE,
829,文賢國小網球場(館),雲林縣西螺鎮鹿場里文賢路1號,10009,10009040,23.74735512,120.4651201,05-6341157#046,https://az804957.vo.msecnd.net/photogym/20140609165135_P6090905.jpg,"網球場(館),排球場(館)",CLOSE,
830,東勢國小活動中心,雲林縣東勢鄉東南村東榮路29巷9號,10009,10009140,23.67412328,120.256691,05-6991036,https://az804957.vo.msecnd.net/photogym/20140625080559_01.jpg,"排球場(館),籃球場",PAID,
831,三民國中活動中心,臺北市內湖區湖興里民權東路6段45號,63000,63000100,25.06908401,121.586042,02-27924772#257,https://az804957.vo.msecnd.net/photogym/20140804111548_活動中心.JPG,"籃球場,羽球場(館),排球場(館),游泳池(館)",CLOSE,
832,臺北醫學大學綜合球場,臺北市信義區吳興街250號,63000,63000020,25.02602989,121.5613765,02-27361661#2274,https://az804957.vo.msecnd.net/photogym/20140609114740_圖片2.jpg,"羽球場(館),籃球場,排球場(館)",PAID,
833,師大附中排球場(館),臺北市大安區和安里信義路3段143號,63000,63000030,25.03563485,121.5410743,02-27075215#271,https://az804957.vo.msecnd.net/photogym/20140620131653_mobiled563b1d3-6c79-4cf0-a3f3-84e8fed2dad1.jpg,排球場(館),CLOSE,
834,玉里高中活動中心,花蓮縣玉里鎮中華路424號,10015,10015030,23.34351672,121.3192159,03-8886171#331,https://az804957.vo.msecnd.net/photogym/20140612101458_體育館.JPG,"籃球場,排球場(館),羽球場(館),健身房(含重量訓練室),桌球場(館)",PAID,
835,高雄科技大學燕巢校區藤雄館,高雄市燕巢區區深中路58號,64000,,22.77260677,120.3988796,07-3814526#13534,https://az804957.vo.msecnd.net/photogym/20160907095522_104617174.jpg,"籃球場,排球場(館)",FREE,
836,花蓮高工田徑場,花蓮縣花蓮市府前路27號,10015,10015010,23.99872056,121.617955,03-8226108#308,https://az804957.vo.msecnd.net/photogym/20140609112517_YE6KSJMCYMJ2F42STSLN.JPG,"田徑場,足球場,排球場(館),籃球場",FREE,
837,興大附農排球場,臺中市東區台中路283號,66000,66000020,24.1285085,120.6852557,04-22810010#303,https://az804957.vo.msecnd.net/photogym/20160815143953_NXFN59E6M8SC7MKQR3Y7.JPG,排球場(館),FREE,
838,高雄餐旅大學多功能活動中心,高雄市小港區松和路1號,64000,64000110,22.56604592,120.3719338,07-8060505#1332,https://az804957.vo.msecnd.net/photogym/20140609161444_P6191561.JPG,"籃球場,網球場(館),羽球場(館),田徑場,排球場(館),桌球場(館),撞球場,健身房(含重量訓練室),舞蹈教室,足球場",FREE,
839,正德高中田徑場,彰化縣彰化市莿桐里彰水路145號,10007,10007010,24.05746965,120.5188465,(04)7524109#112,https://az804957.vo.msecnd.net/photogym/20140619163023_田徑場1.JPG,"田徑場,籃球場,排球場(館),足球場",CLOSE,
840,朝陽科大排球場,臺中市霧峰區吉峰東路168號,66000,66000260,24.0685462,120.7155311,04-23323000#3059,https://az804957.vo.msecnd.net/photogym/20170710105501_YSI7DYGNMVV1FMQ06SQV.JPG,排球場(館),FREE,
841,朝陽科大田徑場,臺中市霧峰區吉峰東路168號,66000,66000260,24.06764986,120.716148,04-23323000#3059,https://az804957.vo.msecnd.net/photogym/20170711093027_8BAR6QLLFZPQ22Z7O9I0.JPG,"籃球場,排球場(館),跳遠場",FREE,
842,臺灣師範大學田徑場(含足球場),新北市林口區仁愛路一段2號,65000,65000170,25.06906943,121.4044833,02-77148466,https://az804957.vo.msecnd.net/photogym/20140605090924_P8200128.JPG,"田徑場,籃球場及排球場各2面,足球場",PAID,
843,田徑場附設籃球場、田徑場附設足球場、田徑場附設排球場,桃園市中壢區龍勇路100號,68000,68000020,24.93878675,121.2397313,03-4575200#313,https://az804957.vo.msecnd.net/photogym/20140619152904_DSC04403-1.jpg,"籃球場,足球場,排球場(館)",FREE,
844,義民高中操場,新竹縣竹北市中正西路15號,10004,10004010,24.83908204,121.0042159,03-5552020#149,https://az804957.vo.msecnd.net/photogym/20140611163446_P1060165 (2736 x 1542).jpg,"田徑場,排球場(館),籃球場,網球場(館),足球場",CLOSE,
845,旗山國中田徑場,高雄市旗山區大德里中學路42號,64000,64000300,22.8807746,120.4810349,07-6612650#214,https://az804957.vo.msecnd.net/photogym/20140619145104_IMG_1791.jpg,"排球場(館),籃球場,田徑場,足球場",FREE,
846,會稽國中田徑場,桃園市桃園區大興路222號,68000,68000010,25.01688641,121.3132453,03-3551496#511,https://az804957.vo.msecnd.net/photogym/20140626140942_IMG_0087.JPG,"體適能健身區,籃球場,排球場,足球場",FREE,
847,銘傳國中體育館籃球場,基隆市仁愛區劉銘傳路132號,10017,10017040,25.12343195,121.7506278,02-24223120#30,https://az804957.vo.msecnd.net/photogym/20140618094852_DY5Z78LOR8TL028T5EED.jpg,"籃球場,排球場(館)",FREE,
848,亞洲大學體育館,臺中市霧峰區柳豐路500號,66000,66000260,24.04825942,120.6874323,04-23323456#3241,https://az804957.vo.msecnd.net/photogym/20140708145356_1253.jpg,"籃球場,羽球場(館),排球場(館),韻律教室,技擊教室,足球場,田徑場",CLOSE,
849,大仁國中排球場,高雄市苓雅區建國一路148號,64000,6400800,22.63447886,120.3297605,07-7114302#71,https://az804957.vo.msecnd.net/photogym/20180607122238_WMJ7ONIOMIWHT5YKYTD5.jpg,排球場(館),FREE,
850,茄萣國中運動場,高雄市茄萣區白雲里濱海路四段29號,64000,64000260,22.90675588,120.1807094,07-6900054#31,https://az804957.vo.msecnd.net/photogym/20160831175022_1.jpg,"田徑場,籃球場,排球場(館),橄欖球場(聯合式橄欖球場)",FREE,
851,關渡國小活動中心,臺北市北投區中央北路4段581號,63000,63000120,25.12660924,121.4662613,02-28975205,https://az804957.vo.msecnd.net/photogym/20140731121328_DSC028030000.jpg,"羽球場(館),籃球場,排球場(館),游泳池(館)",PAID,
852,小港高中田徑場,高雄市小港區學府路117號,64000,64000110,22.56474966,120.3557825,07-8062627#206,https://az804957.vo.msecnd.net/photogym/20140612103419_P1210802.JPG,"田徑場,籃球場1,排球場(館),網球場(館),籃球場2,足球場",FREE,
853,瑞梅國小活動中心,桃園市楊梅區梅溪里三元街99號,68000,68000040,24.91067872,121.1718207,03-4825284#520,https://az804957.vo.msecnd.net/photogym/20190423124045_EM31SMSKV03TE40P7GH7.JPG,"籃球場,羽球場(館),排球場(館)",CLOSE,
854,永靖高工活動中心,彰化縣永靖鄉永北村永坡路101號,10007,10007160,23.92616994,120.54461,04-8221810#515,https://az804957.vo.msecnd.net/photogym/20140620145027_01 (大型).JPG,"羽球場(館),籃球場,棒、壘球打擊練習場,排球場(館),紅土操場",FREE,
855,大竹國小環形/直線慢跑道(非田徑場型),彰化縣彰化市彰南路二段164巷41號,10007,10007010,24.08289661,120.5800688,04-7381436,https://az804957.vo.msecnd.net/photogym/20140707103937_P1040736.jpg,"田徑場,籃球場,躲避球場,排球場(館)",FREE,
856,勝利國小排球場(館),屏東縣屏東市勝利里蘭州街2號,10013,10013010,22.68017322,120.4858804,08-7652038,https://az804957.vo.msecnd.net/photogym/20140618154802_IMG_6760.JPG,排球場(館),PAID,
857,中興高中排球場(館),南投縣南投市中興新村中學路2號,10008,10008010,23.95047895,120.6961226,049-2331014,https://az804957.vo.msecnd.net/photogym/20140603094411_10409446_10202373800726141_7629426621647111052_n.jpg,排球場(館),FREE,
858,八德國中操場,桃園市八德區興豐路321號,68000,68000080,24.92965214,121.2871705,03-3685322#510,https://az804957.vo.msecnd.net/photogym/20190507090751_KBATN7S3P2H9MYX5KHWG.jpg,"籃球場,排球場",CLOSE,
859,柴林國小田徑場,嘉義縣溪口鄉柴林村107號,10010,10010060,23.60677369,120.3706554,05-2691440,https://az804957.vo.msecnd.net/photogym/20140604093451_1MJQ44PQMLAWDQBRZVEA.JPG,"籃球場,排球場(館),環形/直線慢跑道(非田徑場型)",FREE,
860,復興國中排球場,宜蘭縣宜蘭市復興路二段77號,10002,,24.74901384,121.7471784,03-9322942#5033,https://az804957.vo.msecnd.net/photogym/20190508152908_K28876OQ5XMO13QNS1T0.JPG,排球場(館),FREE,
861,崇文國小操場,屏東縣內埔鄉龍泉村原勝路6號,10013,10013130,22.66691756,120.6000566,08-7701004,https://az804957.vo.msecnd.net/photogym/20181025162631_YS1OKAQP45IP213KG3MZ.jpg,"籃球場,田徑場,排球場(館)",CLOSE,
862,大橋國中籃球場,臺南市永康區東橋十街1號,67000,67000310,23.02341598,120.2308184,06-3021793,https://az804957.vo.msecnd.net/photogym/20140716093142_IMAG2271.jpg,"籃球場,排球場(館)",FREE,
863,風雨操場,新北市三峽區復興路238號,65000,65000090,24.94110331,121.3699681,02-26711043#136,https://az804957.vo.msecnd.net/photogym/20190516094143_224VOZVRIISK0TP8WON1.jpg,排球場(館),PAID,
864,內埔國中操場,屏東縣內埔鄉文化路262號,10013,10013130,22.61087128,120.5703592,08-7792013#34,https://az804957.vo.msecnd.net/photogym/20140619100122_20160923_102345_Richtone(HDR).jpg,"田徑場,排球場,籃球場,網球場,足球場",FREE,
865,旗美高中排球場,高雄市旗山區東平里樹人路21號,64000,64000300,22.8860262,120.4933104,07-6612502#350,https://az804957.vo.msecnd.net/photogym/20190515210440_H5VJJ4P5I6LIR5L9596U.jpg,排球場(館),CLOSE,
866,枋寮高中體育館,屏東縣枋寮鄉新龍村義民路3號,10013,10013160,22.37061958,120.5903524,08-8782095,https://az804957.vo.msecnd.net/photogym/20140715114906_IMG_9649.JPG,排球場,CLOSE,
867,重慶國民小學綜合館,新北市板橋區廣和街31號,65000,65000010,24.995126,121.4625156,02-29565592#305,https://az804957.vo.msecnd.net/photogym/20140619175326_體育館全景.JPG,"游泳池(館),綜合球場,操場,健身房(含重量訓練室),排球場(館)",CLOSE,
868,三仙國小籃、排球場,臺東縣成功鎮三仙里基翬路八鄰16號,10014,10014020,23.11978994,121.3938886,089-851960#22,https://az804957.vo.msecnd.net/photogym/20140612091020_1XAIM8QKU3DNFKLNO8YS.jpg,籃球場,FREE,
869,楊明國中排球場,桃園市楊梅區新農街337號,68000,68000040,24.91124817,121.1548367,03-4781525#501,https://az804957.vo.msecnd.net/photogym/20140618215419_WUBWRI86SWVH2ZZK9UW4.jpg,排球場(館),FREE,
870,福誠高中活動中心,高雄市鳳山區五甲三路176號,64000,64000120,22.58982327,120.3227806,07-8224646#400,https://az804957.vo.msecnd.net/photogym/20170628152506_8L0XJFURQERES6CHOBP0.jpg,排球場(館),PAID,
871,東安國中體育館,桃園市平鎮區平東路168號,68000,68000100,24.91694773,121.2493497,03-4601407#311,https://az804957.vo.msecnd.net/photogym/20140619080142_IMG_20140618_114131-1.jpg,排球場(館),FREE,
872,中寮國中籃球場,南投縣中寮鄉復興村初中巷50號,10008,10008080,23.8829094,120.7669061,049-2691247,https://az804957.vo.msecnd.net/photogym/20140604125328_100_3938.jpg,"籃球場,排球場(館)",FREE,
873,仁武高中綜合球場,高雄市仁武區仁林路20號,64000,64000170,22.70290346,120.3550662,07-3721640#213,https://az804957.vo.msecnd.net/photogym/20190530162037_EXP8X4MPPYZIHK0ZIBVL.jpg,排球場(館),FREE,
874,四湖國小活動中心,雲林縣四湖鄉四湖村中山東路37號,10009,10009180,23.63683343,120.2292573,05-7872100,https://az804957.vo.msecnd.net/photogym/20140624111932_C:\Documents and Settings\Administrator\桌面\1.jpg,排球場(館),CLOSE,
875,三民國小活動中心,臺北市松山區莊敬里民權東路五段1號,63000,63000010,25.06393328,121.5645683,02-27646080#222,https://az804957.vo.msecnd.net/photogym/20140728151559_100校園風景 (61).JPG,"排球場(館),田徑場",CLOSE,
876,臺南大學中山體育館,臺南市中西區樹林街二段33號,67000,67000370,22.98414045,120.2071613,06-2133111#341,https://az804957.vo.msecnd.net/photogym/20140529155846_Q84RQ86PSO9N70CFBWU5.jpg,"羽球場(館),排球場(館),籃球場",CLOSE,
877,高雄科技大學建工校區體育館,高雄市三民區建工路415號,64000,64000050,22.64997736,120.3279412,07-3814526#13536,https://az804957.vo.msecnd.net/photogym/20140625141902_photo (4).JPG,"羽球場(館),排球場(館),健身房(含重量訓練室),桌球場(館),舞蹈教室",CLOSE,
878,東勢高工活動中心,臺中市東勢區東關路6段1328號,66000,66000100,24.24270915,120.8341974,04-25872136#207,https://az804957.vo.msecnd.net/photogym/20140605164311_新校區空照圖（修改1）.jpg,排球場(館),PAID,
879,臺北市協和祐德高中籃球場、排球場,臺北市信義區忠孝東路五段790巷27號,63000,63000020,25.04198923,121.5835235,02-27265775#124,https://az804957.vo.msecnd.net/photogym/20170905175711_F2GM6RJCFDOB7N8A00ZU.jpg,"籃球場,排球場",CLOSE,
880,南光高中田徑場,臺南市新營區中興路62號,67000,67000010,23.29848351,120.314219,06-6335408#123,https://az804957.vo.msecnd.net/photogym/20140715181002_DSC03617.JPG,"田徑場,籃球場,排球場(館),健身房(含重量訓練室),網球場(館),桌球場(館)",CLOSE,
881,建國中學活動中心,臺北市中正區龍光里南海路56號,63000,63000050,25.02953932,121.5126085,02-23034381,https://az804957.vo.msecnd.net/photogym/20140605085653_活動中心.jpg,"籃球場,排球場(館),游泳池(館),羽球場(館)",CLOSE,
882,慈濟科技大學籃球場,花蓮縣花蓮市建國路二段880號,10015,10015010,23.99831418,121.5648271,03-8572158#2356,https://az804957.vo.msecnd.net/photogym/20140606184101_DSC00245.jpg,"籃球場,排球場(館)",CLOSE,
883,平鎮國中田徑場,桃園市平鎮區新富里振興路2號,68000,68000100,24.94448401,121.2182468,03-4572150#328,https://az804957.vo.msecnd.net/photogym/20140616112616_10464052_10202512077228811_936294471509006369_n (960x720).jpg,"田徑場,排球場,籃球場",FREE,
884,民族國中田徑場,高雄市三民區覺民路363號,64000,64000050,22.63871904,120.3327155,07-3818718#20,https://az804957.vo.msecnd.net/photogym/20140703142923_IMG_4730.JPG,"籃球場,網球場(館),排球場(館),足球場",FREE,
885,永豐高中運動場,桃園市八德區永豐路609號,68000,68000080,24.97531266,121.2690037,03-3692679#312,https://az804957.vo.msecnd.net/photogym/20140619111411_1403139606815.jpg,"足球場,排球場(館),籃球場,田徑場",PAID,
886,舊莊國小後山操場,臺北市南港區舊莊里舊莊街1段100號,63000,63000090,25.03915122,121.6191273,02-27821418#130,https://az804957.vo.msecnd.net/photogym/20140725105441_C745A1GLNSXEA1HR856F.JPG,"籃球場,躲避球場,田徑場,排球場(館)",CLOSE,
887,六和高中田徑場,桃園縣平鎮市陸光路180號,,,24.94546691,121.1858912,03-4204000#205,https://az804957.vo.msecnd.net/photogym/20190304111354_JWS54N7GZZPE6FFARQN3.jpg,"田徑場,足球場,排球場(館)",CLOSE,
888,三和國小網球場(館),嘉義縣大林鎮中興路二段937號,10010,10010040,23.60537033,120.4872408,05-2949120#04,https://az804957.vo.msecnd.net/photogym/20140612112846_P1090516-400.jpg,"網球場(館),網球場",CLOSE,
889,光榮國中田徑場,臺中市大里區東榮路280號,66000,66000280,24.11124008,120.6876361,04-24831428#163,https://az804957.vo.msecnd.net/photogym/20140909095332_IMG_0017.JPG,"田徑場,籃球場,排球場(館),手球場(館)",CLOSE,
890,方曙商工排球場(館),桃園市龍潭區上林村中原路一段50號,68000,68000090,24.8574981,121.2011129,03-4796345#312,https://az804957.vo.msecnd.net/photogym/20140616121448_13392.jpg,排球場(館),CLOSE,
891,臺北市立實踐國中活動中心,臺北市文山區樟林里辛亥路七段67號,63000,63000080,24.98342988,121.5547782,02-22362857#150,https://az804957.vo.msecnd.net/photogym/20160513123637_體育館全景 (1).JPG,"籃球場,羽球場(館),合球場,排/籃球場",FREE,
892,忠孝國中綜合球場,臺北市大同區玉泉里西寧北路32號,63000,63000060,25.05099719,121.5076894,02-25524890,https://az804957.vo.msecnd.net/photogym/20170908193846_U4HAR6HSVGWUX1NBG6BF.JPG,"籃球場,排球場(館)",FREE,
893,草湖國小活動中心,臺中市大里區西湖里西湖路32號,66000,66000280,24.07826352,120.6899267,04-24953078,https://az804957.vo.msecnd.net/photogym/20140718154219_DSC_0004.JPG,"排球場(館),羽球場(館)",CLOSE,
894,新光國小籃球場,高雄市左營區華夏路800號,64000,64000030,22.68018807,120.3057057,07-3438577#212,https://az804957.vo.msecnd.net/photogym/20140625163506_籃球1.jpg,"籃球場,排球場(館)",FREE,
895,聯合大學第一(二坪山)校區活動中心3F體育館,苗栗縣苗栗市恭敬里聯大1號,10005,10005010,24.54607804,120.8126829,03-7381273,https://az804957.vo.msecnd.net/photogym/20140530103330_活動中心體育館2.JPG,"籃球場,排球場(館),羽球場(館)",CLOSE,
896,聯合大學第一(二坪山)校區田徑場,苗栗縣苗栗市恭敬里聯大1號,10005,10005010,24.54587798,120.8135412,03-7381273,https://az804957.vo.msecnd.net/photogym/20140530170938_200公尺跑道及排球場.JPG,"田徑場,排球場",FREE,
897,聯合大學第二(八甲)校區風雨球場,苗栗縣苗栗市南勢里聯大2號,10005,10005010,24.5356288,120.7918024,03-7381273,https://az804957.vo.msecnd.net/photogym/20160721194336_f1425521704121.jpg,"籃球場,排球場(館)",FREE,
898,中興國民小學活動中心,基隆市信義區信二路40號,10017,10017070,25.13086129,121.7571563,02-24225038#30,https://az804957.vo.msecnd.net/photogym/20140618115830_DSC_0030.JPG,"羽球場(館),籃球場,排球場(館)",FREE,
899,華江國小活動中心,臺北市萬華區環河南路2段250巷42弄2號,63000,63000070,25.03419725,121.4912498,02-23064352#134,https://az804957.vo.msecnd.net/photogym/20140722092316_DSC_0273.JPG,"羽球場(館),排球場(館)",PAID,
900,市立格致國中綜合籃球場,臺北市士林區陽明里仰德大道四段75號,63000,63000110,25.13086964,121.5464429,02-28610079#109,https://az804957.vo.msecnd.net/photogym/20160506153026_S__24371266.jpg,籃球場(館),CLOSE,
901,福智高中,雲林縣古坑鄉麻園村平和23號,10009,10009070,23.63683941,120.5242144,05-5828222#6422,https://az804957.vo.msecnd.net/photogym/20180803104350_JZYMC1YEQ2NZ6F5KQI1Q.jpg,排球場(館),CLOSE,
902,世新大學體育館,臺北市文山區木柵路一段17巷1號,63000,63000080,24.98986033,121.5454119,02-22368225#83078,https://az804957.vo.msecnd.net/photogym/20140604122953_室外球場s.jpg,"籃球場,羽球場(館),排球場(館),桌球場(館),柔道場/館,舞蹈教室,體適能中心 (含重量訓練室)",PAID,